id,location_id,address_1,address_2,city,state_province,postal_code,country
1,139278,Sojourner Douglass College,"200 N. Central Ave., 1St Fl., #114",Baltimore,MD,21202,US
2,138427,13 S. Poppleton Street,,Baltimore,MD,21201,US
3,139776,4402 White Oak Avenue,,Baltimore,MD,21215,US
4,138167,3501 Taylor Avenue,,Baltimore,MD,21236,US
5,137787,55 N. Court Street,Suite 100,Westminster,MD,21157,US
6,139054,120 Sister Pierre Drive,Suite 403,Towson,MD,21204,US
7,138472,"935 Pennsylvania Avenue, Nw",J. Edgar Hoover Building,Washington,DC,20535,US
8,138368,2401 West Belvedere Avenue,,Baltimore,MD,21215,US
9,139289,1301 Mcculloh Street,,Baltimore,MD,21217,US
10,139791,8635 Loch Raven Boulevard,"Suite 4, 2Nd Floor",Baltimore,MD,21286,US
11,137691,100 N. Calvert Street,Room 410,Baltimore,MD,21202,US
12,138760,8501 Lasalle Road,Suite 106,Towson,MD,21286,US
13,138182,417 E. Fayette Street,Suite 468,Baltimore,MD,21202,US
14,137857,1200 W. Baltimore Street,,Baltimore,MD,21223,US
15,139211,3100 Wyman Park Drive,,Baltimore,MD,21211,US
16,138154,7480 Baltimore Annapolis Blvd.,Suite 100,Glen Burnie,MD,21061,US
17,139366,1928 Pennsylvania Avenue,,Baltimore,MD,21217,US
18,137793,725 Fallsway,,Baltimore,MD,21202,US
19,138979,11308 Grandview Avenue,2Nd Floor,Wheaton,MD,20902,US
20,137695,105 West Chesapeake Avenue,,Towson,MD,21204-4767,US
21,138719,3510 Eldorado Avenue,,Baltimore,MD,21207,US
22,138394,4901 Eastern Avenue,,Hyattsville,MD,20782,US
23,138646,6776 Reisterstown Road,Suite 307,Baltimore,MD,21215,US
24,139762,11319 Elkin Street,,Wheaton,MD,20906,US
25,139131,210 Guilford Avenue,3Rd Floor,Baltimore,MD,21202,US
26,139562,7001 Johnnycake Road,Suite 204,Woodlawn,MD,21244,US
27,137945,707 St. Paul Street,,Baltimore,MD,21202,US
28,138179,1 N. Charles Street,Suite 222,Baltimore,MD,21201-3701,US
29,138493,4101 1/2 Old York Road,,Baltimore,MD,21218,US
30,137651,251 West Street,P.O. Box 1951 (Mailing Address),Annapolis,MD,21401-1951,US
31,138404,7601 Osler Drive,,Towson,MD,21204,US
32,137696,6401 York Road,,Baltimore,MD,21212,US
33,137683,417 E. Fayette St.,Suite 1346,Baltimore,MD,21202,US
34,139808,1730 Twin Springs Road,Suite 200,Halethorpe,MD,21227,US
35,138741,10025 Governor Warfield Parkway,Suite 102,Columbia,MD,21044,US
36,138152,630 W. Fayette Street,,Baltimore,MD,21201-1585,US
37,138706,7520 Surratts Road,,Clinton,MD,20735,US
38,138934,1634 Guilford Ave,,Baltimore,MD,21202,US
39,138803,11299 Owings Mills Blvd.,Suite 204,Owings Mills,MD,21117,US
40,137996,516 Glenwood Avenue,,Baltimore,MD,21212,US
41,138171,200 W. Baltimore Street,,Baltimore,MD,21201,US
42,138916,2114 N. Charles Street,Suite 100,Baltimore,MD,21218,US
43,139330,6211 Harford Rd.,,Baltimore,MD,21214,US
44,138159,6901 N. Charles Street,Ess Bldg. Suite 211,Towson,MD,21204,US
45,138872,3723 Old Court Road,Suite 205,Baltimore,MD,21208,US
46,139760,6401 York Road,,Baltimore,MD,21212,US
47,137718,Verizon - Administrative Services,2510 Riva Road,Baltimore,MD,21401,US
48,137793,1301 Continental Drive,Suite 103,Abingdon,MD,21009,US
49,137791,745 West Fayette Street,,Baltimore,MD,21201-1111,US
50,138931,818 North Collington Avenue,,Baltimore,MD,21205,US
51,138789,7507 Standish Place,,Gaithersburg,MD,20855,US
52,139019,2714 Hudson Street,,Baltimore,MD,21224,US
53,138154,1100 N. Eutaw Street,Room 606,Baltimore,MD,21201,US
54,139564,231 E. Baltimore Street,Suite 800,Baltimore,MD,21202,US
55,138886,1717 Gwynn Oak Avenue,,Baltimore,MD,21207,US
56,138338,511 S. Crain Highway,,Baltimore,MD,21061,US
57,138005,6569 N. Charles Street,Suite 305,Baltimore,MD,21204,US
58,138762,1314 Bedford Avenue,Suite 210,Baltimore,MD,21208,US
59,139783,"2901 14Th Street, Nw",,WASHINGTON,DC,20009,US
60,137705,P.O. Box 1475,,Baltimore,MD,21203,US
61,137699,9835 Greenside Drive,,Cockeysville,MD,21030,US
62,139238,6002 Hunt Club Lane,,Baltimore,MD,21210,US
63,137721,1429 Mcculloh Street,,Baltimore,MD,21217,US
64,137925,601 N. Schroeder Street,,Baltimore,MD,21217,US
65,139432,3610 Milford Mill Road,Suite 2D,Randallstown,MD,21244,US
66,138056,2201 Argonne Drive,,Baltimore,MD,21218-1627,US
67,139598,4213 Loch Raven Blvd.,,Baltimore,MD,21218-1409,US
68,138431,"2601 Ulman Avenue, Rear",,Baltimore,MD,21215,US
69,137690,Baltimore City Public Schools,200 E. North Avenue,Baltimore,MD,21202,US
70,138334,635 West Lexington Street,,Baltimore,MD,21201-1571,US
71,138493,701 W. Pratt Street,,Baltimore,MD,21201,US
72,139127,515 South Haven Street,,Baltimore,MD,21224,US
73,138780,8720 Philadelphia Road,,Baltimore,MD,21237,US
74,139131,2101 Garrison Blvd.,,Baltimore,MD,21216,US
75,138366,2500 West Lombard Street,,Baltimore,MD,21223,US
76,139824,501 Hampton Lane,,Towson,MD,21286,US
77,138018,5807 Harford Road,,Baltimore,MD,21214-1895,US
78,139037,2901 Druid Park Drive,Suite A204,Baltimore,MD,21215,US
79,137696,6401 York Road,,Baltimore,MD,21212,US
80,138174,6 Saint Paul Street,Suite 2102,Baltimore,MD,21202-1608,US
81,137793,2600 Pot Spring Road,,Timonium,MD,21093,US
82,139143,1300 North Eden Street,,Baltimore,MD,21213,US
83,137696,6401 York Road,,Baltimore,MD,21212,US
84,139683,10001 Derekwood Lane,Suite 200,Upper Marlboro,MD,20716,US
85,137894,31 Hopkins Plaza,Suite 1229,Baltimore,MD,21201-2825,US
86,137693,4423 Bucks Schoolhouse Road,,Baltimore,MD,21237,US
87,138761,330 N. Howard Street,,Baltimore,MD,21201,US
88,137628,3600 Clipper Mill Road,Suite 350,Baltimore,MD,21211,US
89,137824,29449 Charlotte Hall Road,,Charlotte Hall,MD,20622,US
90,138143,190 West Ostend Street,Suite 201,Baltimore,MD,21230,US
91,137689,500 E. Baltimore Street,,Baltimore,MD,21202,US
92,137686,501 E. Fayette Street,Room 207,Baltimore,MD,21202,US
93,138178,1777 Reisterstown Road,Suite 199,Baltimore,MD,21208,US
94,139131,201 E. Baltimore Street,Suite 950,Baltimore,MD,21202,US
95,138704,6000 Metro Drive,Suite 101,Baltimore,MD,21215,US
96,137744,New Metropolitan Church,1501 Mcculloh Street,Baltimore,MD,21217,US
97,138550,1200 Mondawmin Concourse,"Mondawmin Mall, Lower Level, Rm1128",Baltimore,MD,21215,US
98,138626,200 Baltimore Street,P.O. Box 2150 (Mailing Address),La Plata,MD,20646,US
99,138250,41660 Park Avenue,P.O. Box 1245,Leonardtown,MD,20650,US
100,138695,9505 Reisterstown Road,Suite 1 North,Owings Mills,MD,21117,US
101,137878,511 E. Baltimore Street,,Baltimore,MD,21202,US
102,137894,31 Hopkins Plaza,Suite 1229,Baltimore,MD,21201-2825,US
103,138381,315 North Calvert,,Baltimore,MD,21202,US
104,139189,13-19 S. Fulton Avenue,,Baltimore,MD,21223,US
105,138152,611 S. Charles St.,4Th Floor,Baltimore,MD,21230,US
106,138132,531 Legion Drive,,Havre de Grace,MD,21078,US
107,138939,403 A Old Stage Road,,Glen Burnie,MD,21061,US
108,137809,300 Lennox Avenue,,Towson,MD,21286,US
109,137683,1400 Orleans Street,(Dunbar High School),Baltimore,MD,21231,US
110,137683,3411 Bank Street,,Baltimore,MD,21224,US
111,139173,2620 Wilkins Avenue,P.O. Box 2298,Baltimore,MD,21223,US
112,137935,7000 Security Blvd,Suite 302,Gwynn Oak,MD,21244,US
113,137713,3300 Gaither Road,,Baltimore,MD,21244,US
114,138588,200 S. Arlington Avenue,,Baltimore,MD,21223,US
115,139074,14045 Mantua Mill Road,,Reisterstown,MD,21136,US
116,139411,3106 Pinkney Road,,Baltimore,MD,21215,US
117,137939,146 Bedford Street (Do Not Give Out,,Cumberland,MD,21502,US
118,137736,2000 West Baltimore Street,,Baltimore,MD,21223,US
119,137793,111 W. Mulberry Street,,Baltimore,MD,21201,US
120,139131,210 Guilford Avenue,3Rd Floor,Baltimore,MD,21202,US
121,137697,6401 York Road,3Rd Floor,Baltimore,MD,21212,US
122,139131,620 North Caroline Street,Room 200,Baltimore,MD,21205,US
123,138765,300 St. Luke Circle,,Westminster,MD,21158,US
124,137593,P.O. Box 6003,,Rockville,MD,20849-6003,US
125,139453,Po Box 322,,Brooklandville,MD,21022-9998,US
126,137696,6401 York Road,,Baltimore,MD,21212,US
127,138404,7601 Osler Drive,,Towson,MD,21204,US
128,138261,4120 Patterson Avenue,,Baltimore,MD,21215,US
129,138491,1415 Maryland Avenue,,Baltimore,MD,21201,US
130,139280,3411 Bank Street,,Baltimore,MD,21224,US
131,139274,22 Light Street,,Baltimore,MD,21202,US
132,139597,100 Church Alley,,Chestertown,MD,21620,US
133,138887,25 N. Caroline Street,,Baltimore,MD,21231,US
134,137858,6600 Wycombe Way,Hillendale Gate,Baltimore,MD,21234,US
135,138019,4536 Harford Road,,Baltimore,MD,21214,US
136,139829,6724 Baltimore Avenue,,Hyattsville,MD,20782,US
137,137621,7701 Wise Avenue,Suite 206,Baltimore,MD,21222-3228,US
138,137694,611 Central Avenue,,Towson,MD,21204,US
139,138700,100 Light Street,12Th Floor,Baltimore,MD,21202,US
140,138239,301 Hospital Drive,,Glen Burnie,MD,21061,US
141,138117,3400 N. Charles St.,2Nd Floor Levering Hall,Baltimore,MD,21218,US
142,138171,409 Washington Avenue,Suite Ll8,Towson,MD,21204,US
143,138218,12728 Manor Road,Mt. Zion A.M.E. Church Hall,Glen Arm,MD,21057,US
144,137949,911 Mace Avenue,,Baltimore,MD,21221,US
145,137955,2035 York Road,,Lutherville,MD,21093-4229,US
146,137717,425 N. Chester Street,,Baltimore,MD,21231-1635,US
147,138645,28 E. Ostend Street.,,Baltimore,MD,21230,US
148,138304,201 St. Paul Place,,Baltimore,MD,21202,US
149,138215,10 E. Mt. Vernon Place,,Baltimore,MD,21202-2309,US
150,139296,2641 Maryland Avenue,,Baltimore,MD,21218,US
151,138995,108 West Centre Street,,Baltimore,MD,21201-,US
152,139346,2300 N. Charles Street,2Nd Floor,Baltimore,MD,21218,US
153,137733,733 W. 40Th Street,Suite 10,Baltimore,MD,21211,US
154,138402,740 N. Calvert Street,,Baltimore,MD,21202,US
155,137699,700 E. Joppa Road,,Towson,MD,21286,US
156,137676,7215 York Road,,Baltimore,MD,21212,US
157,138429,2907 Dunleer Road,,Baltimore,MD,21222,US
158,138152,201 W. Preston Street,,Baltimore,MD,21201,US
159,138182,100 W. 23Rd. Street,,Baltimore,MD,21218,US
160,139238,6002 Hunt Club Lane,,Baltimore,MD,21210,US
161,139557,1200 N Collington Avenue,,Baltimore,MD,21213,US
162,138775,5750 Park Heights Avenue,,Baltimore,MD,21215,US
163,138099,1750 E. Fairmount Avenue,,Baltimore,MD,21231,US
164,139107,Chester Building,"8600 Lasalle Road, Suite 382",Towson,MD,21286,US
165,137790,211 Greenwood Avenue,,Westminster,MD,21157,US
166,139711,105 Chesapeake Avenue,Suite 300,Towson,MD,21204,US
167,139040,1300 Fulton Avenue,,Baltimore,MD,21217,US
168,137725,1631 East Federal Street,,Baltimore,MD,21213,US
169,138889,"6200 2Nd Street, Nw",,Washington,DC,20011,US
170,138335,1025 St. Paul Street,,Baltimore,MD,21202,US
171,138719,1200 N. Collington Avenue,,Baltimore,MD,21213,US
172,139384,,,Washington,DC,20528,US
173,137793,St. Clements Church,2700 Washington Avenue,Baltimore,MD,21227,US
174,138092,600 North Wolfe Street,Carnegie 3,Baltimore,MD,21287,US
175,138595,4 S. Frederick Street,Suite 100,Baltimore,MD,21202,US
176,137660,714 Baltimore & Annapolis Blvd.,,Severna Park,MD,21146,US
177,138741,10025 Governor Warfield Parkway,Suite 102,Columbia,MD,21044,US
178,138380,110 E. West Street,,Baltimore,MD,21230-4314,US
179,137844,317 Dolphin Street,,Baltimore,MD,21217,US
180,139724,7500 Security Boulevard,,Baltimore,MD,21244-1850,US
181,137908,2660 Yorkway,,Baltimore,MD,21222-4432,US
182,138325,2100 E. Madison Street,,Baltimore,MD,21205,US
183,137891,300 N. Gay Street,,Baltimore,MD,21202,US
184,139445,300 E. Joppa Road,Suite 1000,Towson,MD,21286-3020,US
185,137920,7414 Ellen Avenue,,Baltimore,MD,21219-2120,US
186,138604,P.O. Box 26145,,Baltimore,MD,21210,US
187,138353,1355 Homestead Street,,Baltimore,MD,21218,US
188,139296,"1704 17Th Street, Ne",,Washington,DC,20002,US
189,139621,626 Washington Avenue,,Hagerstown,MD,21740,US
190,139800,1314 Bedford Avenue,Suite 210,Baltimore,MD,21208,US
191,138038,111 Park Avenue,,Baltimore,MD,21201,US
192,138468,524 North Charles Street,,Baltimore,MD,21201,US
193,138192,1121 W. Lanvale Street,,Baltimore,MD,21217,US
194,139309,P.O. Box 42678,,Towson,MD,21284,US
195,139594,120 South Central Ave.,,Baltimore,MD,21231,US
196,137696,Drumcastle Center,6401 York Road,Baltimore,MD,21212,US
197,138237,5401 Frankford Ave.,,Baltimore,MD,21206-6139,US
198,138690,8503 Lasalle Road,,Towson,MD,21286,US
199,139639,2700 Spellman Road,,Baltimore,MD,21225,US
200,139081,14 S. Broadway,,Baltimore,MD,21231,US
201,139406,1004 Frederick Road,,Catonsville,MD,21228,US
202,138338,2700 W. Patapsco Avenue,,Baltimore,MD,21230-2702,US
203,138550,9314 Piscataway Road,,Clinton,MD,20735,US
204,138940,175 W. Ostend Street,Suite 100,Baltimore,MD,21230,US
205,137856,1000 Cathedral Street,,Baltimore,MD,21201,US
206,139202,Mercy Hospital - Prof. Office Bldg.,"301 St. Paul Place, Suite 912",Baltimore,MD,21202,US
207,138780,1732 Dunwoody Road,,Towson,MD,21234,US
208,139347,1729 St. Paul Street,,Baltimore,MD,21202,US
209,137709,3 S. Frederick Street,Suite 801,Baltimore,MD,21202,US
210,138431,320 Cathedral Street,,Baltimore,MD,21201,US
211,139558,"A.A. Co. Economic Opportunity, Inc.",251 West Street,Annapolis,MD,21401,US
212,138047,408 S. Chester Street,,Baltimore,MD,21231,US
213,138872,3723 Old Court Road,Suite 205,Pikesville,MD,21208,US
214,138796,246 Main Street,,Reisterstown,MD,21136,US
215,138804,2990 S. Hanover Street,,Baltimore,MD,21225,US
216,137793,725 Fallsway,,Baltimore,MD,21202,US
217,137924,400 Cathedral Street,,Baltimore,MD,21201-4484,US
218,139354,5701 York Road,,Baltimore,MD,21212,US
219,139211,137 Mitchells Chance Rd,Suite 180,Annapolis,MD,21037,US
220,137861,841 E. Chase Street,,Baltimore,MD,21202,US
221,138569,850 S. Rolling Road,,Catonsville,MD,21228,US
222,138297,204 E. 25Th Street,,Baltimore,MD,21218,US
223,138770,10533 Green Mt. Circle,,Columbia,MD,21044,US
224,137871,408 Eastern Boulevard,,Baltimore,MD,21221,US
225,138148,6 St. Paul Street,Suite 900,Baltimore,MD,21202,US
226,139557,5010 Bowleys Lane,,Baltimore,MD,21206,US
227,138014,1104-1106 West 36Th Street,,Baltimore,MD,21211,US
228,138501,6401 Beckley Street,,Baltimore,MD,21224-6502,US
229,138018,5807 Harford Road,,Baltimore,MD,21214-1895,US
230,138179,1 N. Charles Street,Suite 222,Baltimore,MD,21201,US
231,138460,8611 Church Lane,,Randallstown,MD,21133,US
232,138570,7425 Macarthur Boulevard,,Cabin John,MD,20818,US
233,139740,904 Washington Blvd,,Baltimore,MD,21230,US
234,137935,4236 Pimlico Road,,Baltimore,MD,21215,US
235,138751,1850 York Road,Suite D,Timonium,MD,21093,US
236,139130,5Th Regiment Armory,"29Th Division Street, M23",Baltimore,MD,21201-2288,US
237,137877,4119 E. Lombard Street,,Baltimore,MD,21231-2405,US
238,139203,6525 N. Charles Street,,Towson,MD,21204,US
239,139378,6 Yorkway,,Dundalk,MD,21222,US
240,138002,6601 Frederick Road,,Baltimore,MD,21228-0711,US
241,138901,9601 Pulaski Park Drive,Suite 416,Middle River,MD,21220,US
242,138584,301 W. Preston Street,Room 900,Baltimore,MD,21201,US
243,138676,7300 Van Dusen Road,,Laurel,MD,20707,US
244,137793,2300 Dulaney Valley Road,,Timonium,MD,21093,US
245,139740,904 Washington Blvd.,,Baltimore,MD,21230,US
246,139756,2205 West North Ave,,Baltimore,MD,21216,US
247,139787,11112 Gilroy Road,Suite 104,Hunt Valley,MD,21031,US
248,138725,P.O. Box 625,,Brooklandville,MD,21022,US
249,139051,2100 North Charles Street,,Baltimore,MD,21218,US
250,137748,6200 N. Charles Street,,Baltimore,MD,21212,US
251,138239,301 Hospital Drive,,Glen Burnie,MD,21061,US
252,138393,321 E. 25Th Street,,Baltimore,MD,21218,US
253,139582,1600 Rutland Avenue,,Baltimore,MD,21213,US
254,137683,621 North Eden Street,,Baltimore,MD,21205,US
255,139097,1025 South Potomac Street,,Baltimore,MD,21223,US
256,139398,700 East Joppa Road,,Towson,MD,21286-5500,US
257,137697,13800 Manor Road,,Baldwin,MD,21013,US
258,138551,"1220 B East Joppa Road, Suite 433",,Towson,MD,21286,US
259,139806,19 Bond Street,Westminster Church Of The Brethren,Westminster,MD,21157,US
260,138834,"8900 Edgeworth Drive, Suite G",,Capitol Heights,MD,20743,US
261,138549,401 Bosley Avenue,Room 101,Towson,MD,21204,US
262,137713,3300 Gaither Road,,Baltimore,MD,21244,US
263,138110,700 W. 40Th Street,,Baltimore,MD,21211-2199,US
264,137935,7000 Security Boulevard,Suite 302,Baltimore,MD,21244,US
265,138719,1211 Druid Hill Avenue,,Baltimore,MD,21217,US
266,137678,111 North Calvert Street,Suite 629,Baltimore,MD,21202,US
267,138404,7601 Osler Drive,,Towson,MD,21204,US
268,137858,2903 Bero Road,,Lansdowne,MD,21227,US
269,138338,1114 N. Calvert St.,,Baltimore,MD,21202-3875,US
270,138116,"606 Cherry Hill Road, 2Nd Floor",,Baltimore,MD,21225,US
271,138719,1500 Harlem Avenue,Harlem Park Community School,Baltimore,MD,21217,US
272,138238,2100 N. Monroe Street,,Baltimore,MD,21217,US
273,138392,900 Caton Avenue,,Baltimore,MD,21229,US
274,139079,524 Maryland Avenue,,Essex,MD,21221,US
275,138151,301 W. Preston Street,Room 1008 A,Baltimore,MD,21201-2365,US
276,139266,7702 Dunmanway,,Dundalk,MD,21222,US
277,137782,200 Memorial Ave.,,Westminster,MD,21157,US
278,138453,1900 North Broadway,Suite 100,Baltimore,MD,21213,US
279,138128,1840 N. Aisquith Street,,Baltimore,MD,21202,US
280,138450,1515 W. North Avenue,,Baltimore,MD,21217,US
281,137856,1000 Cathedral Street,,Baltimore,MD,21201,US
282,137749,3215 W. Belvedere Avenue,,Baltimore,MD,21215,US
283,138475,10 S. Howard Street,Suite 6220,Baltimore,MD,21201,US
284,138146,3011 Montebello Terrace,,Baltimore,MD,21214,US
285,139145,6912 Schissler Road,,Woodlawn,MD,21207,US
286,139184,540 E. Belvedere Ave.,Suite 201,Baltimore,MD,21212,US
287,138493,29 South Paca Street,,Baltimore,MD,21201,US
288,138795,405 E. Joppa Road,Suite 301,Towson,MD,21286-5478,US
289,137624,110 E. Pennsylvania Avenue,,Towson,MD,21286,US
290,138027,119 S. Hays Street,Suite 230,Bel Air,MD,21014,US
291,138493,"630 W. Fayette Street, 1St Floor",Walter P. Carter Building,Baltimore,MD,21201,US
292,138066,8492 Baltimore National Pike,Suite 103,Ellicott City,MD,21043,US
293,138240,2225 N. Charles Street,,Baltimore,MD,21218,US
294,137871,7905B Harford Road,,Baltimore,MD,21234,US
295,138916,2114 N. Charles Street,Suite 100,Baltimore,MD,21218,US
296,138149,608 Water Street,,Baltimore,MD,21202-4079,US
297,138015,3449 Falls Road,,Baltimore,MD,21211,US
298,138017,12039 Reisterstown Road,,Reisterstown,MD,21136,US
299,138150,217 E. Redwood Street,23Rd Floor,Baltimore,MD,21202,US
300,138178,31 Hopkins Plaza,Room 1231,Baltimore,MD,21201,US
301,138250,7701 Dunmanway,,Dundalk,MD,21222,US
302,137925,601 N. Schroeder Street,,Baltimore,MD,21217,US
303,138382,140 W. West Street,,Baltimore,MD,21230,US
304,139141,2901 E. Baltimore Street,,Baltimore,MD,21224,US
305,139369,28 East Ostend Street,Suite 303,Baltimore,MD,21230,US
306,137860,725 Main Street,,Reisterstown,MD,21136-2511,US
307,139211,410 Malcolm Drive,Suite C,Westminster,MD,21157,US
308,139037,737 W. Lombard St.,Room 240,Baltimore,MD,21201,US
309,138099,707 North Broadway,,Baltimore,MD,21205,US
310,137856,10 North Calvert St.,Suite 300,Baltimore,MD,21202,US
311,139203,6525 N. Charles St.,,Towson,MD,21204,US
312,138092,600 Wolfe Street,,Baltimore,MD,21287,US
313,139346,2300 N. Charles Street,,Baltimore,MD,21218,US
314,137708,7311 Harford Road,,Baltimore,MD,21234,US
315,138871,222 North Carrollton Avenue,,Baltimore,MD,21223,US
316,138048,1800 North Charles Street,Suite 206,Baltimore,MD,21201-4403,US
317,138821,4920 Niagara Road,Suite 101,College Park,MD,20740,US
318,139829,6724 Baltimore Avenue,,University Park,MD,20782,US
319,138772,1135 Business Parkway South,Suite 60,Westminster,MD,21157,US
320,137736,2401 W. Baltimore Street,,Baltimore,MD,21223,US
321,137696,6401 York Road,,Baltimore,MD,21212,US
322,138039,1001 Cathedral Street,,Baltimore,MD,21201-4905,US
323,139278,Sojourner Douglass College,"200 N. Central Ave., 1St Fl., #114",Baltimore,MD,21205,US
324,138890,1505 Eutaw Place,,Baltimore,MD,21217,US
325,139782,3700 Eastern Avenue,,Baltimore,MD,21224,US
326,139151,301 West Preston Street,Suite 1007,Baltimore,MD,21201-2374,US
327,138492,6615 Reisterstown Road,Suite 201,Baltimore,MD,21215,US
328,137705,P.O. Box 1475,,Baltimore,MD,21203,US
329,137909,7201 Rossville Blvd.,,Baltimore,MD,21237,US
330,137921,1912 Liberty Road,Country Village Center,Eldersburg,MD,21784-6601,US
331,139040,1530 Presstman Street,,Baltimore,MD,21217,US
332,137793,2015 20Th Street,,Fort Meade,MD,20755,US
333,137793,15 E. Main Street,,Westminster,MD,21157,US
334,138893,555 W. Towsontown Blvd.,,Baltimore,MD,21204,US
335,139556,701 S. Charles St.,,Baltimore,MD,21230,US
336,138775,5750 Park Heights Ave.,Suite 286,Baltimore,MD,21215,US
337,139106,5828 York Road,,Baltimore,MD,21212,US
338,137791,745 West Fayette St.,,Baltimore,MD,21201-1111,US
339,138717,10 S. Howard Street,3Rd Floor,Baltimore,MD,21201,US
340,138611,1211 Cathedral Street,,Baltimore,MD,21201,US
341,139413,720 Rutland Avenue,,Baltimore,MD,21205,US
342,139686,5603 N. Charles Street,Church Of The Redeemer,Baltimore,MD,21210,US
343,139347,1729 St. Paul Street,,Baltimore,MD,21202,US
344,138431,400 S. Bond Street,,Baltimore,MD,21231,US
345,137698,105 W. Chesapeake Avenue,Suite 301,Towson,MD,21204,US
346,139355,17 West Mulberry Street,,Baltimore,MD,21201,US
347,137677,8203 Harford Road,,Baltimore,MD,21234-5888,US
348,138428,7910 Belair Road,,Baltimore,MD,21236,US
349,139336,Mt. Sinai Baptist Church,922 E. Preston Street,Baltimore,MD,21202,US
350,139369,28 East Ostend Street,Suite 303,Baltimore,MD,21202,US
351,138351,1701 Allen Court (Mailing Address),,Bel Air,MD,21015,US
352,137979,305 West Chesapeake Avenue,Suite 115,Baltimore,MD,21204,US
353,137999,St. Mary's Church,5502 York Road,Baltimore,MD,21212,US
354,138092,2400 Broening Highway,,Baltimore,MD,21224,US
355,138171,2700 N. Charles Street,Suite 203,Baltimore,MD,21218,US
356,137948,525 N. Caroline Street,,Baltimore,MD,21205,US
357,138190,321 N. Calvert Street,2Nd Floor,Baltimore,MD,21202,US
358,139405,6206 Pilgrim Road,,Baltimore,MD,21214,US
359,137954,4711 Edmondson Avenue,,Baltimore,MD,21229,US
360,138644,40 Church Lane,,Cockeysville,MD,21030,US
361,138303,370 Shore Acres Rd.,,Arnold,MD,21012,US
362,137992,5620 The Alameda,,Baltimore,MD,21239,US
363,138490,650 W. Baltimore Street,,Baltimore,MD,21201,US
364,138159,"200 W. Baltimore Street, 9Th Floor",,Baltimore,MD,21201,US
365,138190,2300 Dulaney Valley Road,,Timonium,MD,21093,US
366,139281,149 N. Luzerne Avenue,,Baltimore,MD,21224,US
367,139313,4604 W. Caroline Avenue,,Beltsville,MD,20705-2555,US
368,137620,1404 South Charles Street,,Baltimore,MD,21230,US
369,137935,4623 Falls Road,,Baltimore,MD,21209,US
370,137706,2323 Orleans Street,,Baltimore,MD,21224,US
371,138306,730 Ashburton Street,,Baltimore,MD,21216,US
372,137833,2005 E. Chase Street,,Baltimore,MD,21213-3395,US
373,138152,500 N. Calvert Street,"5Th Floor, Shillman Building",Baltimore,MD,21202,US
374,138243,3319 West Belvedere Avenue,,Baltimore,MD,21215,US
375,138360,2300 N. Charles Street,2Nd Floor,Baltimore,MD,21218,US
376,138613,1801 Glen Keith Blvd.,Loch Raven Elementary School,Towson,MD,21234,US
377,138493,105 Penn Street,,Baltimore,MD,21201-1090,US
378,137696,6401 York Road,,Baltimore,MD,21212,US
379,139075,Somerset Community,200 Esquith Monument Street,Baltimore,MD,21213,US
380,137686,1920 North Broadway,,Baltimore,MD,21213,US
381,138664,"1726 M Street, Nw",Suite 400,Washington,DC,20036,US
382,137591,1142 N. Fulton Avenue,,Baltimore,MD,21217,US
383,138234,1401 Hollins Street,,Baltimore,MD,21223,US
384,139130,5Th Regiment Armory,29Th Division Street,Baltimore,MD,21201-2288,US
385,137706,3120 Erdman Avenue,,Baltimore,MD,21213,US
386,139749,3701 9Th Street,,Baltimore,MD,21225,US
387,139104,6419 York Road,,Baltimore,MD,21212,US
388,138886,9104 Red Branch Road,,Columbia,MD,21045,US
389,137783,290 S. Center Street,,*Unknown*,MD,21157,US
390,139374,9650 Basket Ring Road,,Columbia,MD,21045-3421,US
391,137680,2901 Liberty Heights Avenue,,Baltimore,MD,21215,US
392,139028,3921 Old York Road,,Baltimore,MD,21218,US
393,137712,512 Orchard Street,,Baltimore,MD,21201,US
394,138722,P.O. Box 10822,,Towson,MD,21234,US
395,138318,11435 Cronhill Drive,,Owings Mills,MD,21117-2220,US
396,138799,3304 Woodside Avenue,,Baltimore,MD,21234,US
397,138034,St. Joseph Home Care,"8003 Corporate Drive, Suite G",Baltimore,MD,21236,US
398,137895,105 S. Mount Street,P.O. Box 4435,Baltimore,MD,21223-0435,US
399,138175,1100 Baltimore Boulevard,,Westminster,MD,21157,US
400,139379,2308 North Fulton Avenue,,Baltimore,MD,21217,US
401,138132,438 Eastern Boulevard,,Essex,MD,21221,US
402,137700,320 York Road,,Towson,MD,21204,US
403,139296,"1933 Montana Avenue, Ne",,Washington,DC,20002,US
404,138940,175 W. Ostend Street,Suite 100,Baltimore,MD,21230,US
405,137706,1245 Eastern Boulevard,,Essex,MD,21221,US
406,138581,,,Baltimore,MD,21237,US
407,137793,3320 Benson Avenue,,Baltimore,MD,21227-1035,US
408,139733,2300 Garrison Blvd.,Suite 270,Baltimore,MD,21216,US
409,137699,2301 Alma Road,,Halethorpe,MD,21227,US
410,139571,6931 Arlington Road,,Bethesda,MD,20814,US
411,139175,3326 Keswick Road,,Baltimore,MD,21211,US
412,139124,2500 E. Northern Parkway,,Baltimore,MD,21214,US
413,139048,16 W. 25Th Street,,Baltimore,MD,21218,US
414,138677,"111 Michigan Avenue, N.W.",,Washington,DC,20010,US
415,138056,2201 Argonne Drive,,Baltimore,MD,21218-1627,US
416,139144,1601 Nicodemus Road,,Reisterstown,MD,21136,US
417,137690,2500 East Northern Parkway,Room 2,Baltimore,MD,21214,US
418,137929,1014 W. 36Th St.,,Baltimore,MD,21211,US
419,137696,6401 York Road,,Baltimore,MD,21212,US
420,137913,301 North Gay Street,,Baltimore,MD,21202,US
421,138091,4940 Eastern Avenue,,Baltimore,MD,21224-2780,US
422,137895,105 S. Mount Street,P.O. Box 4435 (Mailing Address),Baltimore,MD,21223-0435,US
423,137695,105 West Chesapeake Avenue,,Towson,MD,21204,US
424,139245,20 Winters Lane,,Catonsville,MD,21228-9905,US
425,138275,6805 York Road,,Baltimore,MD,21212,US
426,138760,"8501 Lasalle Road,",Suite 106,Towson,MD,21286,US
427,137627,8219 Town Center Drive,,Baltimore,MD,21236-0025,US
428,138330,"9 Schilling Road, Suite 210",,Hunt Valley,MD,21031,US
429,137689,5710 Eastern Ave.,,Baltimore,MD,21224,US
430,138019,4308 Harford Road,,Baltimore,MD,21214,US
431,139074,14045 Mantua Mill Road,,Glyndon,MD,21136,US
432,137697,6401 York Road,3Rd Floor,Baltimore,MD,21212,US
433,138449,725 Mt. Wilson Lane,Apt. # 211,Baltimore,MD,21208,US
434,138470,2 College Hill,Computer Lab- Lewis Hall,Westminster,MD,21157-4390,US
435,139258,C/O Auburn University,,Auburn University,AL,36849,US
436,138571,128 W. Franklin Street,,Baltimore,MD,21201,US
437,138166,3300 Falls Road,,Baltimore,MD,21211,US
438,138222,4805 Mt. Hope Drive,,Baltimore,MD,21215,US
439,139176,2130 Priest Bridge Drive,Suite 9,Crofton,MD,21114,US
440,138575,9180 Rumsey Road,Suite D-2,Columbia,MD,21045,US
441,138388,2416 Lampost Lane,,Baltimore,MD,21234,US
442,138431,1123 Wilso Drive,,Baltimore,MD,21223,US
443,138368,Ambulatory Psychiatry Building,2401 West Belvedere Avenue,Baltimore,MD,21215,US
444,139409,120 Allegheny Avenue,,Towson,MD,21204,US
445,137991,Center Of Balto. & Central Md.,241 W. Chase Street,Baltimore,MD,21201,US
446,139576,2901 East Biddle Street,,Baltimore,MD,21213-3939,US
447,138368,5607 Metro Drive,,Baltimore,MD,21215,US
448,138336,7901 Bradshaw Road,Salem Umc,Upper Falls,MD,21156,US
449,139126,4400 Parkside Drive,,Baltimore,MD,21206,US
450,138234,1401 Hollins Street,,Baltimore,MD,21223,US
451,138834,13-15 E. Deer Park Drive,Suite 101,Gaithersburg,MD,20877,US
452,139825,5710 Executive Drive,Suite 105,Halethorpe,MD,21227,US
453,138644,40 Church Lane,,Cockeysville,MD,21030,US
454,138886,9221 Rumsey Road,Suites 3 & 4,Columbia,MD,21045,US
455,137641,2441 West Baltimore Street,,Baltimore,MD,21223,US
456,138069,714 Baltimore & Annapolis Boulevard,,Severna Park,MD,21146,US
457,138715,9733 Healthway Drive,,Berlin,MD,21811,US
458,137704,5401 Loch Raven Blvd. 2Nd Fl.,,Baltimore,MD,21239,US
459,139782,3700 Eastern Avenue,,Baltimore,MD,21224,US
460,137699,1111 Halstead Road,,Parkville,MD,21234,US
461,137840,4321 Old York Road,,Baltimore,MD,21212-4727,US
462,138932,10205 Jensen Lane,Suite 4,Owings Mills,MD,21117,US
463,138259,2108 N. Charles St.,,Baltimore,MD,21218,US
464,139806,P.O. Box 625,,Brooklandville,MD,21022-0625,US
465,138609,401 Bosley Avenue,,Towson,MD,21204,US
466,139126,4400 Parkside Drive,,Baltimore,MD,21206,US
467,138170,520 West Fayette Street,,Baltimore,MD,21201,US
468,139331,"2700 N. Charles Street, Suite 200",,Baltimore,MD,21218,US
469,138159,10 W. Eager Street,2Nd Floor,Baltimore,MD,21201,US
470,137896,219 North Chester Street,,Baltimore,MD,21231,US
471,139280,3411 Bank Street,,Baltimore,MD,21224,US
472,139274,22 Light Street,,Baltimore,MD,21202,US
473,138936,2013 West Pratt Street,,Baltimore,MD,21223,US
474,137790,211 Greenwood Avenue,,Westminster,MD,21157,US
475,138152,1 North Charles Street,6Th Floor,Baltimore,MD,21201,US
476,139815,7006 Graces Quarter Road,,Middle River,MD,21220,US
477,137796,25 Bloomsbury Avenue,,Catonsville,MD,21228,US
478,137683,123 W. 29Th Street,2Nd Floor,Baltimore,MD,21218,US
479,137696,6401 York Road,,Baltimore,MD,21212,US
480,138761,330 North Howard Street,,Baltimore,MD,21201,US
481,138356,10 S. Howard Street,6Th Floor,Baltimore,MD,21201,US
482,139366,1928 Pennsylvania Avenue,,Baltimore,MD,21217,US
483,138431,251 S. Morley Street,,Baltimore,MD,21229,US
484,139021,28-30 S. Broadway,,Baltimore,MD,21231,US
485,138719,541 S. Beechfield Avenue,Beechfield United Methodist Church,Baltimore,MD,21229,US
486,138023,145 N. Hickory Avenue,,Bel Air,MD,21014,US
487,137682,720 Light Street,,Baltimore,MD,21230,US
488,139136,808 Park Avenue,,Baltimore,MD,21201,US
489,139769,1426 East Fairmount Ave,,Baltimore,MD,21231,US
490,138961,802 S. Caroline Street,,Baltimore,MD,21231,US
491,138171,113 Towsontown Boulevard,Suite A,Towson,MD,21286,US
492,137674,101 West Mount Royal Avenue,,Baltimore,MD,21201,US
493,138218,12728 Manor Road,,Glen Arm,MD,21057,US
494,138099,7000 Tudsbury Road,,Baltimore,MD,21244,US
495,139409,120 Allegheny Avenue,,Towson,MD,21204,US
496,139432,3610 Milford Mill Road,Suite 2D,Randallstown,MD,21244,US
497,138567,205 Baltimore Avenue,,Cumberland,MD,21502,US
498,138338,814 Light Street,,Baltimore,MD,21230,US
499,137605,8 Market Place,5Th Floor,Baltimore,MD,21202,US
500,137694,611 Central Avenue,,Towson,MD,21204,US
501,138038,111 Park Avenue,,Baltimore,MD,21201,US
502,138131,4501 N. Charles Street,,Baltimore,MD,21210,US
503,138719,2001 Park Avenue,,Baltimore,MD,21217,US
504,138431,3812 Edmondson Avenue,,Baltimore,MD,21229,US
505,139345,37 Main Street,,Reisterstown,MD,21136,US
506,138629,220 S. Main Street,,Bel Air,MD,21014,US
507,139720,2147C Woodbox Lane,,Baltimore,MD,21209,US
508,137839,2629 Huntingdon Ave. (Food Pantry),335 W. 27Th St. (Thrift Shop),Baltimore,MD,21211,US
509,139131,210 Guilford Avenue,,Baltimore,MD,21202,US
510,137742,635 Maryland Ave (Don't Give Out),,Rockville,MD,20850,US
511,137856,10 N. Calvert Street,Suite 300,Baltimore,MD,21202,US
512,139365,9833 Harford Road,,Baltimore,MD,21234,US
513,138615,7400 York Road,Suite 308,Baltimore,MD,21204-7531,US
514,137913,301 N. Gay Street,,Baltimore,MD,21202,US
515,139463,1045 Taylor Avenue,Suite 104,Baltimore,MD,21286,US
516,139266,500 N. Rolling Road,,Catonsville,MD,21228,US
517,138431,8801 Harford Road,,Baltimore,MD,21234,US
518,139777,318-320 S. Regester Street,,Baltimore,MD,21231,US
519,138493,16 South Eutaw Street,Suite 100,Baltimore,MD,21201,US
520,138166,3300 Falls Road,,Baltimore,MD,21211,US
521,138712,101 Cedar Lane,Po Box 739 (Mailing Address),Greensboro,MD,21639,US
522,138517,1302 Pennsylvania Avenue,,Hagerstown,MD,21742,US
523,138189,1407 Bolton Street,,Baltimore,MD,21217,US
524,138623,201 E. Baltimore St.,11Th Floor,Baltimore,MD,21202,US
525,139245,1925 Greenspring Drive,,Timonium,MD,21093,US
526,138301,3 Milford Mill Road,,Pikesville,MD,21208-4000,US
527,138212,2651 W. North Avenue,,Baltimore,MD,21216,US
528,137592,2701 W. Patapsco Avenue,Suite 110,Baltimore,MD,21230-2797,US
529,138393,321 E. 25Th Street,,Baltimore,MD,21218,US
530,137832,700 Wildwood Parkway,,Baltimore,MD,21229,US
531,138171,1000 Hilltop Circle,"Academic Iv-A Wing, Room 107",Catonsville,MD,21250,US
532,137696,439 Eastern Avenue,,Essex,MD,21221,US
533,137840,4321 Old York Road,,Baltimore,MD,21212-4727,US
534,139005,1017 Edmondson Avenue,,Baltimore,MD,21223,US
535,138244,5401 Old Court Road,,Randallstown,MD,21133,US
536,137908,2660 Yorkway,,Baltimore,MD,21222-4432,US
537,139271,1625 E. Baltimore Street,,Baltimore,MD,21231,US
538,139807,1055 Taylor Avenue,,Towson,MD,21286,US
539,138152,"Baltimore City Health Access, Inc.","201 E. Baltimore Street, Suite 920",Baltimore,MD,21202,US
540,138182,417 East Fayette Street,Suite 468,Baltimore,MD,21202,US
541,137627,8219 Town Center Drive,,Baltimore,MD,21236,US
542,137975,800 Ingleside Avenue,,Catonsville,MD,21228,US
543,139269,2300 N. Charles St.,4Th Floor,Baltimore,MD,21218,US
544,139793,520 W. Fayette Street,,Baltimore,MD,21201,US
545,139639,2700 Spellman Road,,Baltimore,MD,21225,US
546,139316,106 W. Clay Street,,Baltimore,MD,21201,US
547,139117,360 S. Dukeland St.,,Baltimore,MD,21223,US
548,139814,5000 East Joppa Road,,Perry Hall,MD,21128,US
549,138240,2225 North Charles Street,,Baltimore,MD,21218,US
550,138356,10 S. Howard Street,6Th Floor,Baltimore,MD,21201,US
551,137709,3 S. Frederick Street,Suite 801,Baltimore,MD,21202,US
552,138298,111431 Cronhill Drive,Suite C,Owings Mills,MD,21117,US
553,139052,312 Marshall Avenue,Suite 104,Laurel,MD,20707-4824,US
554,138399,2405 Linden Avenue,,Baltimore,MD,21217-3944,US
555,138090,3202 W. North Avenue,,Baltimore,MD,21216,US
556,139331,"2700 N. Charles Street,",Suite 200,Baltimore,MD,21218,US
557,138171,201 West Preston Street,,Baltimore,MD,21201-2399,US
558,139108,3533 Fourth Street,,Baltimore,MD,21225,US
559,138710,Office Of Community Conservation,"6401 York Road, 2Nd Floor",Baltimore,MD,21212,US
560,137787,55 N. Court Street,Suite100,Westminster,MD,21157,US
561,139384,31 Hopkins Plaza,,Baltimore,MD,21201,US
562,139414,7648 Belair Road,,Baltimore,MD,21236,US
563,139044,7835 Eastern Avenue,Suite 302,Baltimore,MD,21224,US
564,138903,2209 Park Avenue,,Baltimore,MD,21217-4847,US
565,137704,5401 Loch Raven Blvd,2Nd Floor,Baltimore,MD,21239,US
566,137689,601 E. Fayette Street,4Th Fl. Annex,Baltimore,MD,21202,US
567,139117,360 S. Dukeland St.,,Baltimore,MD,21223,US
568,139040,1601 N. Calhoun St.,,Baltimore,MD,21217,US
569,137723,1414 Key Highway,Suite 100,Baltimore,MD,21230,US
570,138439,2517 N. Charles Street,,Baltimore,MD,21218,US
571,138069,714 Batlimore/Annapolis Boulevard,,Severna Park,MD,21146,US
572,139109,1200 E. Joppa Road,Suite B,Towson,MD,21286,US
573,139763,611 North Eutaw Street,,Baltimore,MD,21201,US
574,137686,1900 N. Howard Street,,Baltimore,MD,21202,US
575,139382,3009 Montebello Terrace,,Baltimore,MD,21214,US
576,137793,123 West Mulberry Street,,Baltimore,MD,21201,US
577,138492,1840 York Road,Suite J,Timonium,MD,21093,US
578,138747,7008 Security Blvd.,Suite 200,Baltimore,MD,21244,US
579,138092,600 N. Wolfe Street,Phipps 249,Baltimore,MD,21287,US
580,137914,1401 E. Biddle St.,,Baltimore,MD,21213,US
581,139445,6776 Reisterstown Road,Suite 206,Baltimore,MD,21215,US
582,137700,1716 Merritt Blvd.,,Baltimore,MD,21222-3295,US
583,139443,20 W. Montgomery Street,,Baltimore,MD,21230,US
584,138449,725 Mt. Wilson Lane,Apt# 211,Baltimore,MD,21208,US
585,138306,730 Ashburton Street,P.O. Box 31419 (Mailing Address),Baltimore,MD,21216-4703,US
586,139290,821 Eutaw Street,,Baltimore,MD,21202,US
587,137631,101 North Gay Street,Room E,Baltimore,MD,21202,US
588,138194,9620 Bird River Road,,Baltimore,MD,21220-1707,US
589,139822,3723 Old Court Road,Suite 206,Pikesville,MD,21208,US
590,139068,1821 N. Smallwood Street,,Baltimore,MD,21216-7512,US
591,139712,6423 Frederick Road,Suite B,Catonsville,MD,21228,US
592,137975,505 Baltimore Avenue,P.O. Box 10676,Baltimore,MD,21285,US
593,139438,500 W. Baltimore Street,,Baltimore,MD,21201,US
594,139087,847 N. Howard Street,,Baltimore,MD,21201,US
595,138571,1711 Mcculloh Street,,Baltimore,MD,21217,US
596,137741,810 Park Avenue,,Baltimore,MD,21201-4888,US
597,138604,P.O. Box 26145,,Baltimore,MD,21210,US
598,138946,108 E. 20Th Street,,Baltimore,MD,21218,US
599,139204,2200 Kernan Avenue,,Baltimore,MD,21207,US
600,138428,7910 Belair Road,,Baltimore,MD,21236,US
601,138550,201 W. Preston Street,Room 103,Baltimore,MD,21201,US
602,138012,P.O. Box 6303,,Rockville,MD,20849-6303,US
603,138803,11299 Owings Mills Blvd.,Suite 204,Owings Mills,MD,21117,US
604,139711,105 W Chesapeake Ave,Suite 300,Towson,MD,21204,US
605,137605,8 Market Place,5Th Floor,Baltimore,MD,21202,US
606,137685,1401 E. Biddle Street,,Baltimore,MD,21213,US
607,138754,11350 Mccormick Road,"Executive Plaza 1, Suite 600",Hunt Valley,MD,21031,US
608,137829,4814 Seton Drive,,Baltimore,MD,21215,US
609,139372,9515 Belair Road,,Perry Hall,MD,21236,US
610,137689,424 Font Hill Ave.,,Baltimore,MD,21223,US
611,137867,9534 Belair Road,,Baltimore,MD,21236,US
612,138139,949 Gorsuch Avenue,,Baltimore,MD,21218-3602,US
613,138526,3200 Garrison Boulevard,,Baltimore,MD,21216,US
614,138672,1001 Prince George's Blvd.,Suite 750,Upper Marlboro,MD,20774,US
615,139316,106 W. Clay Street,,Baltimore,MD,21201,US
616,139746,1532 North Smallwood Street,,Baltimore,MD,21217,US
617,138019,4308 Harford Road,,Baltimore,MD,21214-1895,US
618,138729,5153 Bonnie Acres Drive,,Ellicott City,MD,21043,US
619,138157,827 Linden Avenue,,Baltimore,MD,21201,US
620,138268,1800 Penrose Avenue,230 N. Fulton Avenue,Baltimore,MD,21223,US
621,137633,4800 Mount Hope Drive,,Baltimore,MD,21215-3231,US
622,139697,Pleasant View Farm,22500 West Harris Road,Barnesville,MD,20838,US
623,137871,757 Frederick Road,2Nd Floor,Catonsville,MD,21228-3317,US
624,139212,1900 Eagle Drive,,Baltimore,MD,21207,US
625,139413,5200 Eastern Avenue,"D-Building, West Tower, 4Th Fl.",Baltimore,MD,21224,US
626,139264,Maryland Community Resource Center,2414 Frederick Avenue,Baltimore,MD,21223,US
627,139245,1925 Greenspring Drive,,Timonium,MD,21093,US
628,138004,2418 St. Paul Street,,Baltimore,MD,21218-5518,US
629,138141,8 Market Place,Suite 408,Baltimore,MD,21202,US
630,138007,301 N. Gilmore Street,,Baltimore,MD,21223,US
631,137795,26 S. Mount Street,,Baltimore,MD,21223,US
632,139584,124 East Baltimore Street,,Hagerstown,MD,21740,US
633,138395,3301 Windsor Avenue,3300 Clifton Ave. (Mailing Address),Baltimore,MD,21216,US
634,137600,9541 Pamploma Road,,Columbia,MD,21045-3920,US
635,138747,7008 Security Blvd.,Suite 200,Baltimore,MD,21244,US
636,137697,6401 York Road,3Rd Floor,Baltimore,MD,21212,US
637,138403,226 Washburn Avenue,,Baltimore,MD,21225-2099,US
638,138573,1700 N. Caroline Street,,Baltimore,MD,21213,US
639,139212,100 Mystery Point Road,,Garrison,NY,10524,US
640,138056,2201 Argonne Drive,,Baltimore,MD,21218-1627,US
641,139707,600 North Wolfe Street,,Baltimore,MD,21287,US
642,138893,5537 Twin Knolls Road,Suite 433,Columbia,MD,21045,US
643,138116,500 E. Lexington Street,,Baltimore,MD,21202-3560,US
644,138161,401 E. Pratt Street,Suite 232,Baltimore,MD,21202,US
645,138450,1501 W. Saratoga Street,,Baltimore,MD,21223,US
646,138531,P.O. Box 1483,,Baltimore,MD,21203-1483,US
647,137793,3320 Benson Avenue,,Baltimore,MD,21227,US
648,139320,3425 Chapman Road,,Randallstown,MD,21133,US
649,138152,Spring Grove Center,55 Wade Avenue,Catonsville,MD,21228,US
650,137851,9411 Liberty Road,,Randallstown,MD,21133,US
651,137696,6401 York Road,,Towson,MD,21212,US
652,139364,4615 Park Heights Avenue,,Baltimore,MD,21215-6331,US
653,138748,6525 N. Charles Street,Gibson Building,Towson,MD,21204,US
654,138388,2416 Lampost Lane,,Baltimore,MD,21234,US
655,137857,1200 W. Baltimore Street,,Baltimore,MD,21223,US
656,137914,1401 E. Biddle Street,,Baltimore,MD,21213,US
657,138153,311 West Saratoga Street,5Th Floor,Baltimore,MD,21201,US
658,139377,"71 Baltimore Street, 3Rd Floor",,Cumberland,MD,21501,US
659,139343,201 North Charles Street,Suite 200,Baltimore,MD,21201,US
660,137694,611 Central Avenue,,Towson,MD,21204,US
661,138040,5900 Metro Drive,,Baltimore,MD,21215,US
662,137693,4423 Bucks Schoolhouse Road,,Baltimore,MD,21237,US
663,138719,1600 Havenwood Road,,Baltimore,MD,21218,US
664,139043,626 Towne Center Dr.,,Joppa,MD,21085,US
665,138395,3301 Windsor Avenue,,Baltimore,MD,21216,US
666,137739,701 Wyman Park Drive,,Baltimore,MD,21211-2899,US
667,138136,435 E. 25Th Street,,Baltimore,MD,21218,US
668,138423,3909 Pennington Avenue,,Baltimore,MD,21226-1211,US
669,138092,600 North Wolfe Street,,Baltimore,MD,21287,US
670,138547,5209 York Road,Suite B-12,Baltimore,MD,21212,US
671,138589,323 East 25Th Street,,Baltimore,MD,21218-530M,US
672,139048,7701 Dunmanway,,Baltimore,MD,21222,US
673,139791,Po Box 1153,,Hagerstown,MD,21741-1153,US
674,139398,Emergency Management,700 East Joppa Road,Towson,MD,21286-5500,US
675,137736,3100 Towanda Avenue,,Baltimore,MD,21215,US
676,137686,1510 Guilford Avenue,,Baltimore,MD,21202,US
677,138699,331 E. 30Th Street,,Baltimore,MD,21218,US
678,137683,900 E. Madison Street,,Baltimore,MD,21202,US
679,138571,350 Ridge Road,,Pasadena,MD,21122,US
680,138801,522 Sussex Road,(Do Not Give Out Address),Towson,MD,21286,US
681,138404,7601 Osler Drive,,Towson,MD,21204,US
682,137685,3001 East Drive,,Baltimore,MD,21217,US
683,139731,8311 Liberty Road,,Gwynn Oak,MD,21244,US
684,138379,7 West Randall Street,,Baltimore,MD,21230,US
685,139361,217 North Charles Street,,Baltimore,MD,21201,US
686,138550,6401 York Road,3Rd Floor,Baltimore,MD,21212,US
687,139764,11350 Baroque Road,,Silver Spring,MD,20910,US
688,137810,4 East University Parkway,,Baltimore,MD,21218,US
689,138178,Va Maryland Health Care System,9600 North Point Road,Baltimore,MD,21052,US
690,138738,2822 Hollins Ferry Road,,Catonsville,MD,21230,US
691,137916,7301 Dogwood Road,,Woodlawn,MD,21244,US
692,139048,16 W 25Th Street,Lower Level,Baltimore,MD,21218,US
693,139151,301 West Preston Street,,Baltimore,MD,21201,US
694,137955,2035 York Road,,Lutherville,MD,21093-4229,US
695,139441,6326 Security Blvd.,Suite 101,Baltimore,MD,21207,US
696,139336,922 E. Preston Street,,Baltimore,MD,21202,US
697,137997,3459 Park Heights Avenue,,Baltimore,MD,21215,US
698,139127,255 Clifton Boulevard,Suite 312,Westminster,MD,21157,US
699,138527,3426 Bank Street,,Baltimore,MD,21224,US
700,139377,"71 Baltimore Street, 3Rd Floor",,Cumberland,MD,21501,US
701,138177,2301 Argonne Drive,Suite T-17,Baltimore,MD,21218,US
702,137697,6401 York Road,3Rd Floor,Baltimore,MD,21212,US
703,138834,"5 Crain Highway, Suite L1",,Glen Burnie,MD,21061,US
704,138118,2434 W. Belvedere Avenue,,Baltimore,MD,21215,US
705,138360,"9100 Franklin Square Drive,",Room 317,Rosedale,MD,21237,US
706,138153,"311 West Saratoga Street,",Suite 213,Baltimore,MD,21201,US
707,138931,818 North Collington Avenue,,Baltimore,MD,21205,US
708,138596,5209 York Road,"Unit A6, Suite M25",Baltimore,MD,21212,US
709,138934,2113 E. Oliver Street,,Baltimore,MD,21213,US
710,137620,1404 South Charles Street,,Baltimore,MD,21230,US
711,137856,10 N. Calvert Street,Suite 300,Baltimore,MD,21202-4004,US
712,139458,1 East 24Th Street,,Baltimore,MD,21218,US
713,138116,229 Hanover Street,,Annapolis,MD,21401,US
714,137874,703 Whitelock Street,,Baltimore,MD,21217,US
715,138772,1730 Merritt Boulevard,,Dundalk,MD,21222,US
716,137606,7939 Honeygo Blvd.,Suite 113,White Marsh,MD,21236,US
717,139237,1025 W. Nursery Road,,Linthicum,MD,21090,US
718,138091,4940 Eastern Avenue,D-4 East,Baltimore,MD,21224-3033,US
719,139019,2714 Hudson Street,,Baltimore,MD,21224,US
720,139779,658 Lucabaugh Mill Road,,Westminster,MD,21158,US
721,137703,106 Bloomsbury Ave.,3Rd Floor,Catonsville,MD,21228,US
722,137979,305   W. Chesapeake Ave.,Suite 115,Baltimore,MD,21204,US
723,139131,1515 West North Avenue,,Baltimore,MD,21217,US
724,138171,200 W. Baltimore Street,,Baltimore,MD,21201,US
725,139419,325 E. 25Th Street,,Baltimore,MD,21211,US
726,137793,1301 Continental Drive,Suite 101,Abingdon,MD,21009,US
727,138360,401 Washington Ave,Suite 300,Towson,MD,21204,US
728,137746,1611 Baker Street,,Baltimore,MD,21217,US
729,139822,3723 Old Court Road,Suite 206,Pikesville,MD,21208,US
730,137766,3302 Toone Street,,Baltimore,MD,21224,US
731,139177,924 East Baltimore Street,,Baltimore,MD,21202,US
732,137793,725 Fallsway,,Baltimore,MD,21202,US
733,137996,516 Glenwood Avenue,,Baltimore,MD,21212,US
734,137999,1517 E. North Avenue,,Baltimore,MD,21213,US
735,138479,100 S. Charles Street,5Th Floor,Baltimore,MD,21201,US
736,139071,4806 York Road,,Baltimore,MD,21212,US
737,138169,1313 W. Old Cold Spring Lane,,Baltimore,MD,21209,US
738,138022,5 North Main Street,,Bel Air,MD,21014,US
739,137873,301 West Preston Street,Suite 1502,Baltimore,MD,21201,US
740,137676,7215 York Road,,Baltimore,MD,21212,US
741,139571,Suite 101,10155 York Road,Cockeysville,MD,21030-2233,US
742,138171,200 W. Baltimore Street,10Th Floor,Baltimore,MD,21201,US
743,139463,1045 Taylor Avenue,Suite 104,Baltimore,MD,21286,US
744,137884,109 West Baltimore Street,,Hagerstown,MD,21740,US
745,137696,6401 York Road,,Baltimore,MD,21212,US
746,138819,525 St. Paul Place,,Baltimore,MD,21202,US
747,137891,721 Woodbourne Avenue,,Baltimore,MD,21212,US
748,137689,1620 Edison Highway,,Baltimore,MD,21213,US
749,139012,1014 W. 36Th Street,,Baltimore,MD,21211,US
750,137629,800 Wyman Park Drive,Suite 110,Baltimore,MD,21211,US
751,137793,229 North Potomac Street,,Hagerstown,MD,21740,US
752,138458,2214 Evergreen Street,,Baltimore,MD,21216,US
753,138493,22 S. Greene Street,,Baltimore,MD,21201,US
754,139249,P.O. Box 1915,,Ellicott City,MD,21041,US
755,138091,Johns Hopkins Bayview Medical Cente,4940 Eastern Avenue,Baltimore,MD,21224,US
756,138683,856 Seneca Park Drive,,Cockeysville,MD,,US
757,139046,3521 W. Belvedere Avenue,,Baltimore,MD,21215,US
758,139204,2200 Kernan Drive,,Baltimore,MD,21207,US
759,139675,7458 B&A Blvd.,,Glen Burnie,MD,21061,US
760,137999,5207 York Road (Office),,Baltimore,MD,21212,US
761,138091,4940 Eastern Avenue,A 2 East Room 202,Baltimore,MD,21224-2735,US
762,139025,7800 Wise Avenue,,Dundalk,MD,21222,US
763,138264,5407 N. Charles Street,,Baltimore,MD,21210-2094,US
764,138756,10400 Little Patuxent Pkwy.,Suite 270,Columbia,MD,21044,US
765,138321,3000 Parkside Drive,,Baltimore,MD,21214,US
766,138190,301 St. Paul Place,,Baltimore,MD,21202-2140,US
767,139005,1017 Edmondson Avenue,,Baltimore,MD,21223,US
768,139830,15554 Peach Walker Drive,,Bowie,MD,20716,US
769,138281,300 East Joppa Road,Suite 300,Towson,MD,21286,US
770,139576,2901 East Biddle Street,,Baltimore,MD,21213-3939,US
771,139747,1501 East Fayette Street,,Baltimore,MD,21231,US
772,139099,2405 Loch Raven Road,,Baltimore,MD,21218,US
773,137683,606 Cherry Hill Road,,Baltimore,MD,21225,US
774,138421,1725 East Baltimore Street,,Baltimore,MD,21231-1511,US
775,138709,6401 York Road,,Baltimore,MD,21212,US
776,138550,11 Market Place,Suite 850,Baltimore,MD,21202,US
777,138819,525 St. Paul Place,,Baltimore,MD,21202,US
778,138091,4940 Eastern Avenue,"Building Aa, Room 1370",Baltimore,MD,21224,US
779,139232,509 Hart Senate Office Building,,Washington,DC,20510,US
780,137935,4623 Falls Road,,Baltimore,MD,21209,US
781,137697,12035 Reisterstown Road,,Reisterstown,MD,21136,US
782,138399,2405 Linden Avenue,,Baltimore,MD,21217-3944,US
783,138275,6805 York Road,,Baltimore,MD,21212,US
784,137686,1910 North Broadway,,Baltimore,MD,21213,US
785,137793,1166 Greenspring Drive,Suite 200,Baltimore,MD,21093,US
786,139137,1000 E. Joppa Road (Do Not Give Out,Address),Baltimore,MD,21286,US
787,138550,26 N. Fulton Avenue,,Baltimore,MD,21223,US
788,137854,1777 Reisterstown Road,Suite 354,Baltimore,MD,21208,US
789,138226,9013 Nelson Way,,Columbia,MD,21045,US
790,137730,613 Ridgely Avenue,,Annapolis,MD,21401,US
791,137697,7700 Dunnmanway,,Dundalk,MD,21222,US
792,137597,7801 York Road,Suite 203,Baltimore,MD,212104,US
793,137935,4623 Falls Road,,Baltimore,MD,21209,US
794,138819,10455 Mill Run Circle,,Baltimore,MD,21117,US
795,139073,4502 Schenley Road,,Baltimore,MD,21210,US
796,137679,417 E. Fayette Street,Room 129,Baltimore,MD,21202,US
797,137686,1900 North Howard Street,,Baltimore,MD,21201,US
798,138025,2 S. Bond Street,,Bel Air,MD,21014,US
799,139136,808 Park Avenue,,Baltimore,MD,21201,US
800,139402,5570 Sterrett Place,Suite 205,Columbia,MD,21044,US
801,138550,Garwyn Medical Center,"2300 Garrison Blvd., Ste 290",Baltimore,MD,21216,US
802,138493,630 W. Fayette Street,4Th Floor,Baltimore,MD,21201,US
803,139358,8114 Sandpiper Circle,Suite 100,White Marsh,MD,21236,US
804,139318,131 West Quadrangle,2 Hamill Road,Baltimore,MD,21210,US
805,139576,2901 East Biddle Street,,Baltimore,MD,21213-3939,US
806,139748,Montebello Complex 335-D,Morgan State University,Baltimore,MD,21251,US
807,139100,2007 W. Baltimore Street,Basement,Baltimore,MD,21223,US
808,138211,Carroll Plaza Shopping Center,Suite 20 C,Westminster,MD,21157,US
809,138422,3115 The Alameda,,Baltimore,MD,21218,US
810,139557,1200 N. Collington Avenue,,Baltimore,MD,21213,US
811,137714,2900 East Fayette Street,,Baltimore,MD,21224,US
812,137998,222 East Redwood Street,,Baltimore,MD,21202,US
813,139037,120 N. Penn Street,,Baltimore,MD,21201,US
814,139232,503 Hart Senate Office Building,,Washington,DC,20510,US
815,139570,111 N. Calvert Street,,Baltimore,MD,21202,US
816,137935,204 W. Lanvale Street,,Baltimore,MD,21217,US
817,138618,P.O. Box 28259,,Salisbury,MD,21801,US
818,138493,"701 W. Pratt Street, 4Th Floor",,Baltimore,MD,21201-1601,US
819,138782,3332 Main Street,P.O. Box 390 (Mailing Address),Manchester,MD,21102-0390,US
820,138265,1714 Madison Ave.,,Baltimore,MD,21217,US
821,138755,609 Reisterstown Road,Suite 204,Baltimore,MD,21215,US
822,139006,815 Scott Street,,Baltimore,MD,21230,US
823,139830,700 Castlewood Drive,,Upper Marlboro,MD,20774,US
824,138132,415 Race Street,,Cambridge,MD,21613,US
825,139161,520 W. Lombard St.,,Baltimore,MD,21201,US
826,137857,1200 W. Baltimore Street,,Baltimore,MD,21223,US
827,139576,2811 Dillon Street,,Baltimore,MD,21224-4829,US
828,137690,1100 Covington Street,,Baltimore,MD,21230,US
829,137606,12120 Plum Orchard Drive,,Silver Spring,MD,20904,US
830,138682,10 East Baltimore Street,,Baltimore,MD,21202,US
831,139419,31 North Haven Street,,Baltimore,MD,21224,US
832,139047,1400 E. Federal Street,,Baltimore,MD,21213,US
833,137743,1624 Park Avenue,,Baltimore,MD,21217,US
834,138157,827 Linden Avenue,,Baltimore,MD,21201,US
835,138623,201 East Baltimore Street,11Th Floor,Baltimore,MD,21202,US
836,137677,8203 Harford Road,,Parkville,MD,21234-5888,US
837,138323,40 South Church Street,Suite 105,Westminster,MD,21157,US
838,139269,2300 North Charles Street,4Th Floor,Baltimore,MD,21218,US
839,138703,4301 Old York Road,,Baltimore,MD,21212,US
840,139220,1110 N. Wolfe Street,,Baltimore,MD,21213,US
841,137696,6401 York Road,,Baltimore,MD,21212,US
842,138154,1100 N. Eutaw Street,Room 101,Baltimore,MD,21201,US
843,137891,1 Center Plaza,"120 W. Fayette Street, 2Nd Floor",Baltimore,MD,21201,US
844,139177,924 East Baltimore Street,,Baltimore,MD,21202,US
845,137689,1900 Argonne Drive,,Baltimore,MD,21218,US
846,137825,301 East Patapsco Avenue,,Baltimore,MD,21225,US
847,137782,292 Stoner Avenue,,Westminster,MD,21157,US
848,138336,7901 Bradshaw Road,,Upper Falls,MD,21156,US
849,138589,323 East 25Th Street,,Baltimore,MD,21218-5303,US
850,138569,600 W. Chesapeake Avenue,,Towson,MD,21204,US
851,138489,122 Weber St.,,Baltimore,MD,21230,US
852,138450,1501 Division Street,,Baltimore,MD,21217,US
853,137793,605/607 North Tollgate Road,,Bel Air,MD,21014-2434,US
854,139418,1813 Old Eastern Avenue,,Middle River,MD,21221-1421,US
855,139065,301 N. High Street,,Baltimore,MD,21202,US
856,137726,3600 Clipper Mill Road,Suite 250,Baltimore,MD,21211,US
857,138361,1373 North Stricker Street,,Baltimore,MD,21217,US
858,138223,2610 Garrison Boulevard,,Baltimore,MD,21216-1820,US
859,137747,3701 4Th Street,4Th & Pontiac Avenue,Baltimore,MD,21225,US
860,139823,300 Eudowood Lane,,Towson,MD,21286,US
861,137767,41 N. Philadelphia Boulevard,,Aberdeen,MD,21001-2563,US
862,137997,3459 Park Heights Avenue,,Baltimore,MD,21215,US
863,139178,5050 King Avenue,,Baltimore,MD,21237,US
864,139570,111 N. Calvert Street.,Suite 627,Baltimore,MD,21202,US
865,137793,725 Fallsway,,Baltimore,MD,21202,US
866,138689,7910 Woodmont Avenue,Suite 1200,Bethesda,MD,20814-7022,US
867,138048,1800 North Charles Street,Suite 206,Baltimore,MD,21201-4403,US
868,139756,2205 West North Ave,,Baltimore,MD,21216,US
869,139209,100 S. Charles St.,11Th Floor,Baltimore,MD,21201,US
870,138525,10304 Putman Road,,Frederick,MD,21702,US
871,137699,1498 Homberg Avenue,,Essex,MD,21221,US
872,137736,2600 Liberty Heights Avenue,,Baltimore,MD,21215,US
873,137702,401 Bosley Avenue,Room 511,Towson,MD,21204,US
874,139707,200 North Wolfe Street,,Baltimore,MD,21287,US
875,139302,241 West Chase Street,,Baltimore,MD,21201,US
876,137855,Dept Of Family Services,"6200 Baltimore Avenue, 3Rd Floor",Riverdale,MD,20737,US
877,137793,1980 Brookside Drive,,Edgewood,MD,21040-1612,US
878,139711,7930 Eastern Blvd.,,Baltimore,MD,21224,US
879,138182,"Mondawmin Mall, 3Rd Floor",2401 Liberty Heights Avenue,Baltimore,MD,21215,US
880,139290,2 W Aylesbury Road,,Timonium,MD,21093,US
881,138772,1531 S. Edgewood Street,Suite L,Baltimore,MD,21227,US
882,138140,7000 Hamlet Avenue,,Baltimore,MD,21234,US
883,137793,1118 Light Street,Suite  200,Baltimore,MD,21230,US
884,139767,2305 Salem Village Road,,Parkville,MD,21234,US
885,138804,5601 Loch Raven Boulevard,,Baltimore,MD,21239-2995,US
886,138526,3200 Garrison Boulevard,,Baltimore,MD,21216,US
887,137686,300 Metro Plaza,,Baltimore,MD,21215,US
888,137697,6401 York Road,,Baltimore,MD,21212,US
889,138176,6 St. Paul Street,16Th Floor,Baltimore,MD,21202,US
890,137796,25 Bloomsbury Avenue,,Catonsville,MD,21228,US
891,138119,501 West Lexington Street,,Baltimore,MD,21201-1772,US
892,138505,2301 Argonne Drive,,Baltimore,MD,21218,US
893,138710,Office Of Community Conservation,"6401 York Road, 2Nd Floor",Baltimore,MD,21212,US
894,139272,2222 East Jefferson Street,,Baltimore,MD,21205,US
895,139788,17433 Big Falls Road,,Monkton,MD,21111,US
896,137913,301 N. Gay Street,,Baltimore,MD,21202,US
897,137811,1700 Reisterstown Road,Suite 220,Baltimore,MD,21208,US
898,139390,8659 Baltimore National Pike,,Ellicott City,MD,21043,US
899,139190,515 E. Joppa Road,Suite 208,Towson,MD,21286-5418,US
900,138265,1701 Madison Avenue,,Baltimore,MD,21217,US
901,137916,101 East Baltimore Street,,Hagerstown,MD,21740,US
902,139049,4501 N. Charles Street,Seton Court O-2B,Baltimore,MD,21210,US
903,137686,1900 North Howard Street,,Baltimore,MD,21201,US
904,137954,4711 Edmondson Avenue,,Baltimore,MD,21229,US
905,139419,"1601 Guilford, 2 South",,Baltimore,MD,21202,US
906,139440,6310 Fair Oaks Avenue,,Baltimore,MD,21214,US
907,138121,60 Mellor Avenue,,Catonsville,MD,21228-5104,US
908,138404,7601 Osler Drive,,Towson,MD,21204,US
909,138717,10 S. Howard Street,3Rd Floor,Baltimore,MD,21201,US
910,137684,100 N. Holliday Street,Room 626,Baltimore,MD,21202,US
911,138571,128 W. Franklin Street,,Baltimore,MD,21201,US
912,138029,1221-A Brass Mill Road,,Belcamp,MD,21017-1200,US
913,138154,1100 N. Eutaw Street,Room 508,Baltimore,MD,21201,US
914,139360,800 North Fulton Avenue,2Nd Floor,Baltimore,MD,21217,US
915,138639,P.O. Box 20127,,Baltimore,MD,21284-0127,US
916,138567,601 Kelly Road,,Cumberland,MD,21502,US
917,137612,"12501-12503 Willowbrook Road, S.E.",,Cumberland,MD,21501,US
918,138064,5755 Cedar Lane,,Columbia,MD,21044-2999,US
919,138434,2 W. Rolling Cross Roads,Suite 209,Catonsville,MD,21228-3274,US
920,137810,4 East University Parkway,,Baltimore,MD,21218,US
921,138171,1010 Park Avenue,Suite 110,Baltimore,MD,21201,US
922,137686,300 Metro Plaza,,Baltimore,MD,21215,US
923,139383,613 Baker Street,,Baltimore,MD,21217,US
924,138234,4102 Webster Street,,North Brentwood,MD,20722,US
925,137807,1029 E. Monument Street,,Baltimore,MD,21202,US
926,139427,2401 St. Paul Street,,Baltimore,MD,21218,US
927,138152,201 West Preston Street,Third Floor,Baltimore,MD,21201-2399,US
928,139151,301 West Preston Street,Suite 1007,Baltimore,MD,21201-2374,US
929,138549,305 W. Chesapeake Avenue,Suite 201,Towson,MD,21204,US
930,138261,4120 Patterson Avenue,,Baltimore,MD,21215,US
931,139344,116 Slade Avenue,,Pikesville,MD,21208,US
932,138431,515 Loch Haven Road,,Edgewater,MD,21037,US
933,137856,10 North Calvert St,Suite 300,Baltimore,MD,21202,US
934,139726,7109 Harford Road,,Parkville,MD,21234,US
935,138834,1000 Hilltop Circle,,Baltimore,MD,21250,US
936,138567,601 Kelly Road,,Cumberland,MD,21502,US
937,137829,4814 Seton Drive,,Baltimore,MD,21215,US
938,137692,401 Bosley Avenue,Room 100,Towson,MD,21204-4491,US
939,138569,7701 Dunmanway,,Dundalk,MD,21222,US
940,138396,901 Poplar Grove Street,,Baltimore,MD,21216-4350,US
941,138422,3115 The Alameda,,Baltimore,MD,21218,US
942,138091,4940 Eastern Avenue,,Baltimore,MD,21224-2780,US
943,138588,200 S. Arlington Avenue,,Baltimore,MD,21223,US
944,138761,1714 Joan Avenue,,Towson,MD,21234,US
945,139209,100 South Charles Street,11Th Floor,Baltimore,MD,21201,US
946,138387,1201 Maple Avenue,,Baltimore,MD,21227-2639,US
947,138171,415 Park Avenue,,Baltimore,MD,21201,US
948,137858,7701 Dunmanway,,Dundalk,MD,21222,US
949,139008,3412 Belair Road,,Baltimore,MD,21213,US
950,138245,200 Saint Paul Place,16Th Floor,Baltimore,MD,21202-2021,US
951,139458,1 East 24Th Street,,Baltimore,MD,21218,US
952,138923,1 N. Charles Street,Suite 1600,Baltimore,MD,21201,US
953,138450,1501 W. Saratoga Street,,Baltimore,MD,21223,US
954,139771,4321 Mary Ridge Drive,,Randallstown,MD,21133,US
955,137958,801 Argonne Drive,,Baltimore,MD,21218-1998,US
956,139264,2414 Frederick Avenue,,Baltimore,MD,21223,US
957,139744,3001 Vineyard Lane,,Baltimore,MD,21218,US
958,138523,417 North Aisquith Street,,Baltimore,MD,21202,US
959,139825,5710 Executive Drive,Suite 105,Halethorpe,MD,21227,US
960,138475,10 S. Howard Street,,Baltimore,MD,21201,US
961,137694,611 Central Avenue,,Towson,MD,21204,US
962,138402,740 North Calvert Street,,Baltimore,MD,21202-3684,US
963,138110,700 West 40Th Street,,Baltimore,MD,21211-2199,US
964,138951,310 Tulip Avenue,,Takoma Park,MD,20912,US
965,138547,5209 York Road,Suite B-12,Baltimore,MD,21212,US
966,137683,3939 Reisterstown Road,,Baltimore,MD,21215,US
967,138117,242 Garland Hall,3400 N. Charles Street,Baltimore,MD,21218,US
968,139585,Po Box 41,,Riderwood,MD,21139,US
969,139331,2700 N Charles Street,Suite 200,Baltimore,MD,21218,US
970,139163,111 South Calvert Street,"Harbor Place Tower, Suite 1700",Baltimore,MD,21202,US
971,137697,9100 Franklin Square Drive,,Rosedale,MD,21237,US
972,138092,601 N. Wolfe Street,"Phipps,  Room 248",Baltimore,MD,21287,US
973,138745,2608 Deer Park Rd.(Do Not Give Out),,Finksburg,MD,21048,US
974,137827,6802 Mcclean Boulevard,,Baltimore,MD,21234,US
975,138078,P.O. Box 489,,Westminster,MD,21158,US
976,138005,6701 North Charles Street,,Baltimore,MD,21204,US
977,138136,435 E. 25Th Street,,Baltimore,MD,21218,US
978,138140,7000 Hamlet Avenue,,Baltimore,MD,21234,US
979,138161,401 E. Pratt Street,Suite 232,Baltimore,MD,21202,US
980,138723,2130 Smith Avenue,,Lansdowne,MD,21227,US
981,138006,3501 N. Charles Street,,Baltimore,MD,21218,US
982,138843,200 Baltimore Street,,La Plata,MD,20646,US
983,137891,308 Washington Avenue,,Towson,MD,21204,US
984,139301,451 7Th Street S.W.,,Washington,DC,20410,US
985,138591,100 N. Holliday Street,,Baltimore,MD,21202,US
986,138639,P.O. Box 20127,,Baltimore,MD,21284-0127,US
987,138269,2204 Maryland Ave.,,Baltimore,MD,21218,US
988,139028,3921 Old York Road,,Baltimore,MD,21218,US
989,139698,1700 E. Coldspring Lane,,Baltimore,MD,21251,US
990,139147,200 E. Joppa Road,Suite 407,Towson,MD,21286,US
991,137935,4623 Falls Road,,Baltimore,MD,21209,US
992,139480,Chronic Pain Outreach Center,12251 Saint James Road,Potomac,MD,20854,US
993,138866,2553 W. North Avenue,2Nd Floor,Baltimore,MD,21216,US
994,137870,5204 Liberty Heights Avenue,,Baltimore,MD,21207,US
995,138776,1301 Piccard Drive,,Rockville,MD,20850,US
996,138719,1600 Rutland Avenue,,Baltimore,MD,21213-2415,US
997,137736,26 North Fulton Avenue,,Baltimore,MD,21223,US
998,139747,1501 East Fayette Street,,Baltimore,MD,21231,US
999,138804,3001 South Hanover Street,,Baltimore,MD,21225,US
1000,138841,900 Somerset Street,,Baltimore,MD,21202,US
1001,138804,201 East University Parkway,,Baltimore,MD,21218,US
1002,138156,2200 Halethorpe Farms Road,,Baltimore,MD,21227,US
1003,139131,301 Stockholm Street,,Baltimore,MD,21230,US
1004,137631,101 North Gay Street,Room E,Baltimore,MD,21202,US
1005,137828,205 Bloomsbury Avenue,,Catonsville,MD,21228,US
1006,137689,10 Cherry Hill Road,,Baltimore,MD,21225,US
1007,139370,"Marie Mount Hall, Room 2415",University Of Maryland Campus,College Park,MD,20742-7515,US
1008,137655,7480 Baltimore-Annapolis Boulevard,Suite 102,Glen Burnie,MD,21061,US
1009,139758,231 East Baltimore Street,Suite 1102,Baltimore,MD,21202,US
1010,138044,8035A Harford Road,,Baltimore,MD,21234,US
1011,138429,2907 Dunleer Road,,Baltimore,MD,21222,US
1012,138551,1301 Woodbourne Avenue,,Baltimore,MD,21239-3399,US
1013,138215,10 E. Mt. Vernon Place (Rear),,Baltimore,MD,21202-2309,US
1014,139710,1601 Old Eastern Avenue,,Essex,MD,21221,US
1015,139340,1200 W. Baltimore Street,Suite 005,Baltimore,MD,21223,US
1016,138382,140 West Street,,Baltimore,MD,21230,US
1017,138228,18 Class Court,Suite 200,Parkville,MD,21234,US
1018,139439,6000 Radecke Avenue,,Baltimore,MD,21206,US
1019,139456,P.O. Box 1424,,Baltimore,MD,21203,US
1020,137831,600 Light Street,,Baltimore,MD,21230,US
1021,139405,6206 Pilgrim Road,,Baltimore,MD,21214,US
1022,139086,2 E. Read Street,9Th Floor,Baltimore,MD,21202,US
1023,137743,1624 Park Avenue,Strawbridge U.M.C.,Baltimore,MD,21217,US
1024,139131,5610 Harford Road,,Baltimore,MD,21214,US
1025,138614,5170 Lawrence Place,,Hyattsville,MD,20781,US
1026,138002,6601 Frederick Road,,Catonsville,MD,21228-0711,US
1027,137909,Community College Of Baltimore Co.,800 S. Rolling Road,Catonsville,MD,21228-5381,US
1028,137736,2000 West Baltimore Street,,Baltimore,MD,21223,US
1029,137630,415 N. Charles Street,,Baltimore,MD,21201,US
1030,137856,10 North Calvert Street,"3Rd Floor, Suite 300",Baltimore,MD,21202,US
1031,138195,31 Hopkins Plaza,Room 1234,Baltimore,MD,21201-2829,US
1032,138222,8 West 26Th Street,,Baltimore,MD,21218,US
1033,139131,312 N. Charles St.,2Nd Floor,Baltimore,MD,21201,US
1034,137849,Frames United Methodist Church,14200 Mount Avenue,Phoenix,MD,21131,US
1035,139290,2490 Giles Road,,Baltimore,MD,21225,US
1036,138603,110 Carroll Street,Comptroller Of The Treasury,Annapolis,MD,21401,US
1037,137916,1420 Spring Street,,Silver Spring,MD,20910,US
1038,139012,1014 W. 36Th Street,,Baltimore,MD,21211,US
1039,137694,611 Central Avenue,,Towson,MD,21204,US
1040,139131,3501 Brehms Lane,,Baltimore,MD,21213,US
1041,139442,800 Wyman Park Drive,,Baltimore,MD,21211,US
1042,139696,10635 York Road,,Cockeysville,MD,21030,US
1043,138087,5700 Park Heights Avenue,,Baltimore,MD,21215,US
1044,139119,2901 Druid Park Drive,Suite A-203,Baltimore,MD,21215,US
1045,137688,1211 Cathedral Street,,Baltimore,MD,21201,US
1046,138895,P.O. Box 400,,Monkton,MD,21111,US
1047,138592,1118 Ward Street,,Baltimore,MD,21230,US
1048,139111,2410 Pennsylvania Avenue,Suite 200,Baltimore,MD,21217,US
1049,137686,1510 Guilford Avenue,,Baltimore,MD,21202,US
1050,139383,615 Baker Street,,Baltimore,MD,21217,US
1051,138269,1111 Washington Blvd.,,Baltimore,MD,21230,US
1052,139100,2007 W. Baltimore Street,Basement,Baltimore,MD,21223,US
1053,137793,430 S. Broadway,,Baltimore,MD,21231,US
1054,137958,Claire Court,3725 Ellerslie Ave.,Baltimore,MD,21218,US
1055,139045,5721 Park Heights Avenue,,Baltimore,MD,21215,US
1056,138319,2901 Liberty Heights Avenue,,Baltimore,MD,21215,US
1057,137948,525 N. Caroline Street,,Baltimore,MD,21205,US
1058,137703,106 Bloomsbury Avenue,3Rd Floor,Towson,MD,21228,US
1059,138400,1501 East Oliver Street,,Baltimore,MD,21213-2999,US
1060,137734,3345 Washington Blvd.,,Baltimore,MD,21227,US
1061,138046,1029 East Baltimore Street,,Baltimore,MD,21202,US
1062,138091,4940 Eastern Avenue,,Baltimore,MD,21224,US
1063,138493,4538 Edmondson Avenue,,Baltimore,MD,21229,US
1064,138152,P.O. Box 386  (Does Not Give Out,Physical Address),Baltimore,MD,21203,US
1065,138584,301 W. Preston Street,,Baltimore,MD,21201-2395,US
1066,138550,621 N. Eden Street,,Baltimore,MD,21205,US
1067,137671,120 West Pennsylvania Avenue,,Towson,MD,21204,US
1068,137748,6200 N. Charles St.,,Baltimore,MD,21212,US
1069,139116,6025 Moravia Park Drive,,Baltimore,MD,21206,US
1070,139815,7006 Graces Quarter Road,,Middle River,MD,21220,US
1071,138242,1046 S. Carroll Street,P. O. Box 831,Hampstead,MD,21074,US
1072,137708,7311 Harford Road,,Baltimore,MD,21234,US
1073,138642,305 E. Joppa Road,,Towson,MD,21286-3252,US
1074,138212,2651 W. North Avenue,,Baltimore,MD,21216,US
1075,138297,204 E. 25Th Street,,Baltimore,MD,21218,US
1076,138153,311 W. Saratoga Street,,Baltimore,MD,21201-3521,US
1077,139270,2200 Garrison Blvd.,Suite 301,Baltimore,MD,21216,US
1078,139287,1200 Druid Hill Avenue,,Baltimore,MD,21217,US
1079,138856,1101 E. 33Rd Street,Suite C307,Baltimore,MD,21218,US
1080,139808,1730 Twin Springs Road,Suite 200,Halethorpe,MD,21227,US
1081,138170,520 West Fayette Street,,Baltimore,MD,21201,US
1082,138479,100 S. Charles Street,5Th Floor,Baltimore,MD,21201,US
1083,137975,3902 Annapolis Road,,Lansdowne,MD,21227,US
1084,139083,100 S. Washington Street,,Baltimore,MD,21231,US
1085,139268,1215 Annapolis Road,Suite 202,Odenton,MD,21113,US
1086,139598,4213 Loch Raven Blvd.,,Baltimore,MD,21218-1409,US
1087,138039,8507 Liberty Road,,Randallstown,MD,21133,US
1088,138300,1814 Maryland Avenue,,Baltimore,MD,21201,US
1089,138750,1107 Kenilworth Drive,Suite 202,Towson,MD,21204,US
1090,138392,900 Caton Avenue,,Baltimore,MD,21229,US
1091,137831,600 Light Street,,Baltimore,MD,21230,US
1092,139426,708 Park Avenue,,Baltimore,MD,21201,US
1093,139141,2901 E. Baltimore Street,,Baltimore,MD,21224,US
1094,138152,201 West Preston Street,,Baltimore,MD,21201-2399,US
1095,137696,910 Frederick Road,,Catonsville,MD,21228,US
1096,139454,1701 Madison Avenue,,Baltimore,MD,21217,US
1097,137919,1705 West Fayette Street,,Baltimore,MD,21223-1708,US
1098,137681,10 N. Calvert St.,"Equitable Building, Suite 915",Baltimore,MD,21202-1812,US
1099,137793,34 North Philadelphia Blvd.,,Aberdeen,MD,21001,US
1100,138365,6501 N. Charles Street,,Baltimore,MD,21285-6815,US
1101,138245,200 Saint Paul Place,,Baltimore,MD,21202-2021,US
1102,137910,2660 Yorkway,,Baltimore,MD,21222,US
1103,137660,714 Baltimore & Annapolis Blvd,,Severna Park,MD,21146,US
1104,138615,7400 York Road,Suite 308,Baltimore,MD,21204-7531,US
1105,139707,200 North Wolfe Street,,Baltimore,MD,21287,US
1106,139355,8401 Colesville Road,Suite 600,Silver Spring,MD,20910,US
1107,137793,11 E. Mount Royal Ave,3Rd Floor,Baltimore,MD,21202,US
1108,138401,1542 N. Gilmor Street,,Baltimore,MD,21217,US
1109,138082,500 Main Street,,New Windsor,MD,21776,US
1110,139139,80 Pendragon Court,,Reisterstown,MD,21136,US
1111,138493,"Walter P. Carter Building, Rm 2-357",630 W. Fayette Street,Baltimore,MD,21201,US
1112,138682,10 E. Baltimore St.,,Baltimore,MD,21202,US
1113,138804,2900 S. Hanover Street,,Baltimore,MD,21225,US
1114,137749,3215 West Belvedere Avenue,,Baltimore,MD,21215,US
1115,138728,2640 St. Paul Street,,Baltimore,MD,21218-4523,US
1116,137697,3525 Resource Drive,,Randallstown,MD,21133,US
1117,138397,2638 E. Baltimore Street,,Baltimore,MD,21224,US
1118,137598,3900 Roland Avenue,,Baltimore,MD,21211,US
1119,138958,George Washington House,4302 Baltimore Avenue,Bladensburg,MD,20710-1031,US
1120,138498,31 Hopkins Plaza,,Baltimore,MD,21201,US
1121,137705,39 W. Lexington Street,,Baltimore,MD,21201,US
1122,139302,241 West Chase Street,,Baltimore,MD,21201,US
1123,138450,Mondawmin Mall,Suite 113,Baltimore,MD,21215,US
1124,138143,190 West Ostend Street,Suite 201,Baltimore,MD,21230,US
1125,138467,200 School Lane,,Linthicum,MD,21090,US
1126,138005,6701 North Charles Street,,Baltimore,MD,21204,US
1127,137609,4406 Liberty Heights Avenue,,Baltimore,MD,21207-7593,US
1128,139068,1821 N. Smallwood Street,,Baltimore,MD,21216-7512,US
1129,138006,3501 N. Charles Street,,Baltimore,MD,21218,US
1130,138131,5911 York Road,Suite 100,Baltimore,MD,21212,US
1131,137742,700 Hudson Ave (Do Not Give Out),,Takoma Park,MD,20912,US
1132,137936,5300 Edmondson Avenue,,Baltimore,MD,21229,US
1133,139181,606 S. Ann Street,,Baltimore,MD,21231,US
1134,138505,2301 Argonne Drive,,Baltimore,MD,21218,US
1135,138155,1800 N. Charles Street,Suite 400,Baltimore,MD,21201,US
1136,137591,1142 N. Fulton Avenue,,Baltimore,MD,21217,US
1137,139744,3001 Vineyard Lane,,Baltimore,MD,21218,US
1138,138856,1101 E. 33Rd Street,,Baltimore,MD,21218,US
1139,138590,3333 Greenmount Avenue,,Baltimore,MD,21218,US
1140,139124,Wilde Lake Village Center,"10451 Twin Rivers Road, Suite 247",Columbia,MD,21044,US
1141,138141,8 Market Place,Suite 408,Baltimore,MD,21202,US
1142,138493,120 Penn Street,,Baltimore,MD,21201,US
1143,139178,5050 King Avenue,P.O. Box 9695 (Mailing Address),Baltimore,MD,21237,US
1144,137742,Confidential Address,,Silver Spring,MD,20906,US
1145,137736,10 North Pulaski Street,,Baltimore,MD,21223,US
1146,137697,"6401 York Road,",3Rd Floor,Baltimore,MD,21212,US
1147,138781,90 State Circle,,Annapolis,MD,21401-1991,US
1148,138795,405 East Joppa Road,Suite 301,Towson,MD,21286-5478,US
1149,137920,7414 Ellen Avenue,,Baltimore,MD,21219-2120,US
1150,138470,Catonsville Community College,"800 S. Rolling Rd., Bldg E, Rm 109",Catonsville,MD,21228,US
1151,139343,201 North Charles Street,Suite 200,Baltimore,MD,21201,US
1152,138423,3909 Pennington Avenue,,Baltimore,MD,21226-1211,US
1153,138011,1734  Maryland Avenue,,Baltimore,MD,21201,US
1154,139097,1025 South Potomac Street,Messiah Lutheran Church,Baltimore,MD,21223,US
1155,137648,931 Spa Road,,Annapolis,MD,21401,US
1156,138047,408 S. Chester Street,,Baltimore,MD,21231    M,US
1157,138338,2700 W. Patapsco Avenue,,Baltimore,MD,21230,US
1158,139330,6211 Harford Road,,Baltimore,MD,21214,US
1159,137744,1501 Mcculloh Street,,Baltimore,MD,21217,US
1160,137832,700 Wildwood Parkway,,Baltimore,MD,21229,US
1161,137674,1515 Reisterstown Road,3Rd Floor,Baltimore,MD,21208,US
1162,137998,222 East Redwood Street,,Baltimore,MD,21202,US
1163,139711,11101 Mccormick Road,Suite 102,Baltimore,MD,21031,US
1164,137985,1025 Memorial Drive,,Oakland,MD,21550,US
1165,138153,1 North Charles St.,5Th Floor,Baltimore,MD,21201,US
1166,139686,5603 N. Charles Street,Church Of The Redeemer,Baltimore,MD,21210,US
1167,138381,631 Cherry Hill Road,,Baltimore,MD,21225,US
1168,137633,4800 Mount Hope Drive,,Baltimore,MD,21215-3231,US
1169,139087,847 N. Howard Street,,Baltimore,MD,21201,US
1170,139794,1708 Whitehead Road,Suite 100,Baltimore,MD,21207,US
1171,138695,714 Baltimore Annapolis Boulevard,,Severna Park,MD,21146,US
1172,139305,303 Maiden Choice Lane,,Catonsville,MD,21228,US
1173,139787,111 W. Chesapeake Avenue,Suite 307,Towson,MD,21204,US
1174,138895,P.O. Box 400,,Monkton,MD,21111,US
1175,139284,330 E. 25Th Street,,Baltimore,MD,21218,US
1176,139768,4145 Falls Road,,Baltimore,MD,21211,US
1177,139268,1215 Annapolis Road,Suite 202,Odenton,MD,21113,US
1178,138179,1 N. Charles Street,Suite 222,Baltimore,MD,21201-3701,US
1179,139011,6903 Mornington Road,,Dundalk,MD,21222,US
1180,139441,6326 Security Blvd.,Suite 101,Baltimore,MD,21207,US
1181,137875,71 Baltimore Street,3Rd Floor,Cumberland,MD,21501-0307,US
1182,138250,6301 Harford Road,,Baltimore,MD,21214,US
1183,137853,"1825 K Street, Nw",Suite 1103,Washington,DC,20006,US
1184,138172,"6601 Ritchie Highway, N.E.",,Glen Burnie,MD,21062,US
1185,137849,14200 Mount Avenue,,Phoenix,MD,21131,US
1186,137686,1920 North Broadway,,Baltimore,MD,21213,US
1187,139341,"1734 Elton Road, Suite 103",,Silver Spring,MD,20903,US
1188,138090,C/O John Wesley Church,3202 W. North Ave.,Baltimore,MD,21216,US
1189,138591,100 N. Holliday Street,,Baltimore,MD,21202,US
1190,139106,5828 York Road,,Baltimore,MD,21212,US
1191,137721,Bethel Outreach Center,1429 Mcculloh Street,Baltimore,MD,21217,US
1192,138038,9100 Franklin Square Drive,Room 204,Baltimore,MD,21237,US
1193,137809,244 N. Patterson Park Avenue,,Baltimore,MD,21231,US
1194,137916,8601 Adelphi Road,,College Park,MD,20740-6001,US
1195,137949,911 Mace Avenue,,Essex,MD,21221,US
1196,137702,401 Bosley Avenue,Room 511,Towson,MD,21204,US
1197,139445,6776 Reisterstown Road,Suite 305,Baltimore,MD,21215,US
1198,137706,900 Caton Avenue,Mailbox #081,Baltimore,MD,21229,US
1199,139046,3521 W. Belvedere Avenue,,Baltimore,MD,21215,US
1200,137793,2520 Pot Spring Road,,Timonium,MD,21093,US
1201,137891,308 Washington Avenue,,Towson,MD,21204,US
1202,139800,1314 Bedford Avenue,Suite 210,Baltimore,MD,21208,US
1203,138712,428 4Th Street,P.O. Box 4848 (Mailing Address),Annapolis,MD,21403,US
1204,137672,1114 Cathedral Street,,Baltimore,MD,21201-5515,US
1205,137697,6401 York Road,3Rd Floor,Baltimore,MD,21212,US
1206,138890,1505 Eutaw Place,,Baltimore,MD,21217,US
1207,139333,1216 E. Baltimore Street,,Baltimore,MD,21202,US
1208,139246,212 Blue Ball Avenue,,Elkton,MD,21921,US
1209,139379,2308 N. Fulton Avenue,,Baltimore,MD,21217,US
1210,139554,520 West Lombard Street,"Gray Hall, 1St Floor",Baltimore,MD,21201,US
1211,138138,"175 W. Ostend Street, Suite C",,Baltimore,MD,21230,US
1212,138092,600 N. Wolfe Street,Carnegie 3,Baltimore,MD,21287,US
1213,138264,5407 N. Charles Street,,Baltimore,MD,21210-2094,US
1214,137712,512 Orchard Street,,Baltimore,MD,21201,US
1215,137951,3110 Crittenton Place,,Baltimore,MD,21211,US
1216,138211,3800 Frederick Avenue,,Baltimore,MD,21229,US
1217,138300,1814 Maryland Avenue,,Baltimore,MD,21201,US
1218,138704,5600 Fishers Lane,,Rockville,MD,20857,US
1219,138243,3319 West Belvedere Avenue,,Baltimore,MD,21215,US
1220,139791,P.O. Box 2683,,Salisbury,MD,21802,US
1221,138595,4 S. Frederick Street,Suite 100,Baltimore,MD,21202,US
1222,137683,417 E. Fayette Street,Suite 923,Baltimore,MD,21202,US
1223,138524,829 Montpelier Street,,Baltimore,MD,21218,US
1224,139809,415 Main Street,,Laurel,MD,20707,US
1225,139284,330 E. 25Th Street,,Baltimore,MD,21218,US
1226,138362,2800 Kirk Avenue,,Baltimore,MD,21218,US
1227,138131,8890 Mcgaw Road,,Columbia,MD,21045,US
1228,139467,8630 Fenton Street,Suite 930,Silver Spring,MD,20910,US
1229,137696,7701 Dunmanway,,Dundalk,MD,21222,US
1230,139131,210 Guilford Avenue,2Nd Floor,Baltimore,MD,21202,US
1231,138551,2041 E. Fayette St.,,Baltimore,MD,21231,US
1232,138494,220 Arch Street,Office Level # 1,Baltimore,MD,21201,US
1233,138211,3800 Frederick Avenue,,Baltimore,MD,21229,US
1234,138753,815 Park Avenue,,Baltimore,MD,21201,US
1235,137598,3900 Roland Avenue,,Baltimore,MD,21211,US
1236,138228,13 Class Court,Suite 200,Parkville,MD,21234,US
1237,137828,205 Bloomsbury Avenue,,Catonsville,MD,21228,US
1238,137985,1025 Memorial Drive,,Oakland,MD,21550,US
1239,137683,1225 W. Pratt Street,,Baltimore,MD,21223,US
1240,138617,200 E. Joppa Road,Suite 207,Baltimore,MD,21286,US
1241,139565,4401 Old York Road,,Baltimore,MD,21212,US
1242,139714,6401 York Road,2Nd Floor,Baltimore,MD,21212,US
1243,139414,7648 Belair Road,,Baltimore,MD,21236,US
1244,138571,4000 Southwestern Blvd.,,Arbutus,MD,21229,US
1245,137686,1920 North Broadway,,Baltimore,MD,21213,US
1246,137697,6401 York Road,,Baltimore,MD,21212,US
1247,137594,1800 North Charles Street,Suite 700,Baltimore,MD,21201,US
1248,138277,5500 Old Frederick Road,,Baltimore,MD,21229,US
1249,138612,The Episcopal Church Of Christ The,1930 Brookdale Road,Woodlawn,MD,21244,US
1250,138118,2434 W. Belvedere Avenue,,Baltimore,MD,21215,US
1251,138550,4536 Edmondson Ave.,,Baltimore,MD,21229,US
1252,139774,6401 Ritchie Highway,,Glen Burnie,MD,21061,US
1253,137717,425 N. Chester Street,,Baltimore,MD,21231-1635,US
1254,138173,100 Community Place,Suite 3301,Crownsville,MD,21032-2027,US
1255,138548,119 East 25Th Street,,Baltimore,MD,21218,US
1256,137606,12120 Plum Orchard Dr.,Suite E,Silver Spring,MD,20904,US
1257,138078,10 Distillery Drive,,Westminster,MD,21157,US
1258,139320,3425 Chapman Road,,Pikesville,MD,21133,US
1259,139576,2901 East Biddle Street,,Baltimore,MD,21213-3939,US
1260,139830,14700 Mt. Calvert Road,,Upper Marlboro,MD,20772,US
1261,137684,"City Hall, Room 626",100 N. Holiday Street,Baltimore,MD,21202,US
1262,137752,115 Stoner Avenue,,Westminster,MD,21157-5443,US
1263,139001,4100 Maple Avenue,,Baltimore,MD,21227,US
1264,138339,351 Hilltop Lane,,Annapolis,MD,21403,US
1265,138800,1809 East Joppa Road,,Baltimore,MD,21234,US
1266,137884,109 West Baltimore Street,,Hagerstown,MD,21740,US
1267,137671,120 West Pennsylvania Avenue,,Towson,MD,21204,US
1268,137699,7119 Croydon Road,,Baltimore,MD,21207,US
1269,137890,4203 Ritchie Highway,,Baltimore,MD,21225,US
1270,137793,116 East 2Nd Street,,Frederick,MD,21701,US
1271,137626,6428 York Road,,Baltimore,MD,21211,US
1272,139044,7835 Eastern Avenue,Suite 302,Baltimore,MD,21224,US
1273,139258,9509 Sylvan Dell,,Columbia,MD,21045-5120,US
1274,138137,23704 Ocean Gateway,Residential Programs & Clinics,Mardela Springs,MD,21837,US
1275,138338,1601 W. Baltimore Street,,Baltimore,MD,21223,US
1276,137605,8 Market Place,5Th Floor,Baltimore,MD,21202,US
1277,137827,6802 Mcclean Boulevard,,Baltimore,MD,21234,US
1278,137630,415 North Charles Street,,Baltimore,MD,21201,US
1279,138188,Po Box 808,,Elkton,MD,21922,US
1280,138335,1025 St. Paul Street,,Baltimore,MD,21202,US
1281,137891,907 Druid Park Lake Drive,,Baltimore,MD,21217,US
1282,138152,6550 Reisterstown Road,Reisterstown Road Plaza Mall,Baltimore,MD,21215,US
1283,139174,4426 Park Heights Avenue,,Baltimore,MD,21215,US
1284,137689,2201 W. Coldspring Lane,,Baltimore,MD,21209,US
1285,138039,1001 Cathedral Street,,Baltimore,MD,21201,US
1286,138153,170 W. Ridgely Road,Suite 200,Lutherville,MD,21093-5114,US
1287,137682,720 Light Street,,Baltimore,MD,21230,US
1288,138620,3021 Eastern Ave.,,Baltimore,MD,21224,US
1289,137890,4203 Ritchie Highway,,Baltimore,MD,21225,US
1290,138270,2500 Edmondson Avenue,,Baltimore,MD,21223,US
1291,137648,931 Spa Road,,Annapolis,MD,21401,US
1292,139748,Montebello Complex 335-D,Morgan State University,Baltimore,MD,21251,US
1293,138431,1546 N. Fremont Ave.,,Baltimore,MD,21217,US
1294,139318,131 West Quadrangle,2 Hamill Road,Baltimore,MD,21210,US
1295,138167,3501 Taylor Avenue,,Baltimore,MD,21236,US
1296,138159,Maryland State Dept. Of Education,"200 W. Baltimore Street, 9Th Floor",Baltimore,MD,21201,US
1297,138934,1114 Mount Street,,Baltimore,MD,21217,US
1298,139726,7109 Harford Road,,Parkville,MD,21234,US
1299,139562,110 West Road,Suite 440,Towson,MD,21204-2364,US
1300,138584,301 W. Preston Street,Room 900,Baltimore,MD,21201,US
1301,137994,4806 Seton Drive,,Baltimore,MD,21215,US
1302,139708,5210 York Road,,Baltimore,MD,21212,US
1303,139089,1212 N. Wolfe Street,,Baltimore,MD,21213,US
1304,139123,1427 Pennsylvania Avenue,,Baltimore,MD,21217,US
1305,138688,718 W. Lafayette Avenue,,Baltimore,MD,21217,US
1306,139131,2521 N. Charles Street,,Baltimore,MD,21218,US
1307,138362,2800 Kirk Avenue,,Baltimore,MD,21218,US
1308,138232,11403 Cronhill Drive,Suite  E,Owings Mills,MD,21117,US
1309,137621,9201 Philadelphia Road,,Baltimore,MD,21237,US
1310,137999,5610 York Road,,Baltimore,MD,21212,US
1311,137725,1631 East Federal Street,,Baltimore,MD,21213,US
1312,139436,101 W. 22Nd Street,Suite 201,Baltimore,MD,21218,US
1313,137913,301 North Gay Street,Lower Level,Baltimore,MD,21202,US
1314,139421,P.O. Box 1812,,Annapolis,MD,21404,US
1315,137701,6901 Charles Street,,Baltimore,MD,21204,US
1316,138493,2200 Kernan Drive,,Baltimore,MD,21207,US
1317,139175,273 D. Peninsula Farm Road,Building 2,Arnold,MD,21012,US
1318,137871,757 Frederick Road,2Nd Floor,Catonsville,MD,21228-3317,US
1319,138786,5930 Millrace Court,F 103,Columbia,MD,21045,US
1320,139122,1220 B East Joppa Road,Suite 332,Towson,MD,21286,US
1321,139361,217 North Charles Street,,Baltimore,MD,21201,US
1322,137845,35 West Baltimore Street,,Hagerstown,MD,21740,US
1323,138319,2901 Liberty Heights Avenue,,Baltimore,MD,21215,US
1324,138369,6401 Security Blvd.,,Baltimore,MD,21235,US
1325,138775,10630 Little Patuxent Parkway,Suite 401,Columbia,MD,21044,US
1326,139271,1625 E. Baltimore Street,,Baltimore,MD,21231,US
1327,138933,112 Sudbrook Lane,,Pikesville,MD,21208,US
1328,137795,26 South Mount Street,,Baltimore,MD,21223,US
1329,139820,13994 Baltimore Avenue,,Laurel,MD,20707,US
1330,138460,8615 Church Lane,,Randallstown,MD,21133,US
1331,139778,2140 Mcculloh Street.,,Baltimore,MD,21217,US
1332,138030,145 N. Hickory Avenue,,Bel Air,MD,21014,US
1333,138175,1100 Baltimore Boulevard,"Barrack ""G""",Westminster,MD,21157,US
1334,137957,3700 Greenspring Avenue,,Baltimore,MD,21211,US
1335,137697,6401 York Road,3Rd Fl,Baltimore,MD,21212-2130,US
1336,139132,2217 St. Paul Street,,Baltimore,MD,21218,US
1337,138268,1800 Penrose Avenue,,Baltimore,MD,21223,US
1338,138321,3000 Parkside Drive,,Baltimore,MD,21214,US
1339,138304,500 Virginia Avenue,,Towson,MD,21204,US
1340,138087,5700 Park Heights Avenue,,Baltimore,MD,21215,US
1341,139339,3002 Druid Park Drive,,Baltimore,MD,21215,US
1342,139226,1000 E. Joppa Road,Apt. 203,Baltimore,MD,21286,US
1343,139733,2300 Garrison Blvd.,Suite 211,Baltimore,MD,21216,US
1344,137793,Our Daily Bread Employment  Center,725 Fallsway,Baltimore,MD,21201,US
1345,138706,14901 Broschart Road,,Rockville,MD,20850,US
1346,138401,1542 N. Gilmor Street,,Baltimore,MD,21217,US
1347,137687,"201 E. Baltimore St.,",15Th Floor,Baltimore,MD,21202,US
1348,139760,6401 York Road,,Baltimore,MD,21212,US
1349,139116,6025 Moravia Park Drive,,Baltimore,MD,21206,US
1350,138024,702 N. Tollgate Road,,Bel Air,MD,21014,US
1351,137697,1811 Woodlawn Drive,,Woodlawn,MD,21207,US
1352,138794,912 Washington Road,,Westminster,MD,21157,US
1353,138261,3319 West Belvedere Avenue,,Baltimore,MD,21215,US
1354,139151,301 West Preston Street,Suite 1007,Baltimore,MD,21201-2374,US
1355,137941,5301 76Th Avenue,,Landover Hills,MD,20784,US
1356,139259,7480 Baltimore Annapolis Blvd.,,Millersville,MD,21061,US
1357,139119,2901 Druid Park Drive,Suite A-203,Baltimore,MD,21215,US
1358,139181,606 S. Ann Street,,Baltimore,MD,21231,US
1359,139634,1425 Liberty Road,Suite 208,Eldersburg,MD,21784,US
1360,139230,2501 Frederick Road,,Catonsville,MD,21228,US
1361,138761,9129 Reisterstown Road,,Owings Mills,MD,21117,US
1362,138421,1725 East Baltimore Street,,Baltimore,MD,21231-1511,US
1363,138154,One Stop Career Center,"138 Baltimore Street, Suite 102",Cumberland,MD,21502,US
1364,138551,1301 Woodbourne Avenue,,Baltimore,MD,21239-3399,US
1365,137691,100 N. Calvert Street,208 Mitchell Court House,Baltimore,MD,21202,US
1366,138397,2638 E. Baltimore Street,,Baltimore,MD,21224,US
1367,138250,5-7 Bloomsbury Ave,,Catonsville,MD,21207,US
1368,138719,1427 N. Caroline Street,,Baltimore,MD,21213,US
1369,139342,7801 York Road,Suite 215,Towson,MD,21204,US
1370,137916,4041 Powder Mill Rd.,Suite 100,Calverton,MD,20705,US
1371,137858,27 Main Avenue,,Catonsville,MD,21228,US
1372,138951,2224 E. Fayette Street,,Baltimore,MD,21231,US
1373,137860,725 Main Street,,Reisterstown,MD,21136-2511,US
1374,138366,2500 West Lombard Street,,Baltimore,MD,21223,US
1375,137742,1777 Reisterstown Road,"Suite 230, Commercenter East",Baltimore,MD,21208,US
1376,137975,Eastpoint Office Park,"1107 North Point Blvd., Suite 205",Dundalk,MD,21224,US
1377,138116,5 North Main Street,Suite 200,Bel Air,MD,21014-2955,US
1378,139824,501 Hampton Lane,,Towson,MD,21286,US
1379,137627,636 W. Lexington St.,,Baltimore,MD,21201,US
1380,139287,940 Madison Avenue,2Nd Floor,Baltimore,MD,21201,US
1381,139772,2300 Garrison Blvd,Suite 104,Baltimore,MD,21216,US
1382,138569,600 West Chesapeake Avenue,,Towson,MD,21204,US
1383,139322,1209 N. Calvert Street,,Baltimore,MD,21202,US
1384,137941,2622 Lord Baltimore Drive,,Baltimore,MD,21244,US
1385,138499,31 Hopkins Plaza,Room 1226,Baltimore,MD,21201,US
1386,138178,3900 Loch Raven Boulevard,,Baltimore,MD,21218,US
1387,137975,621 Stemmers Run Road,Suite E,Essex,MD,21221-3319,US
1388,137628,3600 Clipper Mill Road,Suite 350,Baltimore,MD,21211,US
1389,138027,119 Hays Street,,Bel Air,MD,21014,US
1390,139823,300 Eudowood Lane,,Towson,MD,21286,US
1391,137783,P.O. Box 845,,Westminster,MD,21158,US
1392,139382,3009 Montebello Terrace,,Baltimore,MD,21214,US
1393,139289,1301 Mcculloh Street,,Baltimore,MD,21217,US
1394,138152,55 Wade Avenue,,Catonsville,MD,21228,US
1395,138162,"711 W. 40Th St.,",Suite 460,Baltimore,MD,21211,US
1396,138532,3001-3005 Baker Street,,Baltimore,MD,21216,US
1397,137917,155 Orville Road,P.O. Box 7878 (Mailing Address),Baltimore,MD,21221,US
1398,138306,5665 Purdue Avenue,,Baltimore,MD,21239,US
1399,137696,130 Chartley Drive,,Reisterstown,MD,21136,US
1400,137661,5 Harry S. Truman Parkway,,Annapolis,MD,21401-7084,US
1401,138791,3700 Koppers Street,Suite 501,Arbutus,MD,21227,US
1402,137861,841 E. Chase Street,,Baltimore,MD,21202,US
1403,139131,112 N. Monroe Street,,Baltimore,MD,21223,US
1404,137664,2620 Riva Road,,Annapolis,MD,21401,US
1405,138973,7307 Baltimore Avenue,#208,College Park,MD,20740,US
1406,138548,119 East 25Th Street,,Baltimore,MD,21218,US
1407,138044,8035A Harford Road,,Baltimore,MD,21234,US
1408,137690,200 East North Avenue,,Baltimore,MD,21202,US
1409,138719,3814 Edmondson Avenue,,Baltimore,MD,21229,US
1410,138946,108 East 20Th Street,,Baltimore,MD,21218,US
1411,137697,3902 Annapolis Road,,Lansdowne,MD,21227,US
1412,138260,4001 Old Court Road,Apt. 316,Baltimore,MD,21208,US
1413,138379,1435 South Hanover Street,,Baltimore,MD,21230,US
1414,137692,401 Bosley Avenue,Room 100,Towson,MD,21204-4491,US
1415,138359,Po Box 1207,,Bel Air,MD,21014,US
1416,139131,210 Guilford Avenue,3Rd Floor,Baltimore,MD,21202,US
1417,138709,6401 York Road,,Baltimore,MD,21212,US
1418,138436,120 W. Allegheny Avenue,,Towson,MD,21204,US
1419,137876,8717 Mission Road,,Jessup,MD,20794,US
1420,139556,701 S. Charles St.,,Baltimore,MD,21230,US
1421,137782,292 Stoner Avenue,,Westminster,MD,21157,US
1422,139732,3900 Roland Avenue,,Baltimore,MD,21211,US
1423,138171,2301 Argonne Drive,,Baltimore,MD,21218-1696,US
1424,139698,1700 E. Coldspring Lane,,Baltimore,MD,21251,US
1425,138403,226 Washburn Avenue,,Baltimore,MD,21225-2099,US
1426,137793,320 Cathedral Street,,Baltimore,MD,21201,US
1427,139113,3600-2 N. Rogers Avenue,,Baltimore,MD,21207,US
1428,138573,1700 N. Caroline Street,,Baltimore,MD,21213,US
1429,137686,1510 Guilford Avenue,,Baltimore,MD,21202-2882,US
1430,139131,210 Guilford Avenue,3Rd Floor,Baltimore,MD,21202,US
1431,137707,517 N. Charles Street,Suite 200,Baltimore,MD,21201,US
1432,138267,310 Old Freeland Road,,Freeland,MD,21053,US
1433,137950,8303 Liberty Road,,Baltimore,MD,21244-3125,US
1434,137793,725 Fallsway,,Baltimore,MD,21202,US
1435,139270,2200 Garrison Blvd.,Suite 301,Baltimore,MD,21216,US
1436,138932,10205 Jensen Lane,Suite 4,Owings Mills,MD,21117,US
1437,139064,10711 Red Run Blvd.,Suite 110,Owings Mills,MD,21117,US
1438,138508,26845 Point Lookout Road,,Leonardtown,MD,20650,US
1439,138000,4 South Gay Street,,Baltimore,MD,21202,US
1440,138524,829 Montpelier Street,,Baltimore,MD,21218,US
1441,138174,6 Saint Paul Street,Suite 2102,Baltimore,MD,21202-1608,US
1442,138439,2517 N. Charles Street,,Baltimore,MD,21218,US
1443,138877,808 N. Chester Street,,Baltimore,MD,21205,US
1444,138772,1311 Continental Drive,Suite R,Abingdon,MD,21009,US
1445,138780,1607 Cromwell Bridge Road,,Towson,MD,21234,US
1446,137736,3101 Towanda Avenue,,Baltimore,MD,21215,US
1447,139123,1427 Pennsylvania Avenue,,Baltimore,MD,21217,US
1448,139360,800 North Fulton Avenue,2Nd Floor,Baltimore,MD,21217,US
1449,138156,2200 Halethorpe Farms Road,,Baltimore,MD,21227,US
1450,139202,"301 St. Paul Place, Suite 912",Mercy Hospital - Prof. Office Bldg.,Baltimore,MD,21202,US
1451,137710,217 N. Warwick Avenue,,Baltimore,MD,21223,US
1452,137844,317 Dolphin Street,,Baltimore,MD,21217,US
1453,138318,11435 Cronhill Drive,,Owings Mills,MD,21117,US
1454,138933,112 Sudbrook Lane,,Pikesville,MD,21208,US
1455,138368,2401 West Belvedere Avenue,,Baltimore,MD,21215,US
1456,138748,6525 N. Charles Street,Gibson Building,Towson,MD,21204,US
1457,138854,6110 Executive Boulevard,Suite 1010,Rockville,MD,20852,US
1458,138182,101 W. 24Th Street,,Baltimore,MD,21218-5024,US
1459,137700,320 York Road,,Towson,MD,21204-5179,US
1460,139236,22950 Hollywood Road,,Leonardtown,MD,20650-4700,US
1461,139568,5807 Chinquipin Parkway,Suite 2,Baltimore,MD,21239,US
1462,137683,1221 West Pratt Street,,Baltimore,MD,21223,US
1463,137929,1200 E. Fayette Street,,Baltimore,MD,21202,US
1464,139088,1400 E. Lombard Street,,Baltimore,MD,21231,US
1465,139122,1220 B  East Joppa Road,Suite 332,Towson,MD,21286,US
1466,139558,9 Monticello Avenue,,Annapolis,MD,21401,US
1467,138699,331 E. 30Th St.,,Baltimore,MD,21218,US
1468,137621,234 S. Broadway,,Baltimore,MD,21231,US
1469,138226,1800 Johnson St.,,Baltimore,MD,21230,US
1470,139582,1600 Rutland Avenue,,Baltimore,MD,21213,US
1471,139266,135 N. Parke Street,,Aberdeen,MD,21001,US
1472,139131,620 North Caroline Street,,Baltimore,MD,21205,US
1473,139749,3701 9Th Street,,Baltimore,MD,21225,US
1474,139312,9441 Farewell Road,,Columbia,MD,21045-4442,US
1475,138164,611 Park Avenue,,Baltimore,MD,21201,US
1476,138934,1001 Fayette Street,,Baltimore,MD,21202,US
1477,139033,12026 Scaggsville Road,,Fulton,MD,20759,US
1478,137909,7201 Rossville Boulevard,,Baltimore,MD,21237,US
1479,138149,608 Water Street,,Baltimore,MD,21202-4079,US
1480,137909,7201 Rossville Blvd.,"Ccbc, Essex Campus",Essex,MD,21237,US
1481,139011,6903 Mornington Road,,Dundalk,MD,21222,US
1482,138334,635 W. Lexington Street,,Baltimore,MD,21201-1571,US
1483,137891,One Center Plaza,120 W. Fayette Street,Baltimore,MD,21201,US
1484,139211,195 Thomas Johnson Drive,,Frederick,MD,21702,US
1485,138153,Saratoga State Center,311 West Saratoga Street,Baltimore,MD,21201-3521,US
1486,137689,1034 N. Mount St.,,Baltimore,MD,21217,US
1487,137696,6401 York Road,,Baltimore,MD,21212,US
1488,137685,3001 East Drive,Druid Hill Park,Baltimore,MD,21217,US
1489,138493,601 S. Charles Street,,Baltimore,MD,21230,US
1490,138326,12301 Academy Way,,Rockville,MD,20852,US
1491,138843,Charles County Government Building,"200 Baltimore Street, P.O. Box 2150",La Plata,MD,20646,US
1492,137741,810 Park Avenue,,Baltimore,MD,21201-4888,US
1493,139045,5721 Park Heights Avenue,,Baltimore,MD,21215,US
1494,139065,301 N. High Street,,Baltimore,MD,21202,US
1495,139258,Confidential,,Baltimore,MD,21236,US
1496,138091,4940 Eastern Avenue,,Baltimore,MD,21224,US
1497,138153,311 W. Saratoga Street,,Baltimore,MD,21201,US
1498,138138,175 W. Ostend Street,Suite C,Baltimore,MD,21230,US
1499,138545,1118 Light Street,Suite 101,Baltimore,MD,21230,US
1500,138222,4805 Mt. Hope Drive,,Baltimore,MD,21215,US
1501,139163,111 South Calvert Street,"Harbor Place Tower, Suite 1700",Baltimore,MD,21202,US
1502,139494,9240 Centreville Road,,Easton,MD,21601,US
1503,137736,3101 Towanda Avenue,,Baltimore,MD,21215,US
1504,138162,711 W. 40Th Street,Suite 460,Baltimore,MD,21211,US
1505,139008,3412 Belair Road,,Baltimore,MD,21213,US
1506,138772,400 Redland Court,Suite 114,Owings Mills,MD,21117,US
1507,137621,7701 Wise Avenue,Suite 206,Baltimore,MD,21222-3228,US
1508,137811,1700 Reisterstown Road,Suite 220,Baltimore,MD,21208,US
1509,138340,511 South Crain Highway,,Glen Burnie,MD,21061,US
1510,138267,310 Old Freeland Road,,Freeland,MD,21053,US
1511,138791,15 East Main Street,Suite 114,Westminster,MD,21157,US
1512,138799,3304 Woodside Avenue,,Baltimore,MD,21234,US
1513,137672,1114 Cathedral Street,,Baltimore,MD,21201-5515,US
1514,137891,1 Center Plaza,120 W. Fayette St. 3Rd Fl.,Baltimore,MD,21201,US
1515,139026,111 N. Calvert Street,,Baltimore,MD,21202,US
1516,139708,804 Landmark Drive,Suite 122,Glen Burnie,MD,21061,US
1517,138611,1211 Cathedral Street,,Baltimore,MD,21201-5585,US
1518,139358,8114 Sandpiper Circle,Suite 100,White Marsh,MD,21236,US
1519,138119,501 West Lexington Street,,Baltimore,MD,21201-1772,US
1520,137683,2630 Harford Road,,Baltimore,MD,21218,US
1521,137935,4623 Falls Road,,Baltimore,MD,21209,US
1522,138549,305 W. Chesapeake Avenue,Suite 201,Towson,MD,21204,US
1523,139746,1532 North Smallwood Street,,Baltimore,MD,21217,US
1524,139576,2901 East Biddle Street,,Baltimore,MD,21213-3939,US
1525,137782,200 Memorial Avenue,,Westminster,MD,21157,US
1526,138725,P.O. Box 625,,Brooklandville,MD,21022,US
1527,137599,21 West 25Th Street,,Baltimore,MD,21218,US
1528,138750,1107 Kenilworth Drive,Suite 202,Towson,MD,21204,US
1529,138829,1234 Washington Road,,Westminster,MD,21157,US
1530,138719,2700 North Charles Street,Suite 201,Baltimore,MD,21218,US
1531,137829,4815 Seton Drive,,Baltimore,MD,21215,US
1532,139073,1700 N. Caroline Street,,Baltimore,MD,21213,US
1533,138550,5610 Harford Road,,Baltimore,MD,21214,US
1534,139564,231 E. Baltimore Street,Suite 800,Baltimore,MD,21202,US
1535,139184,540 E. Belvedere Avenue,Suite 201,Baltimore,MD,21211,US
1536,137686,1510 Guilford Avenue,,Baltimore,MD,21202,US
1537,137697,6401 York Road,,Baltimore,MD,21212,US
1538,138660,,,Cumberland,MD,21502,US
1539,138276,6400 B Frederick Road,,Catonsville,MD,21228,US
1540,137907,2450 Cambridge Beltway,,Cambridge,MD,21613-3038,US
1541,138617,200 E. Joppa Road,Suite 207,Baltimore,MD,21286,US
1542,137696,6401 York Road,Room 1068,Baltimore,MD,21212,US
1543,139456,P.O. Box 1424,,Baltimore,MD,21203,US
1544,139006,815 Scott Street,,Baltimore,MD,21230,US
1545,137690,900 Druid Hill Ave.,3Rd Floor,Baltimore,MD,21201,US
1546,139143,5400 Loch Raven Blvd.,,Baltimore,MD,21239,US
1547,138151,301 West Preston Street,Room 1008A,Baltimore,MD,21201,US
1548,138302,1401 Pennsylvania Avenue,,Baltimore,MD,21217,US
1549,138210,833 W. Pratt Street,,Baltimore,MD,21201,US
1550,138834,971 Seagull Avenue,,Baltimore,MD,21225,US
1551,138594,10650 Hickory Ridge Road,,Columbia,MD,21044,US
1552,138759,11350 Mccormick Road,"Executive Plaza Iii, Suite 100",Hunt Valley,MD,21031,US
1553,137624,110 E. Pennsylvania Avenue,,Towson,MD,21286,US
1554,139081,14 S. Broadway,,Baltimore,MD,21231,US
1555,138494,20 N. Pine Street,Office Level # 1,Baltimore,MD,21201,US
1556,138092,2360 West Joppa Road,,Lutherville,MD,21093,US
1557,139285,2100 Eutaw Place,,Baltimore,MD,21217,US
1558,139051,2100 North Charles Street,,Baltimore,MD,21218,US
1559,138640,10 E. Eager Street,,Baltimore,MD,21202,US
1560,137711,4 North Central Avenue,,Baltimore,MD,21202,US
1561,138210,833 W. Pratt Street,,Baltimore,MD,21201,US
1562,137807,1029 E. Monument Street,,Baltimore,MD,21202,US
1563,138244,5401 Old Court Road,,Randallstown,MD,21133,US
1564,137809,244 N. Patterson Park Ave.,,Baltimore,MD,21231,US
1565,139114,1847 W. Baltimore Street,,Baltimore,MD,21223,US
1566,139760,6401 York Road,,Baltimore,MD,21212,US
1567,139173,2620 Wilkins Avenue,,Baltimore,MD,21223,US
1568,139397,6811 Campfield Road,,Baltimore,MD,21207-4698,US
1569,139332,1420 N. Charles Street,,Baltimore,MD,21201,US
1570,137689,8304 Carlson Lane,,Baltimore,MD,21244,US
1571,139378,6 Yorkway,,Dundalk,MD,21222,US
1572,138139,949 Gorsuch Avenue,,Baltimore,MD,21218-3602,US
1573,137736,2000 West Baltimore Street,,Baltimore,MD,21223,US
1574,138569,20 S. Charles Street,Suite 600,Baltimore,MD,21201,US
1575,138877,808 N. Chester Street,,Baltimore,MD,21205,US
1576,138961,802 S. Caroline Street,,Baltimore,MD,21231,US
1577,137947,27 S. Caroline Street,,Baltimore,MD,21231,US
1578,137701,6901 North Charles Street,,Baltimore,MD,21204,US
1579,139443,20 W. Montgomery Street,,Baltimore,MD,21230,US
1580,139417,5814 Harford Road,,Baltimore,MD,221214,US
1581,139047,1400 E. Federal Street,,Baltimore,MD,21213,US
1582,138700,401 Light Street,,Baltimore,MD,21202,US
1583,137793,128 W. Franklin Street,,Baltimore,MD,21201,US
1584,138250,6301 Harford Road,,Baltimore,MD,21214,US
1585,137686,1510 Guilford Ave,,Baltimore,MD,21202,US
1586,139791,"2 East Church Street, 2Nd Floor",,Frederick,MD,21701,US
1587,139340,1200 W. Baltimore St,Suite 005,Baltimore,MD,21223,US
1588,138894,17 Warren Road,Suite 22A,Baltimore,MD,21208,US
1589,139035,218 North Charles Street,Suite 301,Baltimore,MD,21218,US
1590,138590,3333 Greenmount Avenue,,Baltimore,MD,21218,US
1591,138569,20 S. Charles Street,Suite 600,Baltimore,MD,21201,US
1592,139772,2300 Garrison Blvd,Suite 104,Baltimore,MD,21216,US
1593,137809,4115 Frederick Avenue,,Baltimore,MD,21229,US
1594,137699,700 E. Joppa Road,,Towson,MD,21286,US
1595,139440,6310 Fair Oaks Avenue,,Baltimore,MD,21214,US
1596,137665,180 Kriders Church Road,,Westminster,MD,21158-4307,US
1597,137917,155 Orville Road,P.O. Box 7878 (Mailing Address),Baltimore,MD,21221,US
1598,137877,4119 E. Lombard Street,,Baltimore,MD,21224,US
1599,138744,40 W. Chesapeake Avenue,Suite 308,Towson,MD,21204,US
1600,138133,7401 Leesburg Pike,,,VA,22043,US
1601,139086,2 E. Read Street,8Th Floor,Baltimore,MD,21202,US
1602,138894,5272 River Road,Suite 700,Bethesda,MD,20816,US
1603,139285,2100 Eutaw Place,,Baltimore,MD,21217,US
1604,139769,1426 East Fairmount Ave,,Baltimore,MD,21231,US
1605,139267,11630 Glen Arm Road,,Glen Arm,MD,21057,US
1606,139339,3002 Druid Park Drive,,Baltimore,MD,21215,US
1607,138178,31 Hopkins Plaza,Room 1231,Baltimore,MD,21201,US
1608,138753,815 Park Avenue,,Baltimore,MD,21201,US
1609,138695,9505 Reisterstown Rd.,Suite 1 North,Owings Mills,MD,21117,US
1610,137833,2005 E. Chase Street,,Baltimore,MD,21213-3395,US
1611,137999,5513 York Road,,Baltimore,MD,21212,US
1612,138775,5750 Park Heights Avenue,,Baltimore,MD,21215,US
1613,139710,1601 Old Eastern Avenue,,Essex,MD,21221,US
1614,137976,1001 Eastern Avenue,2Nd Floor,Baltimore,MD,21202,US
1615,139089,1212 N. Wolfe Street,,Baltimore,MD,21213,US
1616,137686,1900 N. Howard Street,,Baltimore,MD,21213,US
1617,138380,110 E. West Street,,Baltimore,MD,21230-4314,US
1618,139296,8800 Jericho City Drive,,Landover,MD,20785,US
1619,139712,6423 Frederick Road,Suite B,Catonsville,MD,21228,US
1620,138800,1809 E. Joppa Road,,Baltimore,MD,21234,US
1621,139342,7801 York Road,Suite 215,Towson,MD,21204,US
1622,137793,430 S. Broadway,,Baltimore,MD,21231,US
1623,137913,301 N. Gay Street,,Baltimore,MD,21202,US
1624,137651,92 W. Washington Street,,Annapolis,MD,21401,US
1625,138046,1029 East Baltimore Street,,Baltimore,MD,21202,US
1626,138889,5604 Ritchie Highway,,Brooklyn Park,MD,21225,US
1627,139329,5401 Rue Saint Lo Drive,Camp Frettered Military Reservation,Reisterstown,MD,21136,US
1628,139373,5230 Washington Blvd.,,Baltimore,MD,21227,US
1629,138338,814 Light St.,,Baltimore,MD,21230,US
1630,137793,921 Seton Drive,Suite 2G,Cumberland,MD,21502,US
1631,138902,98 N. Court Street,,Westminster,MD,21158,US
1632,139196,Johnson Square Day Care Center,600 W. North Ave (P.O. Box 25535),Baltimore,MD,21217,US
1633,139203,1101 North Point Blvd.,Suite 124,Dundalk,MD,21222,US
1634,138152,926 Snow Hill Rd,,Salisbury,MD,21802,US
1635,138726,4920 Harford Road,,Baltimore,MD,21214,US
1636,138763,1700 Reisterstown Road,Suite 226,Baltimore,MD,21208,US
1637,138154,500 N. Calvert Street,,Baltimore,MD,21202,US
1638,138620,3021 Eastern Ave.,,Baltimore,MD,21224,US
1639,138078,10 Distillery Drive,Suite G-1,Westminster,MD,21158,US
1640,139250,301 St. Paul Place,Suite 812,Baltimore,MD,21202,US
1641,138491,40 W. Chase Street,,Baltimore,MD,21201,US
1642,138142,7567 Ritchie Highway,,Glen Burnie,MD,21061,US
1643,138011,Maryland Community Resource Center,1734 Maryland Ave.,Baltimore,MD,21201,US
1644,138936,2013 West Pratt Street,,Baltimore,MD,21223,US
1645,139377,"71 Baltimore Street, 3Rd Floor",,Cumberland,MD,21501,US
1646,137937,P. O. Box 3909,,Baltimore,MD,21222,US
1647,139696,10635 York Road,,Cockeysville,MD,21030,US
1648,137597,7801 York Road,Suite 203,Baltimore,MD,21204,US
1649,138791,800 Oak Street,,Frederick,MD,21703,US
1650,138841,900 Somerset Street,,Baltimore,MD,21202,US
1651,137873,31 Hopkins Plaza,Suite 400-B,Baltimore,MD,21201,US
1652,138450,2400 Kirk Avenue,,Baltimore,MD,21218,US
1653,138004,2418 St. Paul Street,,Baltimore,MD,21218-5518,US
1654,139413,5510 Nathan Shock Drive,,Baltimore,MD,21224,US
1655,138007,301 N. Gilmore Street,,Baltimore,MD,21223,US
1656,138457,1601 Druid Hill Avenue,,Baltimore,MD,21217,US
1657,139438,500 W. Baltimore Street,,Baltimore,MD,21201,US
1658,139714,6401 York Road,,Baltimore,MD,21212,US
1659,139562,711 W. 40Th Street,Suite 440,Baltimore,MD,21211-2196,US
1660,139568,1101 N. Calvert Street,,Baltimore,MD,21202,US
1661,137825,301 East Patapsco Avenue,P.O. Box 19618,Baltimore,MD,21225,US
1662,139189,13-19 S. Fulton Avenue,,Baltimore,MD,21223,US
1663,138379,1435 South Hanover Street,,Baltimore,MD,21230,US
1664,138683,8181 Professional Place,Suite 150,Landover,MD,20785,US
1665,137750,2700 Seamon Avenue,,Baltimore,MD,21225,US
1666,138729,5153 Bonnie Acres Drive,,Ellicott City,MD,21043,US
1667,138973,7307 Baltimore Avenue,Suite  # 208,College Park,MD,20740,US
1668,138396,901 Poplar Grove Street,,Baltimore,MD,21216-4398,US
1669,137599,21 West 25Th Street,,Baltimore,MD,21218,US
1670,137706,3612 Falls Road,,Baltimore,MD,21211,US
1671,139161,737 West Lombard Street,Suite 215,Baltimore,MD,21201-1595,US
1672,139416,325 E. 25Th Street,,Baltimore,MD,21218,US
1673,139301,10 S. Howard Street,"5Th Floor, City Crescent Building",Baltimore,MD,21201-2505,US
1674,138545,1118 Light Street,Suite 202,Baltimore,MD,21230,US
1675,138642,305 E. Joppa Road,,Towson,MD,21286-3252,US
1676,139211,3100 Wyman Park Drive,,Baltimore,MD,21211,US
1677,138400,1501 East Oliver Street,,Baltimore,MD,21213-2999,US
1678,138050,1500 Gorsuch Avenue,,Baltimore,MD,21218,US
1679,138574,4244 Reisterstown Road,,Baltimore,MD,21215,US
1680,138178,10 N. Greene Street,,Baltimore,MD,21201,US
1681,139174,4426 Park Heights Avenue,,Baltimore,MD,21215,US
1682,139099,2405 Loch Raven Road,,Baltimore,MD,21218,US
1683,138688,718 W. Lafayette Avenue,,Baltimore,MD,21217,US
1684,138220,4207 Frederick Avenue,,Baltimore,MD,21229,US
1685,137937,P. O. Box 3909,,Baltimore,MD,21222,US
1686,138493,701 W. Pratt Street,,Baltimore,MD,21201,US
1687,137734,3345 Washington Blvd.,,Baltimore,MD,21227,US
1688,137592,2701 W. Patapsco Avenue,Suite 110,Baltimore,MD,21230-2797,US
1689,138152,500 N. Calvert Street,5Th Floor,Baltimore,MD,21202,US
1690,138237,5401 Frankford Ave.,,Baltimore,MD,21206-6139,US
1691,139719,9C Central Ave,,Glen Burnie,MD,21061,US
1692,139454,1701 Madison Avenue,,Baltimore,MD,21217,US
1693,137686,2000 North Broadway,,Baltimore,MD,21213,US
1694,139426,516 North Charles Street,Room # 312,Baltimore,MD,21201-2204,US
1695,139026,"Clarence Mitchell Courthouse,Room #",100 N. Calvert Street,Baltimore,MD,21202,US
1696,139776,4402 White Oak Avenue,,Baltimore,MD,21215,US
1697,137711,4 North Central Avenue,P.O. Box 735 (Mailing Address),Baltimore,MD,21203,US
1698,138056,2201 Argonne Drive,,Baltimore,MD,21218-1627,US
1699,138613,1801 Glen Keith Boulevard,Loch Raven Elementary School,Towson,MD,21234,US
1700,138958,George Washington House,4302 Baltimore Avenue,Bladensburg,MD,20710-1031,US
1701,139323,2630 Turf Valley Road,,Ellicott City,MD,21042,US
1702,138087,3506 Gwynnbrook Avenue,,Owings Mills,MD,21117-5200,US
1703,139576,2901 East Biddle Street,,Baltimore,MD,21213-3939,US
1704,139168,206 North Fremont Avenue,,Baltimore,MD,21201,US
1705,138113,1111 East Cold Spring Lane,,Baltimore,MD,21239-3998,US
1706,138195,31 Hopkins Plaza,Room 1234,Baltimore,MD,21201-2829,US
1707,138325,2100 E. Madison Street,,Baltimore,MD,21205,US
1708,138775,5750 Park Heights Avenue,,Baltimore,MD,21215,US
1709,137623,2505 N. Charles Street,,Baltimore,MD,21218,US
1710,138132,1706 Eastern Avenue,,Baltimore,MD,21231,US
1711,137924,400 Cathedral Street,,Baltimore,MD,21201-4484,US
1712,139226,1000 E. Joppa Road,Apt. 203,Baltimore,MD,21286,US
1713,137896,219 N. Chester Street,,Baltimore,MD,21231,US
1714,139021,28 S. Broadway,,Baltimore,MD,21231,US
1715,138260,4001 Old Court Road,At. 316,Baltimore,MD,21208,US
1716,138431,65 Sacred Heart Lane,,Glyndon,MD,21071,US
1717,139758,231 East Baltimore Street,Suite 1102,Baltimore,MD,21202,US
1718,138155,1800 N. Charles Street,Suite 400,Baltimore,MD,21201,US
1719,138149,608 Water Street,,Baltimore,MD,21202-4079,US
1720,139250,301 St. Paul Place,Suite 812,Baltimore,MD,21202,US
1721,137746,1611 Baker Street,,Baltimore,MD,21217,US
1722,139413,Johns Hopkins Outpatient Program,"Suite 5064, 601 N. Caroline St.",Baltimore,MD,21287,US
1723,138178,10 North Greene Street,,Baltimore,MD,21201,US
1724,139732,3900 Roland Avenue,,Baltimore,MD,21211,US
1725,139589,8722 36Th Avenue,,College Park,MD,20740,US
1726,139298,2315 North Charles Street,,Baltimore,MD,21218,US
1727,137683,2700 N. Charles Street,Suite 202,Baltimore,MD,21218,US
1728,137858,55 Wade Avenue,,Catonsville,MD,21228,US
1729,138763,1700 Reisterstown Road,Suite 226,Baltimore,MD,21208,US
1730,138810,3102 Lord Baltimore Drive,Suite 212,Baltimore,MD,21244,US
1731,139127,515 South Haven Street,,Baltimore,MD,21224-4220,US
1732,138726,116 North Paca Street,,Baltimore,MD,21201,US
1733,137892,6355 Woodside Court,,Columbia,MD,21046,US
1734,137688,"1211 Cathedral Street, 3Rd Fl",,Baltimore,MD,21201-5516,US
1735,138626,200 Baltimore Street,P.O. Box 2150,La Plata,MD,20646,US
1736,139131,210 Guilford Avenue,3Rd Floor,Baltimore,MD,21202,US
1737,138276,6400 B Frederick Road,,Baltimore,MD,21228,US
1738,137793,2300 Dulaney Valley Road,,Timonium,MD,21093,US
1739,139037,655 W. Baltimore St.,,Baltimore,MD,21201,US
1740,137696,6401 York Road,,Baltimore,MD,21212,US
1741,139477,11309 Classical Lane,,Silver Spring,MD,20901,US
1742,139684,7002 Golden Ring Road,,Rosedale,MD,21237,US
1743,137750,2700 Seamon Avenue,,Baltimore,MD,21225,US
1744,139052,312 Marshall Avenue,Suite 104,Laurel,MD,20707-4824,US
1745,138177,2301 Argonne Drive,Suite T-17,Baltimore,MD,21218,US
1746,138548,609 Park Avenue,,Baltimore,MD,21201,US
1747,139562,1777 Reisterstown Road,Suite 384,Pikesville,MD,21208-1393,US
1748,139073,4502 Schenley Road,,Baltimore,MD,21210,US
1749,138150,217 E. Redwood Street,23Rd Floor,Baltimore,MD,21202,US
1750,137992,5620 The Alameda,,Baltimore,MD,21239,US
1751,139720,2147C Woodbox Lane,,Baltimore,MD,21209,US
1752,137723,1414 Key Highway,Suite 100,Baltimore,MD,21230,US
1753,138690,8503 Lasalle Road,,Towson,MD,21286-3018,US
1754,137699,7701 Dunmanway,,Dundalk,MD,21222,US
1755,139534,20465 Seneca Meadows Parkway,,Germantown,MD,20876,US
1756,137707,517 N. Charles Street,Suite 200,Baltimore,MD,21201,US
1757,137793,228 West Lexington Street,Suite 220,Baltimore,MD,21201,US
1758,138887,25 N. Caroline Street,,Baltimore,MD,21231,US
1759,137734,2240 Northwood Drive,,Salisbury,MD,21801,US
1760,139596,301 W. Preston Street,Suite 1502,Baltimore,MD,21201,US
1761,138092,600 N. Wolfe Street,"Jhh, Meyer Building 144",Baltimore,MD,21287,US
1762,138351,1701 Allen Court,,Bel Air,MD,21015,US
1763,138178,,,Perry Point,MD,21902,US
1764,138772,1840 York Road,Suite H,Timonium,MD,21093,US
1765,137843,218 West Saratoga Street,5Th Floor,Baltimore,MD,21201,US
1766,137793,320 Cathedral Street,,Baltimore,MD,21201,US
1767,139814,5000 East Joppa Road,,Perry Hall,MD,21128,US
1768,138092,1600 N. Rutland Avenue,,Baltimore,MD,21213,US
1769,139281,149 N. Luzerne Avenue,,Baltimore,MD,21224,US
1770,139332,1420 N. Charles Street,,Baltimore,MD,21201,US
1771,139762,431 East Belvedere Avenue,,Baltimore,MD,21212,US
1772,139298,2315 North Charles Street,,Baltimore,MD,21218,US
1773,138434,2 W. Rolling Cross Roads,Suite 209,Catonsville,MD,21228,US
1774,138523,417 North Aisquith Street,,Baltimore,MD,21202,US
1775,138489,122 Weber Street,,Baltimore,MD,21230,US
1776,138437,410 Girard Street,,Havre de Grace,MD,21078,US
1777,138270,2500 Edmondson Avenue,,Baltimore,MD,21223,US
1778,138153,1 N. Charles Street,Suite 1300,Baltimore,MD,21201,US
1779,137951,3110 Crittenton Place,,Baltimore,MD,21211,US
1780,139151,301 West Preston Street,Suite 1007,Baltimore,MD,21201,US
1781,139109,1200 E. Joppa Road,Suite B,Towson,MD,21286,US
1782,137674,101 West Mount Royal Avenue,,Baltimore,MD,21201,US
1783,138479,100 South Charles Street,5Th Floor,Baltimore,MD,21203-1576,US
1784,138743,"914 Washington Road, Suite D",Hunter Professional Center,Westminster,MD,21157,US
1785,137958,101 W. 23Rd St.,,Baltimore,MD,21218,US
1786,139220,1110 N. Wolfe Street,,Baltimore,MD,21213,US
1787,138431,320 Cathedral St.,,Baltimore,MD,21201,US
1788,138085,11614 Seven Locks Road,,Rockville,MD,20854,US
1789,138015,3449 Falls Road,,Baltimore,MD,21211,US
1790,137681,10 N. Calvert St.,"Equitable Building, Suite 915",Baltimore,MD,21202-1812,US
1791,139771,4321 Mary Ridge Drive,,Randallstown,MD,21133,US
1792,138574,2807 Grantley Avenue,,Baltimore,MD,21215,US
1793,137793,255 Clifton Blvd.,,Westminster,MD,21157,US
1794,139365,9833 Harford Road,,Baltimore,MD,21234,US
1795,137947,27 S. Caroline Street,,Baltimore,MD,21231,US
1796,137697,1046 Taylor Avenue,,Towson,MD,21286,US
1797,138259,2108 N. Charles St.,,Baltimore,MD,21218,US
1798,137720,14299 Benedictine Lane,,Ridgely,MD,21660,US
1799,137957,3700 Greenspring Avenue,,Baltimore,MD,21211,US
1800,137976,1001 Eastern Avenue,2Nd Floor,Baltimore,MD,21202-4364,US
1801,137991,241 W. Chase Street,,Baltimore,MD,21201,US
1802,138892,1101 St. Paul Street,Suite 305,Baltimore,MD,21202,US
1803,138095,1351 S. Clinton Street,,Baltimore,MD,21224,US
1804,138427,13 South Poppleton Street,,Baltimore,MD,21201,US
1805,137678,Courthouse East,"111 N. Calvert Street, Suite 627",Baltimore,MD,21202,US
1806,138152,55 Wade Avenue,,Catonsville,MD,21228,US
1807,139791,Po Box 323,,Cumberland,MD,21502,US
1808,138182,"101 W. 24Th Street, 3Rd Floor",,Baltimore,MD,21218,US
1809,137706,4000 Annapolis Road,Suite 105,Baltimore,MD,21227,US
1810,139373,5230 Washington Blvd.,,Baltimore,MD,21227,US
1811,139339,3002 Druid Park Drive,,Baltimore,MD,21215,US
1812,137697,6401 York Road,3Rd Floor,Baltimore,MD,21212-2130,US
1813,138132,601 Hammonds Lane,,Baltimore,MD,21225,US
1814,138431,3445 Park Heights Avenue,,Baltimore,MD,21215,US
1815,138719,2920 Joseph Avenue,,Baltimore,MD,21225,US
1816,138791,711 West 40Th Street,Suite 400,Baltimore,MD,21211,US
1817,139139,80 Pendragon Court,( Do Not Give Out Address),Reisterstown,MD,21136,US
1818,137910,2660 Yorkway,,Baltimore,MD,21222,US
1819,139718,Rosewood Lane,,Owings Mills,MD,21117,US
1820,139557,1211 N. Chester Street,,Baltimore,MD,21213,US
1821,138759,11350 Mccormick Road,"Executive Plaza Building, Suite100",Hunt Valley,MD,21031,US
1822,138922,2417 East North Avenue,,Baltimore,MD,21213,US
1823,138923,1 N. Charles Street,Suite 1600,Baltimore,MD,21201,US
1824,138761,330 N. Howard Street.,,Baltimore,MD,21201,US
1825,138470,1500 Pennyslvania Ave.,,Washington,DC,20220,US
1826,138116,500 E. Lexington Street,,Baltimore,MD,21202-3560,US
1827,138454,P.O. Box 659,,Charlotte Hall,MD,20622,US
1828,138610,6517 Frederick Road,Emmanuel United Methodist Church,Catonsville,MD,21228,US
1829,138431,806 Cherry Hill Road,St. Veronica's Catholic Church,Baltimore,MD,21225-1314,US
1830,138866,2500 W. North Avenue,,Baltimore,MD,21216-3698,US
1831,139353,5150 Baltimore National Pike,,Baltimore,MD,21229,US
1832,138640,10 E. Eager Street,,Baltimore,MD,21202,US
1833,137690,2200 Sinclair Lane,,Baltimore,MD,21213,US
1834,138886,9020 Red Branch Road,,Columbia,MD,21045,US
1835,138527,3426 Bank Street,,Baltimore,MD,21224,US
1836,139345,37 Main Street,,Reisterstown,MD,21136,US
1837,139327,"2-B Crain Highway, Sw",,Glen Burnie,MD,21061,US
1838,138804,9100 Franklin Square Drive,,Baltimore,MD,21237,US
1839,138744,40 W. Chesapeake Avenue,Suite 308,Towson,MD,21204,US
1840,139451,"1361 ""A"" Brass Mill Road",,Belcamp,MD,21017,US
1841,137941,5301 76Th Avenue,,Landover Hills,MD,20784,US
1842,138145,711 West 40Th Street,"Suite 310, The Rotunda",Baltimore,MD,21211,US
1843,138010,8643 Cherry Lane,,Laurel,MD,20707,US
1844,138306,2523 Maryland Avenue,,Baltimore,MD,21218,US
1845,138903,2209 Park Avenue,,Baltimore,MD,21217-4847,US
1846,137658,7485 Baltimore Annapolis Blvd.,,Glen Burnie,MD,21060-0370,US
1847,138000,4 South Gay Street,,Baltimore,MD,21202,US
1848,138502,4061 Powder Mill Road,Suite 210,Calverton,MD,20705,US
1849,138450,1501 Division Street,,Baltimore,MD,21217,US
1850,138129,2 N. Kresson Street,,Baltimore,MD,21224,US
1851,139168,809-811 W. Saratoga Street,,Baltimore,MD,21201-1212,US
1852,137875,"71 Baltimore Street, 3Rd Floor",,Cumberland,MD,21502,US
1853,138470,1901 E. Federal Street,,Baltimore,MD,21218,US
1854,138493,3939 Reisterstown Road,Suite 105,Baltimore,MD,21215,US
1855,138995,108 W. Centre Street,,Baltimore,MD,21201,US
1856,138772,1667 Knecht Avenue,Suite Q,Arbutus,MD,21227,US
1857,138470,3717 Springdale Avenue,,Baltimore,MD,21216,US
1858,139742,3828 Liberty Heights Avenue,,Baltimore,MD,21215,US
1859,138152,Spring Grove Hospital Center,55 Wade Avenue,Catonsville,MD,21228,US
1860,138015,801 West 33Rd Street,Mt. Vernon Church,Baltimore,MD,21211,US
1861,138153,311 W. Saratoga Street,,Baltimore,MD,21201,US
1862,138458,2214 Evergreen Street,,Baltimore,MD,21216,US
1863,138146,3011 Montebello Terrace,,Baltimore,MD,21214,US
1864,138531,P.O. Box 1483,,Baltimore,MD,21203-1483,US
1865,137871,5410 Ritchie Highway,Suite B,Brooklyn Park,MD,21225,US
1866,138569,1609 Druid Hill Avenue,,Baltimore,MD,21217,US
1867,137863,3355 Keswick Road,,Baltimore,MD,21211,US
1868,137696,6401 York Road,,Baltimore,MD,21212,US
1869,138780,1607 Cromwell Bridge Road,,Towson,MD,21234,US
1870,138330,"9 Schilling Road,",Suite 210,Hunt Valley,MD,21031,US
1871,137697,6401 York Road,,Baltimore,MD,21212,US
1872,138796,10 Distillery Drive,,Westminster,MD,21157,US
1873,138431,120 North Front Street,,Baltimore,MD,21202-4804,US
1874,139345,37 Main Street,,Reisterstown,MD,21136,US
1875,138645,28 E. Ostend Street,,Baltimore,MD,21230,US
1876,137856,"10 N. Calvert St., Suite 300",,Baltimore,MD,21202,US
1877,138041,3204 Fredrick Avenue,,Baltimore,MD,21229,US
1878,137793,761 West Hamburg Street,,Baltimore,MD,21230,US
1879,139579,7509 Windsor Mill Road,,Baltimore,MD,21244,US
1880,139083,100 S. Washington Street,,Baltimore,MD,21231,US
1881,138738,2822 Hollins Ferry Road,,Baltimore,MD,21230,US
1882,138368,2401 West Belvedere Avenue,,Baltimore,MD,21215,US
1883,138822,"379 Main Street,",#4,Laurel,MD,20707,US
1884,138387,1201 Maple Avenue,,Baltimore,MD,21227-2639,US
1885,139596,301 W. Preston Street,Suite 1502,Baltimore,MD,21201,US
1886,138939,403 A Old Stage Road,,Glen Burnie,MD,21061,US
1887,138664,P.O. Box 5637,,Baltimore,MD,21210-0610,US
1888,138893,555 West Towsontown Blvd,,Baltimore,MD,21204,US
1889,139272,2222 East Jefferson Street,,Baltimore,MD,21205,US
1890,139059,8455 Murphy Road,,Laurel,MD,20723,US
1891,138190,301 St. Paul Place,,Baltimore,MD,21202-2140,US
1892,139594,120 South Central Ave.,,Baltimore,MD,21231,US
1893,138490,650 W. Baltimore Street,,Baltimore,MD,21201,US
1894,138116,111 High Street,,Salisbury,MD,21801,US
1895,137651,251 West Street,,Annapolis,MD,21401,US
1896,137609,4406 Liberty Heights Avenue,,Baltimore,MD,21207-7593,US
1897,137843,218 West Saratoga Street,5Th Floor,Baltimore,MD,21201,US
1898,139105,14412 Old York Road,,Phoenix,MD,21131,US
1899,137686,1900 N. Howard Street,,Baltimore,MD,21201,US
1900,138431,3734 Eastern Avenue,Baltimore,Baltimore,MD,21224,US
1901,139369,28 East Ostend Street,Suite 303,Baltimore,MD,21230,US
1902,138152,201 W. Preston Street,Room 210,Baltimore,MD,21201,US
1903,138128,1840 N. Aisquith Street,,Baltimore,MD,21202,US
1904,138719,5427 Belair Road,,Baltimore,MD,21206,US
1905,139787,111 W. Chesapeake Avenue,Suite 307,Towson,MD,21204,US
1906,139041,1600 Rutland Avenue,Lower Level,Baltimore,MD,21213,US
1907,139040,1530 Presstman Street,,Baltimore,MD,21217,US
1908,137700,320 York Road,,Towson,MD,21204-5179,US
1909,137946,1101 St. Paul Street,Suite 111,Baltimore,MD,21202,US
1910,139107,40 York Road,4Th Floor,Towson,MD,21204,US
1911,137751,116 West Baltimore Street,,Hagerstown,MD,21740,US
1912,137696,6401 York Road,,Baltimore,MD,21212,US
1913,138470,31 Hopkins Plaza,Fallon Federal Building,Baltimore,MD,21201,US
1914,139186,2901 Druid Park Drive,Suite 303,Baltimore,MD,21215,US
1915,139105,14412 Old York Road,,Phoenix,MD,21131,US
1916,139390,8659 Baltimore National Pike,,Ellicott City,MD,21043,US
1917,139585,Po Box 41,,Riderwood,MD,21139,US
1918,138581,P.O. Box 17173,,Los Angeles,CA,90017,US
1919,139762,431 East Belvedere Avenue,,Baltimore,MD,21212,US
1920,137674,101 West Mount Royal Avenue,,Baltimore,MD,21201,US
1921,137711,1228 East Baltimore Street,,Baltimore,MD,21202,US
1922,138867,101 S. Main Street,Suite 300,Bel Air,MD,21014,US
1923,138529,"Mcmullen Building, 138 Baltimore St",Suite 102,Cumberland,MD,21502,US
1924,138094,838 N. Eutaw Street,,Baltimore,MD,21201-4686,US
1925,139768,4145 Falls Road,,Baltimore,MD,21211,US
1926,137793,"606 Cherry Hill Road, Suite 201",,Baltimore,MD,21225-1229,US
1927,137953,5999 Harpers Farm Road,Suite 200 E,Columbia,MD,21044,US
1928,138302,1401 Pennsylvania Avenue,,Baltimore,MD,21217,US
1929,138217,2501 Hollins Ferry Road,,Baltimore,MD,21230,US
1930,137793,"11 E. Mt. Royal Ave,",Suite 2A,Baltimore,MD,21202,US
1931,139406,1004 Frederick Road,,Baltimore,MD,21228,US
1932,139113,3600-2 N. Rogers Avenue,,Baltimore,MD,21207,US
1933,137845,35 West Baltimore Street.,,Hagerstown,MD,21740,US
1934,139810,1100 Whitmore Avenue,,Baltimore,MD,21216,US
1935,138238,2100 N. Monroe Street,,Baltimore,MD,21217,US
1936,137892,3501 East Federal Street,,Baltimore,MD,21213,US
1937,138152,201 West Preston Street,Room 299,Baltimore,MD,21201,US
1938,137623,2505 North Charles Street,,Baltimore,MD,21218,US
1939,138885,3423-3425 Sinclair Lane,,Baltimore,MD,21213,US
1940,139328,P.O. Box 41,,Butler,MD,21023,US
1941,139778,2140 Mcculloh Street,,Baltimore,MD,21217,US
1942,138169,1313 W. Old Cold Spring Lane,,Baltimore,MD,21209,US
1943,138493,250 W. Pratt Street,,Baltimore,MD,21201,US
1944,139810,1100 Whitmore Avenue,,Baltimore,MD,21216,US
1945,137766,3302 Toone Street,,Baltimore,MD,21224,US
1946,137696,6401 York Road,,Baltimore,MD,21212,US
1947,139001,4100 Maple Avenue,,Baltimore,MD,21227,US
1948,138056,2201 Argonne Drive,,Baltimore,MD,21218-1627,US
1949,138240,2225 North Charles Street,,Baltimore,MD,21218,US
1950,138359,Po Box 1207,,Bel Air,MD,21014,US
1951,138217,2501 Hollins Ferry Road,,Baltimore,MD,21230,US
1952,138305,1 N. Charles Street,Suite 200,Baltimore,MD,21201,US
1953,138618,P.O. Box 28259,,Baltimore,MD,21234-8259,US
1954,139144,1601 Nicodemus Rd.,,Reisterstown,MD,21136,US
1955,137696,6401 York Road,,Towson,MD,21212,US
1956,138360,401 Washington Avenue,Suite 300,Towson,MD,21204,US
1957,138611,1211 Cathedral Street,,Baltimore,MD,21201-5585,US
1958,138216,1708 W. Rogers Avenue,,Baltimore,MD,21209,US
1959,138304,"6 St. Paul Street, Suite 1400",William Donald Schaffer Tower,Baltimore,MD,21202-1608,US
1960,138754,11350 Mccormick Road,"Executive Plaza 1, Suite 600",Hunt Valley,MD,21031,US
1961,137594,1800 North Charles Street,Suite 700,Baltimore,MD,21201,US
1962,137697,3525 Resource Drive,,Randallstown,MD,21133,US
1963,138172,6 St. Paul Street,,Baltimore,MD,21202-1614,US
1964,139211,1000 E. Eager Street,,Baltimore,MD,21202,US
1965,137858,7701 Dunmanway,,Baltimore,MD,21222,US
1966,138909,20 East Oak Street,,Oakland,MD,21550,US
1967,137622,218 Main Street,,Reisterstown,MD,21136,US
1968,139079,524 Maryland Avenue,,Essex,MD,21221,US
1969,138226,1800 Johnson St.,,Baltimore,MD,21230,US
1970,139329,Camp Frettered Military Reservation,5401 Rue Saint Lo Drive,Reisterstown,MD,21136,US
1971,138269,5225 York Road,,Baltimore,MD,21212,US
1972,138492,1296 Symons Hall,,College Park,MD,20742-5551,US
1973,138646,6776 Reisterstown Road,Suite 307,Baltimore,MD,21215,US
1974,137714,2900 East Fayette Street,,Baltimore,MD,21224,US
1975,138301,3 Milford Mill Road,,Pikesville,MD,21208,US
1976,138216,1708 W. Rogers Avenue,,Baltimore,MD,21209,US
1977,137691,10 N. Calvert Street,Suite 400,Baltimore,MD,21202,US
1978,138091,4940 Eastern Avenue,,Baltimore,MD,21224,US
1979,138133,3516 Eastern Avenue,,Baltimore,MD,21224,US
1980,138152,201 W. Preston Street,,Baltimore,MD,21201,US
1981,139290,821 N. Eutaw Street,Suite 101 And 201,Baltimore,MD,21201-4648,US
1982,138703,4301 Old York Road,,Baltimore,MD,21212,US
1983,138353,1355 Homestead Street,,Baltimore,MD,21218,US
1984,137736,2901 Druid Park Drive,Suite A103,Baltimore,MD,21215,US
1985,137686,Family Investment Program,(Various Locations),Baltimore,MD,,US
1986,139762,"1500 16Th Street, Nw",,Washington,DC,20036,US
1987,138609,401 Bosley Avenue,,Towson,MD,21204,US
1988,138095,1351 S. Clinton Street,,Baltimore,MD,21224,US
1989,139767,2305 Salem Village Road,,Parkville,MD,21234,US
1990,137793,Confidential Address,,Baltimore,MD,21215,US
1991,139684,7002 Golden Ring Road,,Rosedale,MD,21237,US
1992,139411,3106 Pinkney Road,,Baltimore,MD,21215,US
1993,137976,201 Back River Neck Road,,Baltimore,MD,21221,US
1994,139041,525 N. Wolfe Street,,Baltimore,MD,21205-2110,US
1995,137699,700 E. Joppa Road,,Towson,MD,21286,US
1996,137945,707 St. Paul Street,,Baltimore,MD,21202,US
1997,137683,2707 Sethlow Road,,Baltimore,MD,21225,US
1998,139807,1055 Taylor Avenue,,Towson,MD,21286,US
1999,139554,520 West Lombard Street,"Gray Hall, 1St Floor",Baltimore,MD,21201,US
2000,138099,1750 E. Fairmount Avenue,,Baltimore,MD,21231,US
2001,138493,701 W. Pratt Street,1St Floor,Baltimore,MD,21201,US
2002,139104,6419 York Road,,Baltimore,MD,21212,US
2003,139037,630 West Fayette Street,Room 5-684,Baltimore,MD,21201,US
2004,138596,Youth Service Bureau,"5209 York Rd. Unit A6, Suite M25",Baltimore,MD,21212,US
2005,138211,3243 Eastern Avenue,,Baltimore,MD,21224,US
2006,137867,9534 Belair Road,,Baltimore,MD,21236,US
2007,138980,501 E. Fayette Street,,Baltimore,MD,21202,US
2008,138129,2 N. Kresson Street,,Baltimore,MD,21224,US
2009,138431,5001 Park Heights Avenue,,Baltimore,MD,21215,US
2010,139040,1300 N. Fulton Avenue,,Baltimore,MD,21217,US
2011,137726,3600 Clipper Mill Road,Suite 250,Baltimore,MD,21211,US
2012,138788,6520 Freetown Road,,Columbia,MD,21044,US
2013,137919,1705 West Fayette Street,,Baltimore,MD,21223-1708,US
2014,137666,4513 Philadelphia Road,,Aberdeen,MD,21001,US
2015,138938,700 N. Calvert Street,,Baltimore,MD,21202,US
2016,138892,1101 St. Paul Street,Suite 305,Baltimore,MD,21202,US
2017,139088,1400 E. Lombard Street,,Baltimore,MD,21231,US
2018,138493,1227 West Pratt Street,,Baltimore,MD,21223,US
2019,139522,"4720 Montgomery Lane, Suite 205",,Bethesda,MD,20814,US
2020,138471,5600 Fishers Lane,Room 10-105,Rockville,MD,20857,US
2021,138178,10 North Greene Street,,Baltimore,MD,21201,US
2022,138369,6401 Security Blvd.,,Baltimore,MD,21235-0001,US
2023,137739,701 Wyman Park Drive,,Baltimore,MD,21211-2899,US
2024,139196,P.O. Box 25535,,Baltimore,MD,21217,US
2025,139329,1201 E. Coldspring Lane,,Baltimore,MD,21239,US
2026,137950,10400 Ridgeland Road,Cranbrook Shopping Center,Cockeysville,MD,21030,US
2027,138050,1500 Gorsuch Avenue,,Baltimore,MD,21218,US
2028,139714,"6401 York Road,",2Nd Floor,Baltimore,MD,21212,US
2029,139344,116 Slade Avenue,,Pikesville,MD,21208,US
2030,138149,"1645 Ridgely St., Suite 200",,Baltimore,MD,21230,US
2031,137856,"10 N. Calvert Street, Suite 300",,Baltimore,MD,21202,US
2032,138040,5900 Metro Drive,,Baltimore,MD,212185,US
2033,137706,3509 Eastern Avenue,,Baltimore,MD,21224,US
2034,139658,10307 Haywood Drive,,Silver Spring,MD,20902,US
2035,139211,2809 Boston Street,,Baltimore,MD,21224,US
2036,137696,6401 York Road,,Baltimore,MD,21212,US
2037,139002,660 Pennsylvania Avenue Se,Suite 401,Washington,DC,20003,US
2038,138781,90 State Circle,,Annapolis,MD,21401-1991,US
2039,137698,105 W. Chesapeake Avenue,Suite 301,Towson,MD,21204,US
2040,137696,6401 York Rd.,,Baltimore,MD,21212,US
2041,138014,1104-1106 West 36Th Street,,Baltimore,MD,21211,US
2042,138152,201 West Preston Street,,Baltimore,MD,21201-2399,US
2043,138457,1601 Druid Hill Avenue,,Baltimore,MD,21217,US
2044,138532,3001-3005 Baker Street,,Baltimore,MD,21216,US
2045,137686,1900 N. Howard Street,,Baltimore,MD,21201,US
2046,138017,12039 Reisterstown Road,,Reisterstown,MD,21136,US
2047,137874,703 Whitelock Street,,Baltimore,MD,21217,US
2048,138145,711 West 40Th Street,"The Rotunda, Suite 310",Baltimore,MD,21211,US
2049,138470,5620 Greenhill Avenue,,Baltimore,MD,21206,US
2050,138938,700 N. Calvert Street,,Baltimore,MD,21202,US
2051,138470,3301 Milford Mill Road,,Baltimore,MD,21244,US
2052,139186,2901 Druid Park Drive,Suite 303,Baltimore,MD,21215,US
2053,138468,524 North Charles Street,,Baltimore,MD,21201,US
2054,139305,218 N. Charles Street,Suite 220,Baltimore,MD,21201,US
2055,137651,251 West Street,,Annapolis,MD,21401,US
2056,139397,6811 Campfield Road,,Baltimore,MD,21207-4698,US
2057,137683,2803 Dukeland Street,,Baltimore,MD,21216,US
2058,138810,3102 Lord Baltimore Drive,Suite 212,Baltimore,MD,21244,US
2059,138113,1111 East Cold Spring Lane,,Baltimore,MD,21239-3998,US
2060,138286,13992 Baltimore Avenue,Suite 203,Laurel,MD,20707,US
2061,137680,710 E. Lombard Street,,Baltimore,MD,21202,US
2062,138056,2201 Argonne Drive,,Baltimore,MD,21218-1627,US
2063,138834,2922 E. Fayette Street,,Baltimore,MD,21224,US
2064,139579,7509 Windsor Mill Road,,Baltimore,MD,21244,US
2065,138116,111 N. Calvert Street,Room 114,Baltimore,MD,21202,US
2066,137929,2110 Mura Street,,Baltimore,MD,21213,US
2067,138922,2417 E. North Avenue,,Baltimore,MD,21213,US
2068,138592,1118 Ward Street,,Baltimore,MD,21230,US
2069,139260,2701 St. Lo Drive,,Baltimore,MD,21213,US
2070,137683,1133 Pennsylvania Avenue,,Baltimore,MD,21217,US
2071,137891,1 Center Plaza,"120 West Fayette Street, 3Rd Fl.",Baltimore,MD,21201,US
2072,138116,29 W. Susquehanna Avenue,Suite 305,Towson,MD,21204,US
2073,138453,1900 North Broadway,Suite 100,Baltimore,MD,21213,US
2074,138164,611 Park Avenue,,Baltimore,MD,21201,US
2075,137793,2600 Pot Spring Road,,Timonium,MD,21093,US
2076,138763,118 East Oak Ridge Drive,,Baltimore,MD,21740,US
2077,138980,501 E. Fayette Street,,Baltimore,MD,21202,US
2078,137863,3355 Keswick Road,,Baltimore,MD,21211,US
2079,138431,9100 Franklin Square Drive,Suite 108,Essex,MD,21237,US
2080,137749,3215 West Belvedere Ave,Brown's Memorial,Baltimore,MD,21215,US
2081,137697,9100 Franklin Square Drive,,Rosedale,MD,21237,US
2082,137854,1777 Reisterstown Rd,Suite 354,Baltimore,MD,21208,US
2083,137742,1320 Fenwick Lane,Suite 800,Silver Spring,MD,20901,US
2084,137687,"201 E. Baltimore St., 15Th Floor",,Baltimore,MD,21202,US
2085,139354,11832 Eastern Avenue,,Middle River,MD,21220,US
2086,138381,631 Cherry Hill Road,,Baltimore,MD,21225,US
2087,138005,6701 North Charles Street,Suite 2301,Towson,MD,21204,US
2088,138094,838 N. Eutaw Street,,Baltimore,MD,21201-4686,US
2089,137679,417 E. Fayette Street,Room 129,Baltimore,MD,21202,US
2090,139237,1025 W. Nursery Road,,Linthicum,MD,21090,US
2091,138182,101 W. 24Th Street,,Baltimore,MD,21218-5024,US
2092,138603,110 Carroll Street,Comptroller Of The Treasury,Annapolis,MD,21401,US
2093,139372,9515 Belair Road,,Baltimore,MD,21236,US
2094,137858,12041 Reisterstown Road,,Reisterstown,MD,21136,US
2095,137652,2666 Riva Road,Suite 400,Annapolis,MD,21401,US
2096,137696,6401 York Road,,Baltimore,MD,21212,US
2097,138099,707 N. Broadway,,Baltimore,MD,21205,US
2098,137793,3308 Benson Avenue,,Baltimore,MD,21227,US
2099,138719,915 Sterrett Street,,Baltimore,MD,21230,US
2100,139413,1000 East Eager Street,3Rd Floor,Baltimore,MD,21202,US
2101,137946,1101 St. Paul Street,Suite 111,Baltimore,MD,21202,US
2102,137697,1538 Country Ridge Lane,,Essex,MD,21221,US
2103,138305,"1 N. Charles Street, Suite 200",,Baltimore,MD,21201,US
2104,139562,8615 Ridgely's Choice Drive,Suite 205,Perry Hall,MD,21236-3028,US
2105,138407,212 Bay Street,,Easton,MD,21601-2734,US
2106,137680,2901 Liberty Heights Avenue,,Baltimore,MD,21215,US
2107,138189,1407 Bolton Street,Memorial Episcopal Church,Baltimore,MD,21217,US
2108,139364,4615 Park Heights Avenue,,Baltimore,MD,21215-6331,US
2109,139348,58 Rockywood Lane,,Essex,MD,21221,US
2110,138269,3028 Greenmount Avenue,,Baltimore,MD,21218,US
2111,137950,8303 Liberty Road,,Baltimore,MD,21244-3125,US
2112,139436,101 W. 22Nd Street,Suite 201,Baltimore,MD,21218,US
2113,138775,5750 Park Heights Ave,,Baltimore,MD,21215,US
2114,138472,2600 Lord Baltimore Drive,,Baltimore,MD,21244,US
2115,138719,2700 N. Charles Street,Suite 201,Baltimore,MD,21218,US
2116,138804,9000 Franklin Square Drive,,Baltimore,MD,21237,US
2117,138304,101 N. Court Street,,Westminster,MD,21157,US
2118,138121,60 Mellor Avenue,,Catonsville,MD,21228-5104,US
2119,138182,1510 W. Lafayette Avenue,,Baltimore,MD,21217,US
2120,138934,2113 E. Oliver Street,,Baltimore,MD,21213,US
2121,139333,1216 E. Baltimore Street,,Baltimore,MD,21202,US
2122,139763,611 North Eutaw Street,,Baltimore,MD,21201,US
2123,138871,222 North Carrollton Avenue,,Baltimore,MD,21223,US
2124,139299,630 W. Fayette Street,,Baltimore,MD,21201,US
2125,139788,17433 Big Falls Road,,Monkton,MD,21111,US
2126,137994,4806 Seton Drive,,Baltimore,MD,21215,US
2127,138436,122 Allegheny Avenue,,Towson,MD,21204,US
2128,139442,4201 Primrose Avenue,,Baltimore,MD,21215-3305,US
2129,139137,Confidential Address,,Baltimore,MD,21286,US
2130,137870,5204 Liberty Heights Avenue,,Baltimore,MD,21207,US
2131,138772,9637 Liberty Road,Suite K,Randallstown,MD,21133,US
2132,138929,103 S. Gay Street,Room 207,Baltimore,MD,21202-4061,US
2133,139353,5150 Baltimore National Pike,,Baltimore,MD,21229,US
2134,137699,3651 Rolling Road,,Baltimore,MD,21244,US
2135,139348,58 Rockywood Lane,,Essex,MD,21221,US
2136,139718,201 W. Preston Street,4Th Floor,Baltimore,MD,21201,US
2137,138870,10003 Derekwood Lane,Suite 200,Lanham,MD,20706,US
2138,137706,3501 Sinclair Lane,Administrative Office,Baltimore,MD,21213,US
2139,139089,1212 N. Wolfe Street,,Baltimore,MD,21213,US
2140,139565,4401 Old York Road,,Baltimore,MD,21212,US
2141,139328,P.O. Box 41,,Butler,MD,21023,US
2142,138431,402 S. Bond Street,,Baltimore,MD,21231,US
2143,138236,8855 Annapolis Road,Suite 110,Lanham,MD,20706-2924,US
2144,138365,6501 N. Charles Street,P.O. Box 6815 (Mailing Address),Baltimore,MD,21285-6815,US
2145,137839,2629 Huntingdon Ave.,,Baltimore,MD,21211,US
2146,138728,2640 St. Paul Street,,Baltimore,MD,21218-4523,US
2147,139124,2500 E. Northern Parkway,,Baltimore,MD,21214,US
2148,138056,2201 Argonne Drive,,Baltimore,MD,21218-1627,US
2149,138220,4207 Frederick  Avenue,,Baltimore,MD,21229,US
2150,137926,312 North Martin Luther King Jr. Bo,3Rd Floor,Baltimore,MD,21201,US
2151,138152,Baltimore County Health Department,8501 Lasalle Rd. Suite 103,Towson,MD,21286,US
2152,137751,116 West Baltimore Street,,Hagerstown,MD,21740,US
2153,138176,6 St. Paul Street,,Baltimore,MD,21202,US
2154,137871,10220 South Dolfield Road,Suite 105,Owings Mills,MD,21117,US
2155,139390,8659 Baltimore National Pike,,Ellicott City,MD,21043,US
2156,139131,210 Guilford Avenue,2Nd Floor,Baltimore,MD,21202-3418,US
2157,138153,311 W. Saratoga Street,,Baltimore,MD,21201,US
2158,139173,2620 Wilkins Avenue,P.O. Box 2298,Baltimore,MD,21223,US
2159,137891,1623 Forest Drive,Suite 101,Annapolis,MD,21403,US
2160,138762,1314 Bedford Avenue,Suite 210,Baltimore,MD,21208,US
2161,138298,"11431 Cronhill Drive, Suite C",,Owings Mills,MD,21117,US
2162,137690,200 E. North Avenue,,Baltimore,MD,21202,US
2163,137624,532 Eastern Boulevard,Suite 202,Essex,MD,21221,US
2164,138277,5500 Old Frederick Road,,Baltimore,MD,21229,US
2165,138091,4940 Eastern Avenue,D-2 E,Baltimore,MD,21224-2780,US
2166,137696,6401 York Road,,Baltimore,MD,21212,US
2167,137683,3314 Ayrdale Avenue,,Baltimore,MD,21216,US
2168,139309,P. O. Box 42678,,Towson,MD,21284,US
2169,139260,2701 St. Lo Drive,,Baltimore,MD,21213,US
2170,137683,123 W 29Th Street,2Nd Floor,Baltimore,MD,21218,US
2171,138154,500 N. Calvert Street,,Baltimore,MD,21201-3651,US
2172,138148,6 St. Paul Street,Suite 900,Baltimore,MD,21202,US
2173,137747,3701 4Th Street,4Th & Pontiac Avenue,Baltimore,MD,21225,US
2174,139049,4501 N. Charles Street,Seton Court O-2B,Baltimore,MD,21210,US
2175,137690,200 East North Ave,Room 311,Baltimore,MD,21202,US
2176,138726,7901 Annapolis Road,,Lanham,MD,20706-1334,US
2177,138901,9601 Pulaski Park Drive,Suite 416,Middle River,MD,21220,US
2178,138499,31 Hopkins Plaza,Room 1226,Baltimore,MD,21201,US
2179,139131,210 Guilford Avenue,2Nd Floor,Baltimore,MD,21202,US
2180,139731,8311 Liberty Road,,Gwynn Oak,MD,21244,US
2181,139576,2901 East Biddle Street,,Baltimore,MD,21213-3939,US
2182,138195,"7272 Park Circle Drive, Suite 120",,Hanover,MD,21076,US
2183,139299,630 W. Fayette Street,,Baltimore,MD,21201,US
2184,138194,9620 Bird River Road,,Baltimore,MD,21220-1707,US
2185,137622,218 Main Street,,Reisterstown,MD,21136,US
2186,138229,Nova Research Company,5500 Nathan Shock Drive,Baltimore,MD,21224,US
2187,138866,2553 West North Avenue,,Baltimore,MD,21216,US
2188,137878,511 E. Baltimore Street,,Baltimore,MD,21202,US
2189,138261,3319 West Belvedere Avenue,,Baltimore,MD,21215,US
2190,137641,2441 West Baltimore Street,,Baltimore,MD,21223,US
2191,139777,318-320 S. Regester Street,,Baltimore,MD,21231,US
2192,137710,217 N. Warwick Avenue,,Baltimore,MD,21223,US
2193,139025,7800 Wise Avenue,,Dundalk,MD,21222,US
2194,138861,30450 Potomac Way,,Charlotte Hall,MD,20622,US
2195,137851,9411 Liberty Road,,Randallstown,MD,21133,US
2196,139230,2501 Frederick Road,,Catonsville,MD,21228,US
2197,138301,3 Milford Mill Road,,Pikesville,MD,21208,US
2198,139322,1209 N. Calvert Street,,Baltimore,MD,21202,US
2199,137699,8876 Goldenwood Road,,Baltimore,MD,21237,US
2200,139576,2901 East Biddle Street,,Baltimore,MD,21213-3939,US
2201,137683,5225 York Road,,Baltimore,MD,21212,US
2202,138493,120 Penn Street,1St Floor,Baltimore,MD,21201,US
2203,137697,6401 York Road,3Rd Floor,Baltimore,MD,21212,US
2204,138027,1 North Main Street,,Bel Air,MD,21014,US
2205,139132,2217 St. Paul Street,,Baltimore,MD,21218,US
2206,137683,417 E. Fayette Street,Suite 1125,Baltimore,MD,21202,US
2207,138092,901 N. Broadway,,Baltimore,MD,21205,US
2208,139562,5303 Spectrum Drive,Suite I,Frederick,MD,21703,US
2209,139128,N/A,,Maryland Line,MD,,US
2210,137936,5300 Edmondson Avenue,,Baltimore,MD,21229,US
2211,137733,733 W. 40Th Street,Suite 10,Baltimore,MD,21211,US
2212,138236,8855 Annapolis Road,Suite 110,Lanham,MD,20706-2924,US
2213,137793,725 Fallsway,,Baltimore,MD,21202,US
2214,139580,6095 Marshalee Drive,,Elkridge,MD,21075,US
2215,137686,300 Metro Plaza,,Baltimore,MD,21215,US
2216,139453,Po Box 322,,Brooklandville,MD,21022-9998,US
2217,139427,2401 St. Paul Street,,Baltimore,MD,21202,US
