id,location_id,attention,address_1,address_2,city,state_province,postal_code,country
1,1,,4402 White Oak Avenue,,Baltimore,MD,21215,us
2,2,,5 North Main Street,,Bel Air,MD,21014,us
3,2,,5 N. Main Street,Suite 200,Bel Air,MD,21014,us
4,3,,55 N. Court Street,Suite 100,Westminster,MD,21157,us
5,4,,2600 Lord Baltimore Drive,,Baltimore,MD,21244,us
6,5,,Po Box 808,,Elkton,MD,21922,us
7,6,,Inc.,1200 W. Baltimore Street,Baltimore,MD,21223,us
8,6,,1200 W. Baltimore Street,,Baltimore,MD,21223,us
9,7,,105 West Chesapeake Avenue,,Towson,MD,21204,us
10,8,,707 St. Paul Street,,Baltimore,MD,21202,us
11,9,,123 W. 29Th Street,2Nd Floor,Baltimore,MD,21218,us
12,9,,123 W 29Th Street,2Nd Floor,Baltimore,MD,21218,us
13,10,,417 E. Fayette Street,Suite 1125,Baltimore,MD,21202,us
14,11,,2700 N. Charles Street,Suite 202,Baltimore,MD,21218,us
15,12,,2707 Sethlow Road,,Baltimore,MD,21225,us
16,10,,417 E. Fayette Street,Suite 923,Baltimore,MD,21202,us
17,13,,2803 Dukeland Street,,Baltimore,MD,21216,us
18,14,,621 North Eden Street,,Baltimore,MD,21205,us
19,15,,1400 Orleans Street,(Dunbar High School),Baltimore,MD,21231,us
20,16,,1225 W Pratt Street,,Baltimore,MD,21223,us
21,17,,900 E. Madison Street,,Baltimore,MD,21202,us
22,18,,5225 York Road,,Baltimore,MD,21212,us
23,19,,2630 Harford Road,,Baltimore,MD,21218,us
24,20,,3314 Ayrdale Avenue,,Baltimore,MD,21216,us
25,21,,3939 Reisterstown Road,,Baltimore,MD,21215,us
26,22,,1221 West Pratt Street,,Baltimore,MD,21223,us
27,23,,3411 Bank Street,,Baltimore,MD,21224,us
28,24,,606 Cherry Hill Road,,Baltimore,MD,21225,us
29,25,,1133 Pennsylvania Avenue,,Baltimore,MD,21217,us
30,26,,5999 Harpers Farm Road,Suite 200 E,Columbia,MD,21044,us
31,27,,201 West Preston Street,,Baltimore,MD,21201-2399,us
32,28,,113 Towsontown Boulevard,Suite A,Towson,MD,21286,us
33,29,,4451 Parliament Place-Z,Metro Business Center,Lanham,MD,20706,us
34,30,,5 Public Square,"Suite 511, Professional Arts Bldg.",Hagerstown,MD,21740,us
35,31,,"Region Ii, Southern Maryland","2001-A Commerce Park Drive, Suite 2",Annapolis,MD,21401-2913,us
36,32,,1010 Park Avenue,Suite 110,Baltimore,MD,21201,us
37,33,,"Region Iv, Eastern Shore","917 Mt. Hermon Road, Suite 4",Salisbury,MD,21804,us
38,34,,1000 Hilltop Circle,"Academic Iv-A Wing, Rm. 107",Catonsville,MD,21250,us
39,35,,200 W. Baltimore Street,,Baltimore,MD,21201,us
40,36,,Physically Handicapped,415 Park Avenue,Baltimore,MD,21201,us
41,35,,200 W. Baltimore Street,10Th Floor,Baltimore,MD,21201,us
42,37,,3 Pershing Street,,Cumberland,MD,21502,us
43,38,,Arundel County,"100 Community Place,  Room 1.534",Crownsville,MD,21032,us
44,11,,City,2700 N. Charles Street Suite 203,Baltimore,MD,21218,us
45,39,,409 Washington Avenue,Suite Ll8,Towson,MD,21204,us
46,40,,P.O. Box 1709,,Leonardtown,MD,20650-9999,us
47,41,,1004 Littlestown Pike,,Westminster,MD,21157,us
48,42,,413 W. Bel Air Avenue,,Aberdeen,MD,21001,us
49,43,,301 Bay Street,Suite 305,Easton,MD,21601,us
50,44,,5303 Spectrum Drive,Suite G,Frederick,MD,21703,us
51,45,,41 Highview Drive,,Oakland,MD,21550,us
52,46,,3300 North Ridge Road,Suite 190,Ellicott City,MD,21043,us
53,47,,"201 Baptist Street, Suite 32","Multi-Service Bldg., 2Nd Floor",Salisbury,MD,21801,us
54,48,,51 Monroe Place,Suite 200,Rockville,MD,20850,us
55,49,,807 Brightseat Road,,Landover,MD,20785,us
56,50,,"6 West Washington Street, Suite 311",,Hagerstown,MD,21740,us
57,51,,2301 Argonne Drive,,Baltimore,MD,21218-1696,us
58,52,,6211 Harford Road,,Baltimore,MD,21214,us
59,53,,3723 Old Court Road,Suite 205,Pikesville,MD,21208,us
60,54,,6401 York Road,,Baltimore,MD,21212,us
61,54,,6401 York Road,,Baltimore,MD,21212,us
62,55,,745 West Fayette St.,,Baltimore,MD,21201-1111,us
63,56,,St. Joseph Home Care,"8003 Corporate Drive, Suite G",Baltimore,MD,21236,us
64,57,,501 S. Union Avenue,,Havre De Grace,MD,21078,us
65,58,,500 Upper Chesapeake Drive,,Bel Air,MD,21014,us
66,59,,2714 Hudson Street,,Baltimore,MD,21224,us
67,60,,P.O. Box 1475,,Baltimore,MD,21203,us
68,61,,Baltimore Gas & Electric Co.,39 W. Lexington Street,Baltimore,MD,21201,us
69,62,,4213 Loch Raven Blvd.,,Baltimore,MD,21218-1409,us
70,63,,Anne Arundel County,17 Cypress Creek Road,Severna Park,MD,21146,us
71,64,,515 South Haven Street,,Baltimore,MD,21224-4220,us
72,65,,255 Clifton Boulevard,Suite 312,Westminster,MD,21157,us
73,66,,45 North Main Street,Suite D,Bel Air,MD,1421028,us
74,67,,9200 Old Annapolis Road,Suite 205,Columbia,MD,21045,us
75,68,,2500 West Lombard Street,,Baltimore,MD,21223,us
76,69,,501 Hampton Lane,,Towson,MD,21286,us
77,70,,5807 Harford Rd.,,Baltimore,MD,21214-1895,us
78,71,,115 Stoner Avenue,,Westminster,MD,21157-5443,us
79,72,,218 North Charles Street,Suite 301,Baltimore,MD,21218,us
80,73,,1 Dc Village Lane Sw,,Washington,DC,20032,us
81,74,,330 N. Howard Street,,Baltimore,MD,21201,us
82,75,,929 West Street,Suite 305,Annapolis,MD,21401,us
83,74,,330 North Howard Street,,Baltimore,MD,21201,us
84,76,,Baltimore Co. Clinic (East),1714 Joan Avenue,Towson,MD,21234,us
85,77,,3975 St. Charles Parkway,,Waldorf,MD,20602,us
86,78,,8579 Commerce Drive,Suite 102,Easton,MD,21601,us
87,79,,1560 Opposumtown Pike,Suite 18,Frederick,MD,21702,us
88,80,,9129 Reisterstown Road,,Owings Mills,MD,21117,us
89,81,,Court Plaza Shopping Center,"1506 S. Salisbury Boulevard, Suite 4",Salisbury,MD,21801,us
90,82,,1501 Mcculloh Street,New  Metropolitan Church,Baltimore,MD,21217,us
91,83,,13-19 South Fulton Avenue,,Baltimore,MD,21223,us
92,84,,3300 Gaither Road,,Baltimore,MD,21244,us
93,85,,301 Stockholm Street,,Baltimore,MD,21230,us
94,86,,210 Guilford Avenue,3Rd Floor,Baltimore,MD,21202,us
95,86,,"Nursing, Adult And Community Health","210 Guilford Avenue, 3Rd Floor",Baltimore,MD,21202,us
96,87,,3501 Brehms Lane,,Baltimore,MD,21213,us
97,86,,Comprehensive School Health Services,210 Guilford Avenue 2Nd Floor,Baltimore,MD,21202,us
98,88,,"Druid Health District, 1St Floor",1515 West North Avenue,Baltimore,MD,21217,us
99,89,,Eastern Health District,620 N. Caroline Street,Baltimore,MD,21205,us
100,86,,Environmental Health Division,"210 Guilford Avenue, 2Nd Floor",Baltimore,MD,21202-3418,us
101,86,,"210 Guilford Avenue, 3Rd Floor",,Baltimore,MD,21202,us
102,86,,210 Guilford Avenue,,Baltimore,MD,21202,us
103,86,,Maternal & Child Health,"210 Guilford Avenue, 2Nd Floor",Baltimore,MD,21202,us
104,89,,Maternal & Infant Nursing Program,620 North Caroline Street,Baltimore,MD,21205,us
105,86,,210 Guilford Avenue,3Rd Floor,Baltimore,MD,21202,us
106,90,,The Healthy Home Division,312 N. Charles St. 2Nd Floor,Baltimore,MD,21201,us
107,91,,2521 N. Charles Street,,Baltimore,MD,21218,us
108,92,,2101 Garrison Blvd.,,Baltimore,MD,21216,us
109,93,,201 E. Baltimore Street,Suite 950,Baltimore,MD,21202,us
110,94,,112 N. Monroe Street,,Baltimore,MD,21223,us
111,95,,5610 Harford Road,,Baltimore,MD,21214,us
112,96,,P.O. Box 831,,Hampstead,MD,21074,us
113,97,,The Episcopal Church Of Christ The King,1930 Brookdale Road,Woodlawn,MD,21244,us
114,98,,Po Box 322,,Brooklandville,MD,21022-9998,us
115,99,,40 W. Chase Street,,Baltimore,MD,21201,us
116,23,,3411 Bank Street,,Baltimore,MD,21224,us
117,100,,25 N. Caroline Street,,Baltimore,MD,21231,us
118,101,,7701 Wise Avenue,Suite 206,Baltimore,MD,21222-3228,us
119,102,,9201 Philadelphia Road,,Rosedale,MD,21237,us
120,103,,4501 Wharf Point Court,,Belcamp,MD,21017,us
121,104,,234 S. Broadway,,Baltimore,MD,21231,us
122,105,,401 Light Street,,Baltimore,MD,21202,us
123,106,,2410 Pennsylvania Avenue,Suite 200,Baltimore,MD,21217,us
124,107,,911 Mace Avenue,,Essex,MD,21221,us
125,108,,412 Malcolm Drive,Suite 200,Westminster,MD,21157,us
126,109,,7130 Minstrel Way,Suite 212,Columbia,MD,21045,us
127,110,,7130 Minstrel Way,Suite 212,Columbia,MD,21045,us
128,111,,28  E. Ostend Street,,Baltimore,MD,21230,us
129,112,,13815 Northgate Lane,,Wheaton,MD,20906,us
130,113,,"And Consultation, Inc.","733 W. 40Th Street, Suite 10",Baltimore,MD,21211,us
131,114,,700 E. Joppa Road,,Towson,MD,21286,us
132,114,,Counseling Team,700 E. Joppa Road,Towson,MD,21286,us
133,115,,9835 Greenside Drive,,Cockeysville,MD,21030,us
134,116,,7701 Dunmanway,,Dundalk,MD,21222,us
135,117,,1111 Halstead Road,,Parkville,MD,21234,us
136,118,,2301 Alma Road,,Halethorpe,MD,21227,us
137,119,,1498 Homberg Avenue,,Essex,MD,21221,us
138,120,,3651 Rolling Road,,Baltimore,MD,21244,us
139,121,,8876 Goldenwood Road,,Baltimore,MD,21237,us
140,122,,7119 Croydon Road,,Baltimore,MD,21207,us
141,123,,7215 York Road,,Baltimore,MD,21212,us
142,124,,2907 Dunleer Road,,Baltimore,MD,21222,us
143,125,,1200 N. Collington Avenue,,Baltimore,MD,21213,us
144,126,,5010 Bowleys Lane,,Baltimore,MD,21206,us
145,127,,1211 N. Chester Street,,Baltimore,MD,21213,us
146,128,,1631 E. Federal Street,,Baltimore,MD,21213,us
147,129,,1234 Washington Road,,Westminster,MD,21157,us
148,130,,"500 C Street, Sw",,Washington,DC,20472,us
149,131,,Fallon Federal Building,31 Hopkins Plaza,Baltimore,MD,21201,us
150,132,,4 S. Frederick Street,Suite 100,Baltimore,MD,21202,us
151,133,,10025 Governor Warfield Parkway,Suite 102,Columbia,MD,21044,us
152,134,,2660 Yorkway,,Baltimore,MD,21222-4432,us
153,135,,P.O. Box 26145,,Baltimore,MD,21210,us
154,136,,2641 Maryland Avenue,,Baltimore,MD,21218,us
155,137,,8800 Jericho City Drive,,Landover,MD,20785,us
156,138,,"1933 Montana Avenue, Ne",,Washington,DC,20002,us
157,139,,11002 Viers Mills Road,,Wheaton,MD,20902,us
158,140,,111 Park Avenue,,Baltimore,MD,21201,us
159,141,,9100 Franklin Square Drive,Room 204,Rosedale,MD,21237,us
160,142,,524 N. Charles Street,,Baltimore,MD,21201,us
161,143,,"2901 14Th Street, Nw",,Washington,DC,20009,us
162,144,,120 South Central Ave.,,Baltimore,MD,3121202,us
163,145,,5300 Westview Drive,Suite 408,Frederick,MD,21703,us
164,146,,994 National Highway,,La Vale,MD,21502,us
165,147,,9375 Chesapeake Street,Suite 103,La Plata,MD,20646,us
166,148,,8503 Lasalle Road,,Towson,MD,21286-3018,us
167,149,,1738 Elton Road,Suite 205,Silver Spring,MD,20903,us
168,150,,132 Holiday Court,Suite 211,Annapolis,MD,21401-7054,us
169,151,,14 S. Broadway,,Baltimore,MD,21231,us
170,152,,175 W. Ostend Street,Suite100,Baltimore,MD,21230,us
171,153,,2121 W. Baltimore Street,,Baltimore,MD,21223,us
172,154,,3 S. Frederick Street,Suite 801,Baltimore,MD,21202,us
173,155,,P.O. Box 390,,Manchester,MD,21102-0390,us
174,156,,400 Cathedral Street,,Baltimore,MD,21201-4484,us
175,157,,841 E. Chase Street,,Baltimore,MD,21202,us
176,158,,204 E. 25Th Street,,Baltimore,MD,21218,us
177,159,,1104-1106 West 36Th Street,,Baltimore,MD,21211,us
178,160,,904 Washington Blvd.,,Baltimore,MD,21230,us
179,161,,912 Washington Road,,Westminster,MD,21157,us
180,162,,4119 E. Lombard Street,,Baltimore,MD,21224,us
181,163,,9601 Pulaski Park Drive,Suite 416,Middle River,MD,21220,us
182,164,,2205 West North Ave,,Baltimore,MD,21216,us
183,165,,1302 Pennsylvania Avenue,,Hagerstown,MD,21742,us
184,166,,13114 Pennsylvania Avenue,Room # 210,Hagerstown,MD,21742,us
185,167,,5980 Cullen Drive,,Sabillasville,MD,21780,us
186,165,,Healthy Families Washington County,1302 Pennsylvania Avenue,Hagerstown,MD,21742,us
187,168,,1302 Pennsylvania Avenue,,Hagerstown,MD,21742,us
188,165,,1302 Pennsylvania Avenue,,Hagerstown,MD,21742,us
189,169,,301 Hospital Drive,,Glen Burnie,MD,21061,us
190,170,,321 E. 25Th St.,,Baltimore,MD,21218,us
191,171,,1600 Rutland Avenue,,Baltimore,MD,21213,us
192,172,,Messiah Lutheran Church,1025 South Potomac Street,Baltimore,MD,21223,us
193,173,,7601 Osler Drive,,Towson,MD,21204,us
194,173,,Community Health Services,7601 Osler Drive,Towson,MD,21204,us
195,173,,7601 Osler Drive,,Towson,MD,21204,us
196,173,,Psychiatric Services,7601 Olser Drive,Towson,MD,21204,us
197,174,,2100 N. Monroe Street,,Baltimore,MD,21217,us
198,175,,900 Caton Avenue,,Baltimore,MD,21229,us
199,176,,524 Maryland Avenue,,Essex,MD,21221,us
200,177,,1900 North Broadway,Suite 100,Baltimore,MD,21213,us
201,178,,3215 West Belvedere Avenue,,Baltimore,MD,21215,us
202,179,,3215 West Belvedere Avenue,,Baltimore,MD,21215,us
203,180,,3011 Montebello Terrace,,Baltimore,MD,21214,us
204,181,,405 East Joppa Road,Suite 301,Towson,MD,21286-5478,us
205,182,,8717 Mission Road,,Jessup,MD,20794,us
206,183,,2114 N. Charles Street,Suite 100,Baltimore,MD,21218,us
207,184,,3449 Falls Road,Mt. Vernon Church,Baltimore,MD,21211,us
208,185,,3449 Falls Road,,Baltimore,MD,21211,us
209,186,,217 E. Redwood Street,23Rd Floor,Baltimore,MD,21202,us
210,187,,220 S. Main Street,,Bel Air,MD,21014,us
211,188,,601 N. Schroeder Street,,Baltimore,MD,21217,us
212,189,,Po Box 56,,Glyndon,MD,21071,us
213,190,,1101 North Point Blvd.,Suite 124,Dundalk,MD,21222,us
214,191,,6525 N. Charles Street,,Towson,MD,21204,us
215,192,,9000 Franklin Square Drive,,Baltimore,MD,21237,us
216,141,,9100 Franklin Square Drive,,Baltimore,MD,21237,us
217,193,,"3800 Reservoir Road, Nw",,Washington,DC,20007,us
218,194,,5601 Loch Raven Boulevard,,Baltimore,MD,21239-2995,us
219,195,,3001 South Hanover St.,,Baltimore,MD,21225,us
220,196,,Harbor Hospital Life Resource Center,2990 S. Hanover Street,Baltimore,MD,21225,us
221,196,,2900 S. Hanover Street,,Baltimore,MD,21225,us
222,197,,6410 Rockledge Drive,,Bethesda,MD,20817,us
223,198,,201 E. University Parkway,,Baltimore,MD,21218,us
224,199,,"110 Irving Street, Nw",,"Washington, D.C.",DC,20010,us
225,200,,7311 Harford Road,,Baltimore,MD,21234,us
226,201,,1001 Cathedral Street,,Baltimore,MD,21201,us
227,202,,8507 Liberty Road,,Randallstown,MD,21133,us
228,203,,300 Talbot Street,,Easton,MD,21601,us
229,204,,5500 Knoll North Drive,Suite 370,Columbia,MD,21045,us
230,205,,Sojourner Douglass College,"200 N. Central Ave., 1St Fl, #114",Baltimore,MD,21202,us
231,206,,1505 Eutaw Place,,Baltimore,MD,21217,us
232,207,,3700 Eastern Avenue,,Baltimore,MD,21224,us
233,208,,301 West Preston Street,Suite 1007,Baltimore,MD,21201-2374,us
234,208,,301 West Preston Street,Suite 1007,Baltimore,MD,21201-2374,us
235,208,,301 West Preston Street,,Baltimore,MD,21201,us
236,209,,175 Post Office Road,,Waldorf,MD,20602,us
237,208,,"301 West Preston Street,",Suite 1007,Baltimore,MD,21201,us
238,210,,401 Hungerford Drive,4Th Floor,Rockville,MD,20850,us
239,211,,"Ccbc, Essex Campus",7201 Rossville Blvd.,Essex,MD,21237,us
240,212,,7201 Rossville Boulevard,,Essex,MD,21237,us
241,213,,Community College Of Baltimore County,800 S. Rolling Road,Catonsville,MD,21228-5381,us
242,214,,Headquarters,5 Harry S. Truman Parkway,Annapolis,MD,21401-7084,us
243,215,,Room Rcf-302,10901 Little Patuxent Parkway,Columbia,MD,21044,us
244,216,,Off. Of Basic Skills & Foreign Born,10650 Hickory Ridge Road,Columbia,MD,21044,us
245,215,,Howard Community College,10901 Little Patuxent Parkway,Columbia,MD,21044,us
246,217,,701 S. Charles St.,,Baltimore,MD,21230,us
247,218,,5828 York Road,,Baltimore,MD,21212,us
248,219,,5510 Nathan Shock Drive,,Baltimore,MD,21224,us
249,220,,1000 East Eager Street,3Rd Floor,Baltimore,MD,21202,us
250,221,,5200 Eastern Avenue,"D-Building,  West Tower, 4Th Fl.",Baltimore,MD,21224,us
251,222,,Johns Hopkins Outpatient Program,"Suite 5064, 601 N. Caroline St.",Baltimore,MD,21287,us
252,223,,626 Towne Center Dr.,Suite 301,Joppatowne,MD,21085,us
253,224,,"21 West Road, Suite 50",,Towson,MD,21204,us
254,7,,105 W. Chesapeake Avenue,Suite 301,Towson,MD,21204,us
255,225,,P.O. Box 489,,Westminster,MD,21158,us
256,225,,P.O. Box 489,,Westminster,MD,21158,us
257,225,,P.O. Box 489,,Westminster,MD,21158,us
258,226,,P.O. Box 489,,Westminster,MD,21158,us
259,227,,8203 Harford Road,,Baltimore,MD,21234-5888,us
260,228,,7910 Belair Road,,Baltimore,MD,21236,us
261,229,,1701 Allen Court,,Bel Air,MD,21015,us
262,230,,525 N. Caroline Street,,Baltimore,MD,21205,us
263,231,,6206 Pilgrim Road,,Baltimore,MD,21214,us
264,232,,40 Church Lane,,Cockeysville,MD,21030,us
265,233,,650 W. Baltimore Street,,Baltimore,MD,21201,us
266,234,,14716 Mcmullen Highway,,Cumberland,MD,21502,us
267,235,,"9436 Early Drive, Suite 1",,Hagerstown,MD,21740,us
268,236,,1708 Whitehead Road,Suite 100,Baltimore,MD,21207,us
269,237,,9104 Red Branch Road,,Columbia,MD,21045,us
270,238,,9221 Rumsey Road,Suites 3 & 4,Columbia,MD,21045,us
271,239,,9020 Red Branch Road,,Columbia,MD,21045,us
272,240,,1717 Gwynn Oak Avenue,,Baltimore,MD,21207,us
273,241,,1404 South Charles Street,,Baltimore,MD,21230,us
274,242,,5665 Purdue Avenue,,Baltimore,MD,21239,us
275,243,,P.O. Box 31419,,Baltimore,MD,21216-6119,us
276,244,,2523 Maryland Avenue,,Baltimore,MD,21218,us
277,245,,10400 Little Patuxent Pkwy.,Suite 270,Columbia,MD,21044,us
278,246,,3319 West Belvedere Avenue,,Baltimore,MD,21215,us
279,247,,Loch Raven Elementary School,1801 Glen Keith Boulevard,Towson,MD,21234,us
280,135,,P.O. Box 5637,,Baltimore,MD,21210-0610,us
281,248,,"1606 New York Avenue,",Suite 400,Knoxville,MD,21758,us
282,249,,7303 Swan Point Way,,Columbia,MD,21045,us
283,250,,"1111 14Th Street, Nw",Suite 350,Washington,DC,20005,us
284,251,,1142 N. Fulton Avenue,,Baltimore,MD,21217,us
285,252,,P.O. Box 425,,Mount Ranier,MD,20712,us
286,253,,1401 Hollins Street,,Baltimore,MD,21223,us
287,254,,512 Orchard Street,,Baltimore,MD,21201,us
288,255,,3304 Woodside Avenue,,Baltimore,MD,21234,us
289,256,,P.O. Box 4435,,Baltimore,MD,21223-0435,us
290,257,,12301 Academy Way,,Rockville,MD,20852,us
291,258,,9541 Pamploma Road,,Columbia,MD,21045-3920,us
292,259,,1200 E. Fayette Street,,Baltimore,MD,21202,us
293,260,,2110 Mura Street,,Baltimore,MD,21213,us
294,261,,6805 York Road,,Baltimore,MD,21212,us
295,262,,8501 Lasalle Road,Suite 106,Towson,MD,21286,us
296,263,,"9 Schilling Road,",Suite 210,Hunt Valley,MD,21031,us
297,264,,4308 Harford Road,,Baltimore,MD,21214-1895,us
298,265,,4536 Harford Road,,Baltimore,MD,21214,us
299,266,,Confidential,,Baltimore,MD,21236,us
300,267,,9509 Sylvan Dell,,Columbia,MD,21045-5120,us
301,268,,8 West 26Th Street,,Baltimore,MD,21218,us
302,269,,4805 Mt. Hope Drive,,Baltimore,MD,21215,us
303,270,,9201 Basil Court,Suite 115,Largo,MD,20774,us
304,271,,1001 Prince George's Blvd.,Suite 750,Upper Marlboro,MD,20774,us
305,272,,2416 Lampost Lane,,Baltimore,MD,21234,us
306,273,,Center Of Balto. & Central Md.,P.O. Box 22575,Baltimore,MD,21203,us
307,274,,2901 East Biddle Street,,Baltimore,MD,21213-3939,us
308,274,,2091 East Biddle Street,,Baltimore,MD,21213-3939,us
309,274,,2901 East Biddle Street,,Baltimore,MD,21213-3939,us
310,274,,2901 East Biddle Street,,Baltimore,MD,21213-3939,us
311,274,,2901 East Biddle Street,,Baltimore,MD,21213-3939,us
312,274,,2901 East Biddle Street,,Baltimore,MD,21213-3939,us
313,274,,2901 East Biddle Street,,Baltimore,MD,21213-3939,us
314,275,,2811 Dillon Street,,Baltimore,MD,21224-4829,us
315,276,,4400 Parkside Drive,,Baltimore,MD,21206,us
316,277,,5710 Executive Drive,Suite 105,Halethorpe,MD,21227,us
317,278,,2441 W. Baltimore Street,,Baltimore,MD,21223,us
318,279,,630 W. Fayette St.,,Baltimore,MD,21201,us
319,280,,4321 Old York Road,,Baltimore,MS,21212-4727,us
320,281,,1 Harry S Truman Parkway,Suite 103,Annapolis,MD,21401,us
321,282,,2108 N. Charles St.,,Baltimore,MD,21218,us
322,283,,805 Brightseat Road,Room 239,Landover,MD,20785,us
323,284,,401 Bosley Avenue,,Towson,MD,21204,us
324,11,,2700 N Charles Street,Suite 200,Baltimore,MD,21218,us
325,11,,"2700 N. Charles Street,",Suite 200,Baltimore,MD,21218,us
326,285,,22 Light Street,,Baltimore,MD,21202,us
327,286,,2013 West Pratt Street,,Baltimore,MD,21223,us
328,287,,211 Greenwood Avenue,,Westminster,MD,21157,us
329,288,,415 Main Street,,Laurel,MD,20707,us
330,289,,1928 Pennsylvania Avenue,,Baltimore,MD,21217,us
331,290,,720 Light Street,,Baltimore,MD,21230,us
332,291,,802 S. Caroline Street,,Baltimore,MD,21231,us
333,292,,12728 Manor Road,Mt. Zion A.M.E. Church Hall,Glen Arm,MD,21057,us
334,293,,12401 Lyme Kiln Road,,Fulton,MD,20759,us
335,294,,8455 Murphy Road,,Laurel,MD,20723,us
336,295,,611 Central Avenue,,Towson,MD,21204,us
337,295,,611 Central Avenue,,Towson,MD,21204,us
338,295,,611 Central Avenue,,Towson,MD,21204,us
339,295,,611 Central Avenue,,Towson,MD,21204,us
340,296,,5911 York Road,Suite 100,Baltimore,MD,21212,us
341,297,,Columbia,8890 Mcgraw Road,Columbia,MD,21045,us
342,298,,Marie Mount Hall Room 2415,University Of Maryland Campus,College Park,MD,20742-7515,us
343,299,,2147C Woodbox Lane,,Baltimore,MD,21209,us
344,300,,Adult Day Care,1000 Cathedral Street,Baltimore,MD,21201,us
345,301,,"Ombudsman Program, Suite 300",10 North Calvert St.,Baltimore,MD,21202,us
346,301,,Public Guardianship,"10 N. Calvert St., Suite 300",Baltimore,MD,21202,us
347,301,,Senior Care Program,"10 N. Calvert Street, Suite 300",Baltimore,MD,21202,us
348,301,,"& Retirement Education, Care","10 N. Calvert Street, Suite 300",Baltimore,MD,21202-4004,us
349,301,,10 North Calvert Street,"3Rd Floor, Suite 300",Baltimore,MD,21202,us
350,301,,10 North Calvert St,Suite 300,Baltimore,MD,21202,us
351,300,,1000 Cathedral Street,,Baltimore,MD,21201,us
352,302,,301 N. Gay Street,,Baltimore,MD,21202,us
353,302,,301 N. Gay Street,,Baltimore,MD,21202,us
354,302,,729 Graves Street,,Baltimore,MD,21202,us
355,302,,301 North Gay Street,,Baltimore,MD,21202,us
356,303,,P.O. Box 6076,,Baltimore,MD,21231,us
357,304,,"2-B Crain Highway, Sw",,Glen Burnie,MD,21061,us
358,305,,319 South Main Street,,Bel Air,MD,21014,us
359,305,,319 South Main Street,,Bel Air,MD,21014,us
360,305,,319 South Main Street,,Bel Air,MD,21014,us
361,305,,319 South Main Street,,Bel Air,MD,21014,us
362,187,,220 South Main Street,,Bel Air,MD,21014,us
363,306,,145 N. Hickory Avenue,,Bel Air,MD,21014,us
364,307,,1311 Abingdon Road,,Abingdon,MD,21009,us
365,305,,319 South Main Street,,Bel Air,MD,21014,us
366,305,,319 South Main Street,,Bel Air,MD,21014,us
367,308,,1407 Bolton Street,,Baltimore,MD,21217,us
368,309,,3 Milford Mill Road,,Pikesville,MD,21208,us
369,309,,3 Milford Mill Road,,Pikesville,MD,21208,us
370,310,,209 Milford Street,Unit C,Salisbury,MD,21804,us
371,311,,1850 York Road,Suite D,Timonium,MD,21093,us
372,30,,"5 Public Square, Suite 307",,Hagerstown,MD,21740,us
373,312,,108 Byte Drive,Suite 103,Frederick,MD,21702,us
374,313,,1017 Edmondson Avenue,,Baltimore,MD,21223,us
375,314,,P.O. Box 29058,,Washington,DC,20017,us
376,315,,P.O. Box 613,,Hughesville,MD,20637,us
377,316,,"924 G Street, Nw",,Washington,DC,20001,us
378,317,,4848 Cordell Avenue,,Bethesda,MD,20814,us
379,318,,2699 Linden Lane,,Silver Spring,MD,20910,us
380,316,,Catholic Charities,"924 G Street, Nw",Washington,DC,20001,us
381,319,,440 Maine Street,,Prince Frederick,MD,20678,us
382,320,,12247 Georgia Avenue,,Silver Spring,MD,20902,us
383,321,,6706 Marlboro Pike,,Forestville,MD,20747,us
384,322,,P.O. Box 487,,La Plata,MD,20646,us
385,323,,251 North Stonestreet Avenue,,Rockville,MD,20850,us
386,324,,1010 Grandin Avenue,,Rockville,MD,20854,us
387,325,,680 Rhode Island Ave. Ne,2Nd Floor,Washington,DC,20002,us
388,326,,5170 Lawrence Place,,Hyattsville,MD,20781,us
389,327,,Routes 5 And 231,Rear Of Building,Hughesville,MD,20637,us
390,328,,415 East Diamond Avenue,Suite 203,Gaithersburg,MD,20877,us
391,329,,P.O. Box 11450,,Washington,DC,20010,us
392,330,,Langley Park,1015 University Boulevard East,Silver Spring,MD,20903,us
393,331,,,101 W. 24Th Street,Baltimore,MD,21218-5024,us
394,10,,417 E Fayette Street,Suite 468,Baltimore,MD,21202,us
395,332,,"Mondawmin Mall, 3Rd Floor",2401 Liberty Heights Avenue,Baltimore,MD,21215,us
396,333,,1510 W. Lafayette Avenue,,Baltimore,MD,21217,us
397,334,,100 W. 23Rd. Street,,Baltimore,MD,21218,us
398,331,,"101 W. 24Th Street, 3Rd Floor",,Baltimore,MD,21218,us
399,331,,101 W. 24Th Street,,Baltimore,MD,21218-5024,us
400,335,,1037 Haven Road,,Hagerstown,MD,21742,us
401,336,,636 W. Lexington St.,,Baltimore,MD,21201,us
402,337,,8219 Town Center Drive,,Baltimore,MD,21236-0025,us
403,338,,2300 North Charles Street,4Th Floor,Baltimore,MD,21218,us
404,339,,2700 Spellman Road,,Baltimore,MD,21225,us
405,340,,360 S. Dukeland St.,,Baltimore,MD,21223,us
406,341,,5000 East Joppa Road,,Perry Hall,MD,21128,us
407,342,,12041 Bournefield Way.,Suite B,Silver Spring,MD,20904-1500,us
408,343,,7520 Surratts Road,,Clinton,MD,20735,us
409,344,,2101 Fairland Road,,Silver Spring,MD,20904,us
410,345,,Rehabilitation Center,56 West Frederick Street,Walkersville,MD,21793,us
411,346,,1801 Research Boulevard,Suite 300,Rockville,MD,20850-3350,us
412,347,,9701 Medical Center Drive,,Rockville,MD,20850,us
413,348,,14901 Broschart Road,,Rockville,MD,20850,us
414,349,,9901 Medical Center Drive,,Rockville,MD,20850,us
415,347,,9701 Medical Center Drive,,Rockville,MD,20850,us
416,350,,12325 New Hampshire Avenue,,Silver Spring,MD,20904,us
417,351,,7600 Carroll Avenue,,Takoma Park,MD,20912,us
418,352,,10 S. Howard Street,6Th Floor,Baltimore,MD,21201,us
419,353,,312 Marshall Avenue,Suite 104,Laurel,MD,20707-4824,us
420,354,,5570 Sterrett Place,Suite 205,Columbia,MD,21044,us
421,355,,C/O John Wesley Church,3202 W. North Avenue,Baltimore,MD,21216,us
422,356,,511 South Crain Highway,,Glen Burnie,MD,21061,us
423,54,,Office Of Community Conservation,"6401 York Road, 2Nd Floor",Baltimore,MD,21212,us
424,357,,7648 Belair Road,,Baltimore,MD,21236,us
425,358,,7835 Eastern Avenue,Suite 302,Baltimore,MD,21224,us
426,359,,Po Box 463,,Barnesville,MD,20838,us
427,360,,Central District,C/O 242 West 29Th Street,Baltimore,MD,21211-2908,us
428,361,,Eastern District,242 W. 29Th St.,Baltimore,MD,21211,us
429,362,,District,1900 Argonne Drive,Baltimore,MD,21218,us
430,363,,2201 W. Coldspring Lane,,Baltimore,MD,21209,us
431,364,,242 W. 29Th Street,,Baltimore,MD,21211-2908,us
432,365,,242 W. 29Th Street,,Baltimore,MD,21211,us
433,366,,C/O 242 West 29Th Street,,Baltimore,MD,21211-2908,us
434,367,,1034 N. Mount St.,,Baltimore,MD,21217,us
435,368,,8304 Carlson Lane,,Baltimore,MD,21244,us
436,369,,2517 N. Charles Street,,Baltimore,MD,21218,us
437,370,,4513 Philadelphia Road,,Aberdeen,MD,21001,us
438,370,,P.O. Box 610,,Aberdeen,MD,21001,us
439,371,,3009 Montebello Terrace,,Baltimore,MD,21214,us
440,372,,7008 Security Blvd.,Suite 200,Baltimore,MD,21244,us
441,373,,20 W. Montgomery Street,,Baltimore,MD,2123O,us
442,374,,2 W Aylesbury Road,,Timonium,MD,21093,us
443,375,,2490 Giles Road,,Baltimore,MD,21225,us
444,376,,821 N. Eutaw Street,Suite 101 And 201,Baltimore,MD,21201-4648,us
445,377,,9620 Bird River Road,,Baltimore,MD,21220-1707,us
446,378,,1821 N. Smallwood Street,,Baltimore,MD,21216-7512,us
447,379,,800 Ingleside Avenue,,Catonsville,MD,21228,us
448,380,,Eastpoint Office Park,"1107 North Point Blvd., Suite 205",Dundalk,MD,21224,us
449,381,,621 Stemmers Run Road,Suite E,Essex,MD,21221-3319,us
450,382,,3902 Annapolis Road,,Lansdowne,MD,21227,us
451,383,,500 W. Baltimore Street,,Baltimore,MD,21201,us
452,384,,Cultural Center,847 N. Howard Street,Baltimore,MD,21201,us
453,385,,108 East 20Th Street,,Baltimore,MD,21218,us
454,386,,2200 Kernan Drive,,Baltimore,MD,21207,us
455,387,,Po Box 1745,,Cumberland,MD,21501-1745,us
456,388,,791 Aqua Hart Road,2Nd Floor,Glen Burnie,MD,21061,us
457,95,,5610 Harford Road,,Baltimore,MD,21214,us
458,14,,621 N. Eden Street,,Baltimore,MD,21205,us
459,389,,Bon Secours Community Center,26 N. Fulton Avenue,Baltimore,MD,21223,us
460,332,,1200 Mondawmin Concourse,"Mondawmin Mall, Room 1128",Baltimore,MD,21215,us
461,390,,Garwyn Medical Center,2300 Garrison Blvd Ste 290,Baltimore,MD,21216,us
462,54,,6401 York Road,3Rd Floor,Baltimore,MD,21212,us
463,391,,P.O. Box 10,,Denton,MD,21629,us
464,392,,P.O. Box 845,,Westminster,MD,21158,us
465,393,,401 Bow Street,,Elkton,MD,21921,us
466,394,,P O Box 10,,Denton,MD,21629,us
467,395,,350 Montevue Lane,,Frederick,MD,21702,us
468,396,,1025 Memorial Drive,,Oakland,MD,21550,us
469,397,,"34 North Philadelphia Boulevard, 3Rd Floor",,Aberdeen,MD,21001,us
470,398,,7180 Columbia Gateway Drive,,Columbia,MD,21046,us
471,399,,11 Market Place,Suite 850,Baltimore,MD,21202,us
472,400,,601 High Street,,Chestertown,MD,21620,us
473,401,,801 North Salisbury Blvd,,Salisbury,MD,21801,us
474,402,,9314 Piscataway Road,,Clinton,MD,20735,us
475,403,,206 N. Commerce Street,,Centreville,MD,21617,us
476,404,,4545 Crain Highway,,White Plains,MD,20695,us
477,405,,126 Port Street,2Nd Floor,Easton,MD,21601,us
478,406,,4536 Edmondson Ave.,,Baltimore,MD,21229,us
479,407,,140 West Franklin Street,Suite 200,Hagerstown,MD,21740,us
480,408,,108 East Main Street,,Salisbury,MD,21801,us
481,408,,108 East Main Street,,Salisbury,MD,21801,us
482,409,,11299 Owings Mills Blvd.,Suite 204,Owings Mills,MD,21117,us
483,7,,105 Chesapeake Avenue,Suite 300,Towson,MD,21204,us
484,410,,7930 Eastern Blvd,,Baltimore,MD,21224,us
485,411,,11101 Mccormick Road,Suite 102,Baltimore,MD,21031,us
486,412,,"1734 Elton Road, Suite 103",,Silver Spring,MD,20903,us
487,413,,Chronic Pain Outreach Center,12251 Saint James Road,Potomac,MD,20854,us
488,414,,9534 Belair Road,,Baltimore,MD,21236,us
489,415,,P.O. Box 6303,,Rockville,MD,20849-6303,us
490,416,,106 W. Clay Street,,Baltimore,MD,21201,us
491,417,,6110 Executive Boulevard,Suite 1010,Rockville,MD,20852,us
492,418,,1532 North Smallwood Street,,Baltimore,MD,21217,us
493,419,,230 North Fulton Ave.,,Baltimore,MD,21223,us
494,420,,1201 Agora Drive,Suite 2D,Bel Air,MD,21014,us
495,421,,P.O. Box 3478,,Brooklyn Park,MD,21225,us
496,422,,757 Frederick Road,2Nd Floor,Catonsville,MD,21228-3317,us
497,423,,375 W. North Street,,Dover,DE,19904,us
498,424,,219 Marlboro Road,Suite 47,Easton,MD,21601,us
499,425,,408 Eastern Boulevard,,Baltimore,MD,21221,us
500,426,,10220 South Dolfield Road,Suite 105,Owings Mills,MD,21117,us
501,427,,7905B Harford Road,,Baltimore,MD,21234,us
502,428,,242 Tilghman Road,Suite 242,Salisbury,MD,21804,us
503,429,,2055 Limestone Road,"Limestone Bldg., Suite 212",Wilmington,DE,19808,us
504,430,,1925 Greenspring Drive,,Timonium,MD,21093,us
505,431,,P.O. Box 21059,,Catonsville,MD,21228-9905,us
506,432,,Concerns,2418 St. Paul Street,Baltimore,MD,21218-5518,us
507,433,,P.O. Box 659,,Charlotte Hall,MD,20622,us
508,434,,P.O. Box 2097,,Prince Frederick,MD,20678,us
509,435,,3300 Clifton Avenue,,Baltimore,MD,21216,us
510,436,,226 Washburn Avenue,,Baltimore,MD,21225-2099,us
511,437,,1900 Eagle Drive,,Baltimore,MD,21207,us
512,438,,200 North Wolfe Street,,Baltimore,MD,21287,us
513,438,,200 North Wolfe Street,,Baltimore,MD,21287,us
514,439,,7 Church Circle,Circuit County  For Aa County,Annapolis,MD,21401,us
515,440,,500 E. Lexington Street,,Baltimore,MD,21202-3560,us
516,441,,P.O. Box 943,,Annapolis,MD,21404,us
517,442,,"606 Cherry Hill Road, 2Nd Floor",,Baltimore,MD,21225,us
518,443,,29 W. Susquehanna Avenue,Suite 305,Towson,MD,21204,us
519,444,,Caroline/Kent/Talbot/Queen Anne's Counties,Po Box1620,Centreville,MD,21601,us
520,445,,Elkridge Branch Senior Center,6540 Washington Blvd.,Elkridge,MD,21075,us
521,446,,"3451 Courthouse Drive, 2Nd Floor",,Ellicott City,MD,21043,us
522,447,,"Legal Aid Bureau, Inc., Lower Shore Office",111 High Street,Salisbury,MD,21801,us
523,448,,6811 Kenilworth Avenue,Suite 500,Riverdale,MD,20737,us
524,449,,Midwestern Maryland Office,"22 South Market Street, Suite 11",Frederick,MD,21701,us
525,447,,111 High Street,,Salisbury,MD,21801,us
526,2,,5 North Main Street,Suite 200,Bel Air,MD,21014-2955,us
527,450,,51 Monroe Street,Suite 1200,Rockville,MD,20850,us
528,451,,St. Mary's/Calvert/Charles Counties,P.O. Box 249,Hughesville,MD,20637,us
529,452,,110 Greene Street,,Cumberland,MD,21502,us
530,453,,111 N. Calvert Street,Room 114,Baltimore,MD,21202,us
531,454,,P.O. Box 1483,,Baltimore,MD,21203-1483,us
532,455,,702 N. Tollgate Road,,Bel Air,MD,21014,us
533,456,,9411 Liberty Road,,Randallstown,MD,21133,us
534,457,,Arundel County,P.O. Box 763,Severna Park,MD,21146-0763,us
535,458,,"Balto. City And County, And Howard County",P.O. Box 28259,Baltimore,MD,21234-8259,us
536,460,,"2421 Laurence St., Ne",United Methodist Church,Washington,DC,20018,us
537,461,,And Washington Counties,Po Box 28259,Frederick,MD,21701,us
538,462,,Harford & Mary Del Tri-County-Ais,P.O. Box 561,Northeast,MD,21901-0561,us
539,463,,P.O. Box 28259,,Baltimore,MD,21234-8259,us
540,464,,1600 Corporate Landing Parkway,,Virginia Beach,VA,23454,us
541,465,,1401 E. Biddle St.,,Baltimore,MD,21213,us
542,466,,4423 Bucks Schoolhouse Road,,Baltimore,MD,21237,us
543,467,,Baltimore Area Council,701 Wyman Park Drive,Baltimore,MD,21211-2899,us
544,468,,435 E. 25Th Street,,Baltimore,MD,21218,us
545,469,,3909 Pennington Avenue,,Baltimore,MD,21226-1211,us
546,470,,323 East 25Th Street,,Baltimore,MD,21218-5303,us
547,471,,503 Hart Senate Office Building,,Washington,DC,20510,us
548,472,,509 Hart Senate Office Building,,Washington,DC,20510,us
549,114,,And Emergency Management,700 E. Joppa Road,Towson,MD,21286-5500,us
550,473,,P.O. Box 208,,Edgewater,MD,21037,us
551,474,,5650 Oakmont Avenue,,Bethesda,MD,20817,us
552,475,,9401 Georgetown Road,,Bethesda,MD,20814,us
553,476,,3501 Moylan Drive,,Bowie,MD,20715,us
554,477,,9800 Hastings Drive,,Silver Spring,MD,20901,us
555,478,,19236 Montgomery Village,,Montgomery Village,MD,20886,us
556,479,,1102 Forest Glen Road,,Silver Spring,MD,20901,us
557,480,,7425 Macarthur Boulevard,,Cabin John,MD,20818,us
558,481,,3001 East Drive,Druid Hill Park,Baltimore,MD,21217,us
559,465,,1401 E. Biddle Street,,Baltimore,MD,21213,us
560,482,,8311 Liberty Road,,Gwynn Oak,MD,21244,us
561,483,,"Downtown Partnership Of Baltimore, Inc.",217 North Charles Street,Baltimore,MD,21201,us
562,484,,4 East University Parkway,,Baltimore,MD,21218,us
563,116,,7701 Dunmanway,,Baltimore,MD,21222,us
564,485,,16 W. 25Th Street,,Baltimore,MD,21218,us
565,486,,3600 East-West Highway,Suite 202,Hyattsville,MD,20782,us
566,487,,2035 York Road,,Lutherville,MD,21093-4229,us
567,488,,Mt. Sinai Baptist Church,922 E. Preston Street,Baltimore,MD,21202,us
568,489,,3426 Bank Street,,Baltimore,MD,21224,us
569,51,,2301 Argonne Drive,Suite T-17,Baltimore,MD,21218,us
570,490,,408 Coles Circle,"Hci Holly Community, Inc.",Salisbury,MD,21804,us
571,491,,818 North Collington Avenue,,Baltimore,MD,21205,us
572,492,,"Maryland, Delaware, Washington, Dc, Inc.",10307 Haywood Drive,Silver Spring,MD,20902,us
573,493,,302 Willow Oak Drive,,Frederick,MD,21701,us
574,494,,106 Bloomsbury Avenue,3Rd Floor,Catonsville,MD,21228,us
575,495,,305 W. Chesapeake Avenue,Suite 115,Baltimore,MD,21297-1325,us
576,496,,10711 Red Run Blvd.,Suite 110,Owings Mills,MD,21117,us
577,338,,2300 N. Charles Street,2Nd Floor,Baltimore,MD,21218,us
578,497,,Eastern Family Resource Center,"9100 Franklin Square Drive, Rm317",Rosedale,MD,21237,us
579,498,,401 Washington Avenue Suite 300,Suite 300,Towson,MD,21204,us
580,53,,3723 Old Court Road,Suite 206,Pikesville,MD,21208,us
581,499,,Suite 101,10155 York Road,Cockeysville,MD,21030-2233,us
582,500,,6931 Arlington Road,,Bethesda,MD,20814,us
583,501,,516 Glenwood Avenue,,Baltimore,MD,21212,us
584,502,,6520 Freetown Road,,Columbia,MD,21044,us
585,503,,12026 Scaggsville Road,,Fulton,MD,20759,us
586,504,,1045 Taylor Avenue,Suite 104,Baltimore,MD,21286,us
587,505,,2130 Priest Bridge Drive,Suite 9,Crofton,MD,21114,us
588,506,,2214 Evergreen Street,,Baltimore,MD,21216,us
589,507,,P.O. Box 1915,,Ellicott City,MD,21041,us
590,508,,3356 Stuart Court,,Adamstown,MD,21710,us
591,509,,Po Box 700860,,Plymouth,MI,48170-0955,us
592,510,,Confidential Address,,Silver Spring,MD,20906,us
593,511,,1777 Reisterstown Road,"Suite 230, Commercenter East",Pikesville,MD,21208,us
594,512,,1320 Fenwick Lane,Suite 800,Silver Spring,MD,20901,us
595,513,,700 Hudson Avenue,,Takoma Park,MD,20912,us
596,514,,635 Maryland Avenue,,Rockville,MD,20850,us
597,515,,Confidential,,Hyattsville,MD,20781,us
598,516,,25 Marys Mount Road,,Harwood,MD,20776,us
599,512,,1320 Fenwick Lane,,Silver Spring,MD,20910,us
600,517,,11320 Schuylkill Road,,Rockville,MD,20852,us
601,512,,1320 Fenwick Lane,Suite 800,Silver Spring,MD,20904,us
602,518,,6355 Woodside Court,,Columbia,MD,21046,us
603,518,,6355 Woodside Court,,Columbia,MD,21046,us
604,519,,3501 East Federal Street,,Baltimore,MD,21213,us
605,520,,7800 Wise Avenue,,Dundalk,MD,21222,us
606,521,,5407 N. Charles Street,,Baltimore,MD,21210-2094,us
607,522,,3000 Parkside Drive,,Baltimore,MD,21214,us
608,523,,2405 Linden Avenue,,Baltimore,MD,21217-3944,us
609,524,,4920 Harford Road,,Baltimore,MD,21214,us
610,525,,13415 Connecticut Avenue,Suite 203,Silver Spring,MD,20906,us
611,526,,116 North Paca Street,,Baltimore,MD,21201,us
612,527,,7901 Annapolis Road,,Lanham,MD,20706-1334,us
613,528,,7801 York Road,Suite 203,Baltimore,MD,21204,us
614,529,,11113 West Baldwin Road,,New Market,MD,21774,us
615,530,,"Maryland Chapter, Central Md Office","11403 Cronhill Drive, Suite  E",Owings Mills,MD,21117,us
616,531,,Rd Box 936,,Seaford,DE,19973,us
617,532,,1800 M St Nw,Suite 750 South,Washington,DC,20036,us
618,533,,4502 Schenley Road,,Baltimore,MD,21210,us
619,534,,1700 N. Caroline Street,,Baltimore,MD,21213,us
620,535,,8722 36Th Avenue,,College Park,MD,20740,us
621,536,,210 W. Madison Avenue,,Baltimore,MD,21201,us
622,537,,92 W. Washington Street,,Annapolis,MD,21401,us
623,538,,P.O. Box 1951,,Annapolis,MD,21401-1951,us
624,539,,"Partnership, Empowerment Services Division",251 West Street,Annapolis,MD,21401,us
625,539,,P.O. Box 1951,,Annapolis,MD,21404,us
626,539,,251 West Street,,Annapolis,MD,21404,us
627,538,,Nutrition Program,P.O. Box 1951,Annapolis,MD,21401-1951,us
628,539,,251 West Street,,Annapolis,MD,21401,us
629,540,,2900 East Fayette Street,,Baltimore,MD,21224,us
630,541,,146 Bedford Street (Do Not Give Out),,Cumberland,MD,21502,us
631,542,,1701 Madison Avenue,,Baltimore,MD,21217,us
632,543,,10533 Green Mt. Circle,,Columbia,MD,21044,us
633,544,,737 West Lombard Street,Suite 215,Baltimore,MD,21201-1595,us
634,545,,12120 Plum Orchard Dr.,Suite E,Silver Spring,MD,20904,us
635,546,,4372 Lottsford Vista Road,,Lanham,MD,20706,us
636,547,,7939 Honeygo Blvd.,Suite 113,White Marsh,MD,21236,us
637,210,,401 Hungerford Drive,3Rd Floor,Rockville,MD,20850,us
638,546,,4372 Lottsford  Vista Road,,Lanham,MD,20706,us
639,548,,7961 Eastern Ave,1St Floor,Silver Spring,MD,20910,us
640,549,,Strawbridge U.M.C.,1624 Park Avenue,Baltimore,MD,21217,us
641,93,,201 E. Baltimore St.,11Th Floor,Baltimore,MD,21202,us
642,550,,7507 Standish Place,,Rockville,MD,20855,us
643,551,,Salem Umc,7901 Bradshaw Road,Upper Falls,MD,21156,us
644,552,,300 Eudowood Lane,,Towson,MD,21286,us
645,553,,3459 Park Heights Avenue,,Baltimore,MD,21215,us
646,453,,111 N. Calvert Street,,Baltimore,MD,21202,us
647,554,,1800 North Charles Street,Suite 206,Baltimore,MD,21201-4403,us
648,284,,401 Bosley Avenue,Room 511,Towson,MD,21204,us
649,555,,Po Box 8599,,Parkville,MD,21234,us
650,556,,3200 Garrison Boulevard,,Baltimore,MD,21216,us
651,557,,6 St. Paul Street,,Baltimore,MD,21202,us
652,558,,25 Bloomsbury Avenue,,Catonsville,MD,21228,us
653,559,,2222 East Jefferson Street,,Baltimore,MD,21205,us
654,560,,17433 Falls Road,,Monkton,MD,21111,us
655,561,,1700 Reisterstown Road,Suite 220,Baltimore,MD,21208,us
656,562,,4711 Edmondson Avenue,,Baltimore,MD,21229,us
657,563,,31 North Haven Street,,Baltimore,MD,21224,us
658,564,,P.O. Box 4796,,Baltimore,MD,21211,us
659,565,,60 Mellor Avenue,,Catonsville,MD,21228-5104,us
660,566,,"City Hall, Room 626",100 N. Holiday Street,Baltimore,MD,21202,us
661,567,,1711 Mcculloh Street,,Baltimore,MD,21217,us
662,568,,4000 Southwestern Blvd.,,Arbutus,MD,21229,us
663,569,,350 Ridge Road,,Pasadena,MD,21122,us
664,570,,128 W. Franklin Street,,Baltimore,MD,21201,us
665,571,,379 Main Street,4,Laurel,MD,20707,us
666,572,,800 North Fulton Avenue,2Nd Floor,Baltimore,MD,21217,us
667,573,,7458 B&A Blvd.,,Glen Burnie,MD,21061,us
668,574,,5900 Cedar Lane,,Columbia,MD,21044,us
669,575,,5755 Cedar Lane,,Columbia,MD,21044-2999,us
670,576,,11055 Little Patuxent Parkway,Suite L-9,Columbia,MD,21044,us
671,577,,2 W. Rolling Cross Roads,Suite 209,Catonsville,MD,21228,us
672,578,,1029 E. Monument Street,,Baltimore,MD,21202,us
673,579,,7109 Harford Road,,Parkville,MD,21234,us
674,580,,2922 E. Fayette Street,,Baltimore,MD,21224,us
675,581,,971 Seagull Avenue,,Baltimore,MD,21225,us
676,582,,13-15 E. Deer Park Drive,Suite 101,Gaithersburg,MD,20877,us
677,583,,"5 Crain Highway, Suite L1",,Glen Burnie,MD,21061,us
678,584,,"8900 Edgeworth Drive, Suite G",,Capital Heights,MD,20743,us
679,585,,601 Kelly Road,,Cumberland,MD,21502,us
680,586,,205 Baltimore Avenue,,Cumberland,MD,21502,us
681,284,,401 Bosley Avenue,Room 100,Towson,MD,21204-4491,us
682,587,,Residential Programs & Clinics,23704 Ocean Gateway,Mardela Springs,MD,21837,us
683,588,,3115 The Alameda,,Baltimore,MD,21218,us
684,589,,200 S. Arlington Ave.,,Baltimore,MD,21223,us
685,590,,3412 Belair Road,,Baltimore,MD,21213,us
686,591,,1 East 24Th Street,,Baltimore,MD,21218,us
687,592,,1425 Liberty Road,Suite 208,Eldersburg,MD,21784,us
688,593,,Maryland Community Resource Center,2414 Frederick Avenue,Baltimore,MD,21223,us
689,594,,Adoption & Foster Care Services,2 S. Bond St.,Bel Air,MD,21014,us
690,594,,2 S. Bond St.,,Bel Air,MD,21014,us
691,594,,2 S. Bond St.,,Bel Air,MD,21014,us
692,594,,2 S. Bond Street,,Bel Air,MD,21014,us
693,594,,2 S. Bond Street,,Bel Air,MD,21014,us
694,594,,2 S. Bond Street,,Bel Air,MD,21014,us
695,594,,2 S. Bond St.,,Bel Air,MD,21014,us
696,594,,2 S. Bond Street,,Bel Air,MD,21014,us
697,595,,101 S. Main St.,,Bel Air,MD,21014,us
698,594,,2 S. Bond St.,,Bel Air,MD,21014,us
699,594,,2 S. Bond St.,,Bel Air,MD,21014,us
700,594,,W/Children,2 S. Bond Street,Bel Air,MD,21014,us
701,594,,2 S. Bond St.,,Bel Air,MD,21014,us
702,594,,2 S. Bond Street,,Bel Air,MD,21014,us
703,594,,2 S. Bond Street,,Bel Air,MD,21014,us
704,352,,10 S. Howard Street,Suite 6220,Baltimore,MD,21201,us
705,596,,740 N. Calvert Street,,Baltimore,MD,21202,us
706,597,,2224 E. Fayette Street,,Baltimore,MD,21231,us
707,598,,734 University Boulevard East,,Silver Spring,MD,20903,us
708,599,,"Johns Hopkins University, 2Nd Floor","Levering Hall, 3400 N. Charles St.",Baltimore,MD,21218,us
709,600,,4901 Eastern Avenue,,Hyattsville,MD,20782,us
710,601,,6802 Mcclean Boulevard,,Baltimore,MD,21234,us
711,602,,6569 N. Charles Street,Suite 305,Baltimore,MD,21204,us
712,603,,6701 North Charles Street,Suite 2301,Towson,MD,21204,us
713,603,,6701 North Charles Street,,Baltimore,MD,21204,us
714,604,,7000 Hamlet Avenue,,Baltimore,MD,21234,us
715,605,,200 Baltimore Street,P.O. Box 2150,La Plata,MD,20646,us
716,606,,10 S. Howard Street,"5Th Floor, City Crescent Building",Baltimore,MD,21201-2505,us
717,607,,"820 1St. Street, Ne.",Suite 300,Washington,DC,20002,us
718,608,,P.O. Box 21027,,Baltimore,MD,21284-0127,us
719,609,,2204 Maryland Avenue,,Baltimore,MD,21218,us
720,610,,1111 Washington Blvd,,Baltimore,MD,21230,us
721,18,,York Road,5225 York Road,Baltimore,MD,21212,us
722,611,,(Gems),3921 Old York Road,Baltimore,MD,21218,us
723,612,,45 Old Solomon Island Road,Suite 204,Annapolis,MD,21401,us
724,612,,45 Old Solomons Island Road,Suite 204,Annapolis,MD,21401,us
725,613,,Maryland,4623 Falls Road,Baltimore,MD,21209,us
726,614,,7000 Security Boulevard,Suite 302,Baltimore,MD,21244,us
727,615,,22 N. Court Street,,Westminster,MD,21157,us
728,613,,Cats (Child Abuse Treatment Services),4623 Falls Road,Baltimore,MD,21209,us
729,616,,Delinquency Diversion Program,44 East Gordon Street,Bel Air,MD,21014,us
730,617,,7000 Security Blvd,Suite 302,Gwynn Oak,MD,21244,us
731,615,,Domestic Violence Program,22 N. Court Street,Westminster,MD,21157,us
732,613,,4623 Falls Road,,Baltimore,MD,21209,us
733,618,,10451 Twin Rivers Road,,Columbia,MD,21044,us
734,619,,Family Violence Unit And General-Counseling,22 North Court Street,Westminster,MD,21157,us
735,620,,Foster Care/Post Adoption,204 W. Lanvale Street,Baltimore,MD,21217,us
736,616,,44 E. Gordon Street,,Bel Air,MD,21014,us
737,621,,Harford County Adult Day Services,309 Thomas Run Road,Bel Air,MD,21015,us
738,613,,Oscar G. Murray Fund,4623 Falls Road,Baltimore,MD,21209,us
739,622,,Park Heights Family Support Ctr.,4236 Pimlico Road,Baltimore,MD,21215,us
740,623,,"Place, Adult Day Service",7 Schoolhouse Avenue,Westminster,MD,21157,us
741,624,,5204 Liberty Heights Avenue,,Baltimore,MD,21207,us
742,625,,1501 East Fayette Street,,Baltimore,MD,21231,us
743,626,,8035A Harford Road,,Baltimore,MD,21234,us
744,627,,1301 Woodbourne Avenue,,Baltimore,MD,21239,us
745,628,,"1220 B East Joppa Road, Suite 433",,Towson,MD,21286,us
746,629,,Community Residential Program,2041 E. Fayette St.,Baltimore,MD,21231,us
747,630,,1601 Old Eastern Avenue,,Essex,MD,21221,us
748,631,,P.O. Box 27144,,Baltimore,MD,21230,us
749,632,,600 Light Street,,Baltimore,MD,21230,us
750,633,,2 E. Read Street,8Th Floor,Baltimore,MD,21202,us
751,634,,415 North Charles Street,,Baltimore,MD,21201,us
752,131,,31 Hopkins Plaza,Room 1234,Baltimore,MD,21201-2829,us
753,635,,Thrift Stores,"7272 Park Circle Drive, Suite 120",Hanover,MD,21076,us
754,636,,Comptroller Of The Treasury,110 Carroll St.,Annapolis,MD,21401,us
755,637,,1014 W. 36Th Street,,Baltimore,MD,21211,us
756,638,,2002 Clipper Park Road,Suite 105,Baltimore,MD,21211,us
757,639,,10635 York Road,,Cockeysville,MD,21030,us
758,640,,3506 Gwynbrook Avenue,,Owings Mills,MD,21117-5200,us
759,641,,5700 Park Heights Avenue,,Baltimore,MD,21215,us
760,642,,1211 Cathedral Street,,Baltimore,MD,21201-5516,us
761,643,,1118 Ward Street,,Baltimore,MD,21230,us
762,644,,613 Baker Street,,Baltimore,MD,21217,us
763,645,,2007 W. Baltimore Street,Basement,Baltimore,MD,21223,us
764,646,,101 W. 23Rd St.,,Baltimore,MD,21218,us
765,647,,St Elizabeth School,801 Argonne Drive,Baltimore,MD,21218-1998,us
766,648,,5721 Park Heights Avenue,,Baltimore,MD,21215,us
767,649,,3345 Washington Blvd.,,Baltimore,MD,21227,us
768,650,,P.O. Box 2133,,Salisbury,MD,21801-2133,us
769,651,,Johns Hopkins Bayview Medical Center,4940 Eastern Avenue,Baltimore,MD,21224,us
770,652,,4940 Eastern Avenue,A-2 East Room 202,Baltimore,MD,21224-2735,us
771,652,,4940 Eastern Avenue,,Baltimore,MD,21224,us
772,652,,4940 Eastern Avenue,,Baltimore,MD,21224-2780,us
773,652,,4940 Eastern Avenue,D-4 East,Baltimore,MD,21224-3033,us
774,651,,Child And Adolescent Outpatient Program,"4940 Eastern Avenue, D-2 E",Baltimore,MD,21224-2780,us
775,652,,4940 Eastern Avenue,,Baltimore,MD,21224,us
776,652,,4940 Eastern Avenue,"Building Aa, Room 1370",Baltimore,MD,21224,us
777,652,,4940 Eastern Avenue,,Baltimore,MD,21224-2780,us
778,208,,301 W. Preston Street,Room 900,Baltimore,MD,21201,us
779,208,,301 W. Preston Street,Room 900,Baltimore,MD,21201,us
780,653,,6025 Moravia Park Drive,,Baltimore,MD,21206,us
781,654,,Po Box 361,,Joppa,MD,21085,us
782,655,,C/O Teachers Assn. Of Baltimore Co,305 E. Joppa Road,Towson,MD,21286-3252,us
783,656,,2651 W.  North Avenue,,Baltimore,MD,21216,us
784,657,,940 Madison Avenue,2Nd Floor,Baltimore,MD,21201,us
785,606,,P.O. Box 1576,,Baltimore,MD,21203-1576,us
786,606,,P.O. Box 1576,,Baltimore,MD,21203-1576,us
787,658,,1221-A Brass Mill Road,,Belcamp,MD,21017-1200,us
788,659,,"601 E. Street, Nw",,Washington,DC,20049,us
789,660,,10700 Brandywine Road,,Clinton,MD,20735-3860,us
790,661,,10 Pythian Drive,,Edgewater,MD,21037,us
791,662,,952 Old River Road,,Friendsville,MD,21531,us
792,663,,125 Durst Court,,Grantsville,MD,21536,us
793,664,,P.O. Box 105,,Callaway,MD,20620,us
794,665,,6428 York Road,,Baltimore,MD,21211,us
795,666,,2217 Whiteford Road,,Whiteford,MD,21160-1214,us
796,667,,289 Willowdale Drive,,Frederick,MD,21702,us
797,668,,Tax Counseling For The Elderly),14900 Health Center Drive,Bowie,MD,20716,us
798,669,,10928 Indian Head Hwy.,,Fort Washington,MD,20744-4017,us
799,670,,6305 Riggs Road,,Hyattsville,MD,20783,us
800,671,,1215 Annapolis Road,Suite 202,Odenton,MD,21113,us
801,672,,1814 Maryland Avenue,,Baltimore,MD,21201,us
802,673,,1107 Kenilworth Drive,Suite 202,Towson,MD,21204,us
803,674,,2901 E. Baltimore Street,,Baltimore,MD,21224,us
804,542,,1701 Madison Avenue,,Baltimore,MD,21217,us
805,675,,1705 West Fayette Street,,Baltimore,MD,21223-1708,us
806,676,,"200 Saint Paul Place, 16Th Fl",,Baltimore,MD,21202-2021,us
807,677,,201 Baptist Street,Suite 30,Salisbury,MD,21801,us
808,678,,44 N. Potomac Street,Suite 104,Hagerstown,MD,21740,us
809,679,,17 West Mulberry Street,,Baltimore,MD,21201,us
810,680,,8401 Colesville Road,Suite 600,Silver Spring,MD,20910,us
811,681,,1542 N. Gilmor Street,,Baltimore,MD,21217,us
812,682,,80 Pendragon Court,,Reisterstown,MD,21136,us
813,683,,29449 Charlotte Hall Road,,Charlotte Hall,MD,20622,us
814,684,,10 East Baltimore Street,,Baltimore,MD,21202,us
815,685,,2640 St. Paul Street,,Baltimore,MD,21218-4523,us
816,686,,2638 E. Baltimore Street,,Baltimore,MD,21224,us
817,687,,3900 Roland Avenue,,Baltimore,MD,21211,us
818,273,,C/O Glccb,241 West Chase Street,Baltimore,MD,21201,us
819,688,,190 West Ostend Street,Suite 201,Baltimore,MD,21230,us
820,689,,8720 Georgia Avenue,,Silver Spring,MD,20910,us
821,690,,4406 Liberty Heights Avenue,,Baltimore,MD,21207,us
822,691,,3501 N. Charles Street,,Baltimore,MD,21218,us
823,692,,9240 Centreville Road,,Easton,MD,21601,us
824,693,,5300 Edmondson Avenue,,Baltimore,MD,21229,us
825,694,,606 S. Ann Street,,Baltimore,MD,21231,us
826,695,,3001 Vineyard Lane,,Baltimore,MD,21218,us
827,696,,1101 E. 33Rd Street,Suite C307,Baltimore,MD,21218,us
828,697,,8643 Cherry Lane,,Laurel,MD,20707,us
829,698,,620 E. Diamond Avenue,Suite H,Gaithersburg,MD,20877,us
830,699,,P.O. Box 9695,,Baltimore,MD,21237,us
831,700,,P.O. Box 3344,,Annapolis,MD,21403,us
832,701,,5930 Millrace Court,F 103,Columbia,MD,21045,us
833,702,,7414 Ellen Avenue,,Baltimore,MD,21219-2120,us
834,703,,201 North Charles Street,Suite 200,Baltimore,MD,21201,us
835,704,,931 Spa Road,,Annapolis,MD,21401,us
836,705,,408 S. Chester Street,,Baltimore,MD,21231,us
837,706,,700 Wildwood Parkway,,Baltimore,MD,21229,us
838,707,,222 East Redwood Street,,Baltimore,MD,21202,us
839,708,,315 North Calvert,,Baltimore,MD,21202,us
840,709,,631 Cherry Hill Road,,Baltimore,MD,21225,us
841,710,,Balto. City (Headquarters),4800 Mount Hope Drive,Baltimore,MD,21215-3231,us
842,711,,11112 Gilroy Road,Suite 104,Hunt Valley,MD,21031,us
843,712,,111 W. Chesapeake Avenue,Suite 307,Towson,MD,21204,us
844,713,,P.O. Box 400,,Monkton,MD,21111,us
845,714,,4145 Falls Road,,Baltimore,MD,21211,us
846,715,,1 N. Charles Street,Suite 222,Baltimore,MD,21201,us
847,715,,1 N. Charles Street,Suite 222,Baltimore,MD,21201-3701,us
848,716,,Dundalk United Methodist Church,6903 Mornington Road,Dundalk,MD,21222,us
849,717,,6326 Security Blvd.,Suite 101,Baltimore,MD,21207,us
850,718,,6301 Harford Road,,Baltimore,MD,21206,us
851,719,,Po Box 2961,,Prince Frederick,MD,20678,us
852,720,,5-7 Bloomsbury Ave,,Catonsville,MD,21207,us
853,116,,7701 Dunmanway,,Dundalk,MD,21222,us
854,721,,Po Box 3744,,Frederick,MD,21705,us
855,722,,434 E. Diamond Avenue,,Gaithersburg,MD,20877,us
856,723,,6513 Queens Chapel Road,3Rd Floor,Hyattsville,MD,20782,us
857,724,,P.O. Box 1245,,Leonardtown,MD,20650,us
858,725,,2608 Deer Park Rd.,,Finksburg,MD,21048,us
859,726,,Frames United Methodist Church,14200 Mount Avenue,Phoenix,MD,21131,us
860,727,,2001 Medical Parkway,,Annapolis,MD,21401,us
861,727,,2001 Medical Parkway,,Annapolis,MD,21401,us
862,728,,2620 Riva Road,,Annapolis,MD,21401,us
863,729,,100 N. Holliday Street,,Baltimore,MD,21202,us
864,730,,1429 Mcculloh Street,,Baltimore,MD,21217,us
865,564,,325 E. 25Th Street,,Baltimore,MD,21218,us
866,731,,3521 W. Belvedere Avenue,,Baltimore,MD,21215,us
867,732,,100 E. Bel Air Avenue,,Aberdeen,MD,21001,us
868,733,,617 Congress Avenue,,Havre De Grace,MD,21078,us
869,734,,Po Box 739,,Greensboro,MD,21639,us
870,735,,Po Box 513,,North East,MD,21901,us
871,736,,2308 North Fulton Avenue,,Baltimore,MD,21217,us
872,737,,10001 Derekwood Lane,Suite 200,Lanham,MD,20716,us
873,152,,175 W. Ostend Street,Suite C,Baltimore,MD,21230,us
874,738,,600 N. Wolfe Street,"Jhh, Meyer Building 144",Baltimore,MD,21287,us
875,739,,2400 Broening Highway,,Baltimore,MD,21224,us
876,740,,600 North Wolfe Street,,Baltimore,MD,21287,us
877,741,,Johns Hopkins Hospital,901 N. Broadway,Baltimore,MD,21205,us
878,742,,601 N. Wolfe St.,"Phipps, Room 248",Baltimore,MD,21287,us
879,740,,600 Wolfe Street,,Baltimore,MD,21287,us
880,743,,Aids Services,"600 N. Wolfe Street, Carnegie 3",Baltimore,MD,21287,us
881,740,,600 N. Wolfe Street,Phipps 249,Baltimore,MD,21287,us
882,744,,600 North Wolfe Street,Meyer 144,Baltimore,MD,21287,us
883,171,,1600 N. Rutland Avenue,,Baltimore,MD,21213,us
884,745,,Po Box136,,Emmitsburg,MD,21727,us
885,746,,137 North Market Street,Suite 2A,Frederick,MD,21701,us
886,747,,3243 Eastern Avenue,,Baltimore,MD,21224,us
887,748,,3800 Frederick Avenue,,Baltimore,MD,21229,us
888,749,,Carroll Plaza Shopping Center,Suite 20 C,Westminster,MD,21157,us
889,750,,6000 Metro Drive,Suite 101,Baltimore,MD,21215,us
890,751,,5600 Fishers Lane,Room 1471 H-F-1,Rockville,MD,20857,us
891,752,,169 Duke Of Gloucester Street,Annapolis Area Intergroup,Annapolis,MD,21401,us
892,753,,8635 Loch Raven Boulevard,"Suite 4, 2Nd Floor",Baltimore,MD,21286,us
893,754,,Intergroup,Po Box 1153,Hagerstown,MD,21741-1153,us
894,755,,P.O. Box 2732,,Salisbury,MD,21802-2732,us
895,756,,114 N  Washington Street,Suite 2,Easton,MD,21601,us
896,757,,28 Centennial Lane,,Aberdeen,MD,21001,us
897,758,,P.O. Box 913,,Ocean City,MD,21843,us
898,759,,P.O. Box 767,,Charlotte Hall,MD,20622,us
899,760,,Of Maryland,Po Box 1771,Frederick,MD,21701,us
900,761,,Intergroup,Po Box 323,Cumberland,MD,21502,us
901,762,,330 E. 25Th Street,,Baltimore,MD,21218,us
902,763,,370 Shore Acres Rd.,,Arnold,MD,21012,us
903,764,,205 Bloomsbury Avenue,,Catonsville,MD,21228,us
904,765,,4401 Old York Road,,Baltimore,MD,21212,us
905,554,,1800 North Charles Street,Suite 700,Baltimore,MD,21201,us
906,766,,2434 W. Belvedere Avenue,,Baltimore,MD,21215,us
907,767,,P.O. Box 38501,,Baltimore,MD,21231-1635,us
908,768,,609 Park Avenue,,Baltimore,MD,21201,us
909,769,,119 East 25Th Street,,Baltimore,MD,21218,us
910,770,,Adult Evaluation & Review Services,"2666 Riva Road, Suite 400",Annapolis,MD,21401,us
911,770,,Community Care Partnership,P.O. Box 6675,Annapolis,MD,21401,us
912,770,,Anne Arundel Co. Dept. Of Aging,"2666 Riva Road, Suite 400",Annapolis,MD,21401,us
913,770,,7409 Baltimore Annapolis Boulevard,,Glen Burnie,MD,21061,us
914,770,,2666 Riva Road,,Annapolis,MD,21401,us
915,771,,A.A. County Government Office Buildings,7320 Ritchie Highway,Glen Burnie,MD,21061,us
916,770,,"2666 Riva Road,  Suite 400",,Annapolis,MD,21401,us
917,772,,202 Hammonds Lane,,Brooklyn Park,MD,21225,us
918,770,,Anne Arundel County,"2666 Riva Road, Suite 400",Annapolis,MD,21401,us
919,773,,7320 Ritchie Highway,Room 110,Glen Burnie,MD,21061,us
920,770,,2666 Riva Road,Suite 400,Annapolis,MD,21401,us
921,770,,2666 Riva Road,Suite 400,Annapolis,MD,21401,us
922,773,,7320 Ritchie Highway,,Glen Burnie,MD,21061,us
923,770,,2666 Riva Road,Suite 400,Annapolis,MD,21401,us
924,770,,2666 Riva Road,Suite 400,Annapolis,MD,21401,us
925,774,,40 South Church Street,Suite 105,Westminster,MD,21157,us
926,775,,11309 Classical Lane,,Silver Spring,MD,20901,us
927,776,,Po Box 116,,Oakland,MD,21550,us
928,777,,300 St. Luke Circle,,Westminster,MD,21158,us
929,778,,1025 St. Paul Street,,Baltimore,MD,21202,us
930,779,,4426 Park Heights Avenue,,Baltimore,MD,21215,us
931,780,,3021 Eastern Ave.,,Baltimore,MD,21224,us
932,781,,2500 Edmondson Avenue,,Baltimore,MD,21223,us
933,782,,Po Box 66011,,Baltimore,MD,21239,us
934,35,,"200 W. Baltimore Street, 9Th Floor",,Baltimore,MD,21201,us
935,783,,"County, Beall Elementary School",3 College Avenue,Frostburg,MD,21532,us
936,784,,1450 Furnace Avenue,,Glen Burnie,MD,21060,us
937,785,,10 W. Eager Street,2Nd Floor,Baltimore,MD,21201,us
938,786,,Baltimore County,6901 N. Charles Street,Towson,MD,21204,us
939,787,,204 Franklin Street,,Denton,MD,21629,us
940,788,,495 S. Center Street,,Westminster,MD,21157-5635,us
941,789,,201 Booth Street,,Elkton,MD,21921,us
942,790,,700 Glasgow Street,,Cambridge,MD,21613,us
943,395,,Frederick County,350 Montevue Lane,Frederick,MD,21702,us
944,791,,100 Thomas Run Road,,Bel Air,MD,21015,us
945,792,,Faulkner Ridge Center,10598 Marble Faun Court,Columbia,MD,21044,us
946,450,,51 Monroe Street,Suite 1700,Rockville,MD,20850,us
947,270,,9201 Basil Court,Suite 440,Largo,MD,20774,us
948,793,,5441 Main Street,,Grasonville,MD,21638,us
949,794,,210 N. Somerset Avenue,,Crisfield,MD,21817,us
950,795,,P.O. Box 316,,Leonardtown,MD,20650,us
951,796,,Easton Elementary School,"Dobson Bldg, 305 Glenwood Avenue",Easton,MD,21601,us
952,797,,1350 Marshall Street,,Hagerstown,MD,21740,us
953,408,,108 E. Main Street,,Salisbury,MD,21801,us
954,798,,6270 Worcester Highway,,Newark,MD,21841,us
955,799,,4806 Seton Drive,,Baltimore,MD,21215,us
956,800,,1212 N. Wolfe Street,,Baltimore,MD,21213,us
957,800,,Inc.,1212 N. Wolfe Street,Baltimore,MD,21213,us
958,801,,1427 Pennsylvania Avenue,,Baltimore,MD,21217,us
959,802,,2800 Kirk Avenue,,Baltimore,MD,21218,us
960,803,,9850 Key West Avenue,,Rockville,MD,20850,us
961,804,,801 Roeder Rd.,Suite 300,Silver Spring,MD,20910,us
962,786,,6901 North Charles Street,,Baltimore,MD,21204,us
963,805,,1625 E. Baltimore Street,,Baltimore,MD,21231,us
964,806,,626 Washington Avenue,,Hagerstown,MD,21740,us
965,807,,112 Sudbrook Lane,,Pikesville,MD,21208,us
966,808,,26 S. Mount Street,,Baltimore,MD,21223,us
967,809,,8611 Church Lane,,Randallstown,MD,21133,us
968,810,,9030 Route 108,Suite A,Columbia,MD,21045,us
969,811,,10304 Putman Road,,Frederick,MD,21702,us
970,812,,P.O. Box 3826,,Frederick,MD,21705,us
971,813,,11350 Baroque Road,,Silver Spring,MD,20910,us
972,814,,410 Girard Street,,Havre De Grace,MD,21078,us
973,815,,2300 Garrison Blvd.,Suite 270,Baltimore,MD,21216,us
974,816,,4920 Niagara Road,Suite 101,College Park,MD,20740,us
975,817,,5210 Auth Road,Suite 100,Suitland,MD,20746,us
976,93,,"201 E. Baltimore Street, 15Th Floor",,Baltimore,MD,21202,us
977,818,,,2622 Lord Baltimore Drive,Baltimore,MD,21244,us
978,819,,205-A Broadway Street,,Frederick,MD,21701,us
979,820,,5301 76Th Avenue,,Landover Hills,MD,20784,us
980,821,,2901 Druid Park Drive,Suite A-203,Baltimore,MD,21215,us
981,822,,2501 Frederick Road,,Catonsville,MD,21228,us
982,823,,1725 E. Baltimore Street,,Baltimore,MD,21231-1511,us
983,301,,Family Bereavement Center,"10 N. Calvert Street, Suite 400",Baltimore,MD,21202,us
984,824,,100 N. Calvert Street,Room 410,Baltimore,MD,21202,us
985,825,,101 East Baltimore Street,,Hagerstown,MD,21740,us
986,826,,1420 Spring Street,,Silver Spring,MD,20910,us
987,827,,8601 Adelphi Road,,College Park,MD,20740-6001,us
988,828,,7301 Dogwood Road,,Baltimore,MD,21244,us
989,829,,"1825 K Street, Nw",Suite 1103,Washington,DC,20006,us
990,392,,P.O. Box 845,,Westminster,MD,21158,us
991,392,,P.O. Box 845,,Westminster,MD,21158,us
992,392,,290 South Center Street,,Westminster,MD,21158-0845,us
993,392,,290 S. Center Street,,Westminster,MD,21157,us
994,392,,290 South Center Street,,Westminster,MD,21157,us
995,830,,P.O. Box 845,,Westminster,MD,21158,us
996,815,,3709 Collier Road,,Randallstown,MD,21133,us
997,831,,P.O. Box 797,,Bel Air,MD,21014,us
998,832,,39 Churchville Road,Suite 200,Bel Air,MD,21015,us
999,833,,119 S. Hays Street,,Bel Air,MD,21014,us
1000,834,,P.O Box 797,,Bel Air,MD,21014-0797,us
1001,835,,P.O. Box 797,,Bel Air,MD,21014,us
1002,836,,292 Stoner Avenue,,Westminster,MD,21157,us
1003,836,,292 Stoner Avenue,,Westminster,MD,21157,us
1004,837,,200 Memorial Avenue,,Westminster,MD,21157,us
1005,837,,Breast Cancer Support Group,200 Memorial Avenue,Westminster,MD,21157,us
1006,837,,Health Access,200 Memorial Ave,Westminster,MD,21157,us
1007,837,,Nutritional Counseling,200 Memorial Avenue,Westminster,MD,21157,us
1008,838,,7702 Dunmanway,,Dundalk,MD,21222,us
1009,839,,135 N. Parke Street,,Aberdeen,MD,21001,us
1010,840,,500 N. Rolling Road,,Catonsville,MD,21228,us
1011,841,,30450 Potomac Way,,Charlotte Hall,MD,20622,us
1012,842,,Thanksgiving Dinner,1301 Mcculloh Street,Baltimore,MD,21217,us
1013,843,,2630 Turf Valley Road,,Ellicott City,MD,21042,us
1014,844,,711 W. 40Th Street,Suite 460,Baltimore,MD,21211,us
1015,845,,P.O. Box 98,,Hyattsville,MD,20781,us
1016,846,,3001-3005 Baker Street,,Baltimore,MD,21216,us
1017,847,,P.O. Box 7878,,Baltimore,MD,21221,us
1018,848,,200 E. North Avenue,,Baltimore,MD,21202,us
1019,848,,200 East North Ave,Room 311,Baltimore,MD,21202,us
1020,849,,2500 East Northern Parkway,Room 2,Baltimore,MD,21214,us
1021,850,,2200 Sinclair Lane,,Baltimore,MD,21213,us
1022,851,,1100 Covington Street,,Baltimore,MD,21230,us
1023,848,,Baltimore City Public Schools,200 E. North Avenue,Baltimore,MD,21202,us
1024,852,,900 Druid Hill Avenue,,Baltimore,MD,21201,us
1025,853,,9650 Basket Ring Road,,Columbia,MD,21045-3421,us
1026,854,,Po Box 1207,,Bel Air,MD,21014,us
1027,54,,6401 York Road,,Baltimore,MD,21212,us
1028,855,,122 Allegheny Avenue,,Towson,MD,21204,us
1029,687,,3900 Roland Avenue,,Baltimore,MD,21211,us
1030,856,,1700 E. Coldspring Lane,,Baltimore,MD,21251,us
1031,534,,1700 N. Caroline Street,,Baltimore,MD,21213,us
1032,857,,300 Metro Plaza,,Baltimore,MD,21215,us
1033,858,,1510 Guilford Avenue,,Baltimore,MD,21202-2882,us
1034,858,,Family Investment Program,1510 Guilford Avenue,Baltimore,MD,21202,us
1035,859,,501 E. Fayette Street,Room 207,Baltimore,MD,21202,us
1036,860,,1900 N. Howard Street,,Baltimore,MD,21213,us
1037,860,,1900 N. Howard Street,,Baltimore,MD,21201,us
1038,860,,1900 N. Howard Street,,Baltimore,MD,21202,us
1039,861,,1910 North Broadway,,Baltimore,MD,21213,us
1040,862,,1920 North Broadway,,Baltimore,MD,21213,us
1041,858,,1510 Guilford Avenue,,Baltimore,MD,21202,us
1042,860,,1900 North Howard Street,,Baltimore,MD,21201,us
1043,863,,Mchp Premium,,Baltimore,MD,,us
1044,864,,2000 North Broadway,,Baltimore,MD,21213,us
1045,860,,1900 N. Howard Street,,Baltimore,MD,21201,us
1046,865,,300 Metro Plaza,,Baltimore,MD,21215,us
1047,862,,1920 North Broadway,,Baltimore,MD,21213,us
1048,860,,1900 North Howard Street,,Baltimore,MD,21201,us
1049,866,,300 Metro Plaza,,Baltimore,MD,21215,us
1050,858,,1510 Guilford Avenue,,Baltimore,MD,21202,us
1051,862,,1920 North Broadway,,Baltimore,MD,21213,us
1052,867,,2200 Garrison Blvd,Suite 301,Baltimore,MD,21216,us
1053,868,,829 Montpelier Street,,Baltimore,MD,21218,us
1054,869,,317 Dolphin Street,,Baltimore,MD,21217,us
1055,870,,320 York Road,,Towson,MD,21204-5179,us
1056,871,,1716 Merritt Blvd.,,Baltimore,MD,21222-3295,us
1057,870,,320 York Road,,Towson,MD,21204,us
1058,872,,331 E. 30Th Street,,Baltimore,MD,21218,us
1059,873,,15001 Health Center Drive,,Bowie,MD,20716,us
1060,874,,2900 Mercy Lane,,Cheverly,MD,20785,us
1061,875,,7300 Van Dusen Road,,Laurel,MD,20707,us
1062,876,,3001 Hospital Drive,,Cheverly,MD,20785,us
1063,877,,3800 9Th Street,,Baltimore,MD,21225,us
1064,878,,26845 Point Lookout Road,,Leonardtown,MD,20650,us
1065,387,,Po Box 1745,,Cumberland,MD,21501-1745,us
1066,387,,Evaluation And Review Services (Aers),Po Box 1745,Cumberland,MD,21501-1745,us
1067,387,,Health Services,Po Box 1745,Cumberland,MD,21501-1745,us
1068,387,,Behavioral Health,Po Box 1745,Cumberland,MD,21501-1745,us
1069,387,,Cancer Control Program,Po Box 1745,Cumberland,MD,21501-1745,us
1070,387,,Dental Health,Po Box 1745,Cumberland,MD,21501-1745,us
1071,387,,Environmental Health,Po Box 1745,Cumberland,MD,21501-1745,us
1072,387,,Planning Services,Po Box 1745,Cumberland,MD,21501-1745,us
1073,387,,Start Program,Po Box 1745,Cumberland,MD,21501-1745,us
1074,387,,Mental Health,Po Box 1745,Cumberland,MD,21501-1745,us
1075,387,,Prevention Services,Po Box 1745,Cumberland,MD,21501-1745,us
1076,387,,Health Preparedness Office,Po Box 1745,Cumberland,MD,21501-1745,us
1077,387,,School Health,Po Box 1745,Cumberland,MD,21501-1745,us
1078,387,,Vital Records,Po Box 1745,Cumberland,MD,21501-1745,us
1079,387,,Po Box 1745,,Cumberland,MD,21501-1745,us
1080,879,,116 Virginia Avenue,,Cumberland,MD,21502,us
1081,880,,635 W. Lexington Street,,Baltimore,MD,21201-1571,us
1082,881,,273 D. Peninsula Farm Road,Building 2,Arnold,MD,21012,us
1083,882,,P.O. Box 2734,,La Plata,MD,20646,us
1084,883,,3326 Keswick Road,,Baltimore,MD,21211,us
1085,884,,1109 East Patrick Street,,Frederick,MD,21701,us
1086,760,,"2 East Church Street, 3Rd Floor",,Frederick,MD,21701,us
1087,885,,Po Box 363,,Oakland,MD,21550,us
1088,886,,205 Hayes Street,,Bel Air,MD,21014,us
1089,887,,9110 Gaither Road,,Gaithersburg,MD,20877,us
1090,888,,4531 Rhode Island Avenue,,North Brentwood,MD,20722,us
1091,889,,20 S. Prospect Street,,Hagerstown,MD,21740,us
1092,890,,P.O. Box 107,,Salisbury,MD,21803,us
1093,891,,810 Park Avenue,,Baltimore,MD,21201-4888,us
1094,892,,111 South Calvert Street,"Harbor Place Tower, Suite 1700",Baltimore,MD,21202-6180,us
1095,893,,1311 Continental Drive,Suite R,Abingdon,MD,21009,us
1096,894,,1667 Knecht Avenue,Suite Q,Arbutus,MD,21227,us
1097,895,,1531 S. Edgewood Street,Suite L,Baltimore,MD,21227,us
1098,896,,1730 Merritt Boulevard,,Dundalk,MD,21222,us
1099,897,,354 G Mountain Road,,Pasadena,MD,21122,us
1100,898,,9637 Liberty Road,Suite K,Randallstown,MD,21133,us
1101,899,,1840 York Road,Suite H,Timonium,MD,21093,us
1102,900,,1135 Business Parkway South,Suite 60,Westminster,MD,21157,us
1103,901,,310 Old Freeland Road,,Freeland,MD,20153,us
1104,902,,Department Of Juvenile Justice,907 Druid Park Lake Drive,Baltimore,MD,21217,us
1105,903,,9925 Blackwell Road,,Rockville,MD,20850,us
1106,904,,300 N Gay Street,,Baltimore,MD,21202,us
1107,905,,Cheltenham Youth Facility,Po Box 160,Cheltenham,MD,20623,us
1108,906,,301-C Commerce Street,,Snow Hill,MD,21863,us
1109,907,,1623 Forest Drive,Suite 101,Annapolis,MD,21403,us
1110,908,,1 Center Plaza,"120 West Fayette Street, 3Rd Fl.",Baltimore,MD,21201,us
1111,908,,One Center Plaza,120 W. Fayette Street,Baltimore,MD,21201,us
1112,909,,300 Scheeler Road,,Chestertown,MD,21620,us
1113,910,,721 Woodbourne Avenue,,Baltimore,MD,21212,us
1114,911,,14735 Main Street,Room Mo400,Upper Marlboro,MD,20772,us
1115,912,,7300 Calhoun Place,Suite 500,Rockville,MD,20855,us
1116,908,,1 Center Plaza,120 W Fayette Street 2Nd Floor,Baltimore,MD,21201,us
1117,913,,"375 Red Clay Road, Sw",,Laurel,MD,20724,us
1118,914,,308 Washington Avenue,,Towson,MD,21204,us
1119,914,,308 Washington Avenue,,Towson,MD,21204,us
1120,915,,"Clarence Mitchell Courthouse, 442",100 N. Calvert Street,Baltimore,MD,21202,us
1121,916,,2730 Crestview Road,,Riva,MD,21140,us
1122,917,,"Nami, Cecil County",6 Rene Car Street,Elkton,MD,21921,us
1123,918,,Po Box 1853,,Frederick,MD,21702,us
1124,919,,Garrett County,11403 New German Road,Grantsville,MD,21536,us
1125,920,,Harford County,8 Mcgregor Way,Bel Air,MD,21014,us
1126,921,,9151 Rumsey Road,Suite 150,Columbia,MD,21045,us
1127,922,,11 Concord Lane,,Berlin,MD,,us
1128,923,,5210 York Road,,Baltimore,MD,21212,us
1129,924,,10730 Connecticut Avenue,,Kensington,MD,20895,us
1130,925,,P.O. Box 959,,Greenbelt,MD,20768,us
1131,926,,Washington County,11944 Comanche Drive,Smithsburg,MD,21783,us
1132,927,,8114 Sandpiper Circle,Suite 100,White Marsh,MD,21236,us
1133,928,,501 West Lexington Street,,Baltimore,MD,21201-1772,us
1134,284,,401 Bosley Avenue,Room 101,Towson,MD,21204,us
1135,495,,305 W. Chesapeake Avenue,Suite 201,Towson,MD,21204,us
1136,929,,P.O. Box 625,,Brooklandville,MD,21022,us
1137,930,,4814 Seton Drive,,Baltimore,MD,21215,us
1138,931,,12905 Gaffney Road,,Silver Spring,MD,20904,us
1139,932,,"3957 Pinder Drive,",Suite 103,Fairfax,VA,22030,us
1140,930,,4814 Seton Drive,,Baltimore,MD,21215,us
1141,933,,Mid-Atlantic Region,4806 York Road,Baltimore,MD,21212,us
1142,934,,P.O. Box 1812,,Annapolis,MD,21404,us
1143,935,,1300 North Eden Street,,Baltimore,MD,21213,us
1144,936,,1401 Pennsylvania Avenue,,Baltimore,MD,21217,us
1145,937,,532 Eastern Boulevard,Suite 202,Essex,MD,21221,us
1146,938,,110 E. Pennsylvania Avenue,,Towson,MD,21286,us
1147,939,,Life Center,2100 Eutaw Place,Baltimore,MD,21217,us
1148,940,,2100 North Charles Street,,Baltimore,MD,21218,us
1149,941,,203 Broadway Street,Suite A,Frederick,MD,21701,us
1150,942,,10 E. Eager Street,,Baltimore,MD,21202,us
1151,943,,833 W. Pratt Street,,Baltimore,MD,21201,us
1152,944,,244 N. Patterson Park Avenue,,Baltimore,MD,21231,us
1153,945,,300 Lennox Avenue,,Towson,MD,21286,us
1154,946,,4115 Frederick Avenue,,Baltimore,MD,21229,us
1155,947,,6811 Campfield Road,,Baltimore,MD,21207-4698,us
1156,948,,6 Yorkway,,Dundalk,MD,21222,us
1157,389,,26 North Fulton Avenue,,Baltimore,MD,21223,us
1158,949,,2000 West Baltimore Street,,Baltimore,MD,21223,us
1159,949,,2000 West Baltimore Street,,Baltimore,MD,21223,us
1160,950,,3101 Towanda Avenue,,Baltimore,MD,21215,us
1161,951,,2401 W. Baltimore Street,,Baltimore,MD,21223,us
1162,952,,2600 Liberty Heights Avenue,,Baltimore,MD,21215,us
1163,953,,10 North Pulaski Street,,Baltimore,MD,21223,us
1164,950,,3101 Towanda Avenue,,Baltimore,MD,21215,us
1165,954,,3100 Towanda Avenue,,Baltimore,MD,21215,us
1166,821,,2901 Druid Park Drive,Suite A103,Baltimore,MD,21215,us
1167,116,,7701 Dunmanway,,Dundalk,MD,21222,us
1168,955,,20 S. Charles Street,Suite 600,Baltimore,MD,21201,us
1169,956,,1719 Sykesville Road,,Westminster,MD,21157,us
1170,957,,850 S. Rolling Road,,Catonsville,MD,21228,us
1171,958,,1609 Druid Hill Avenue,,Baltimore,MD,21217,us
1172,959,,4331 Montgomery Road,,Ellicott City,MD,21043,us
1173,960,,309 Thomas Run Road,,Bel Air,MD,21045,us
1174,961,,600 West Chesapeake Avenue,,Towson,MD,21204,us
1175,961,,600 W. Chesapeake Avenue,,Towson,MD,21204,us
1176,962,,1400 E. Federal Street,,Baltimore,MD,21213,us
1177,963,,3333 Greenmount Avenue,,Baltimore,MD,21218,us
1178,964,,180 Kriders Church Road,,Westminster,MD,21158-4307,us
1179,965,,11614 Seven Locks Road,,Rockville,MD,20854,us
1180,966,,14299 Benedictine Lane,,Ridgely,MD,21660,us
1181,967,,"17 Warren Road,",Suite 22A,Baltimore,MD,21208,us
1182,968,,10920 Connecticut Avenue,Suite 1600,Kensington,MD,20895-1600,us
1183,969,,106 Santa Fe Street,,Lavale,MD,21502,us
1184,970,,1426 East Fairmount Ave,,Baltimore,MD,21231,us
1185,971,,3002 Druid Park Drive,,Baltimore,MD,21215,us
1186,971,,3002 Druid Park Drive,,Baltimore,MD,21215,us
1187,972,,10 North Greene Street,,Baltimore,MD,21201,us
1188,972,,10 N. Greene Street,,Baltimore,MD,21201,us
1189,972,,10 North Greene Street,,Baltimore,MD,21201,us
1190,973,,3900 Loch Raven Boulevard,,Baltimore,MD,21218,us
1191,974,,1777 Reisterstown Road,Suite 199,Baltimore,MD,21208,us
1192,975,,9600 North Point Road,,Baltimore,MD,21052,us
1193,976,,1101 Opal Court,,Hagerstown,MD,21742,us
1194,131,,16 Francis Street,,Annapolis,MD,21401,us
1195,977,,,,Perry Point,MD,21902,us
1196,978,,2005 E. Chase Street,,Baltimore,MD,21213-3395,us
1197,979,,St. Mary's Church,5502 York Road,Baltimore,MD,21212,us
1198,980,,5610 York Road,,Baltimore,MD,21212,us
1199,981,,1517 E. North Avenue,,Baltimore,MD,21213,us
1200,982,,5207 York Road,,Baltimore,MD,21212,us
1201,983,,80 West Street,Suite B,Annapolis,MD,21401,us
1202,984,,1109 Spring Street,Suite 300,Silver Spring,MD,20910,us
1203,985,,1001 Eastern Avenue,2Nd Floor,Baltimore,MD,21202-4364,us
1204,405,,126 Port Street,2Nd Floor,Easton,MD,21601,us
1205,986,,920 West Washington Street,3Rd Floor,Hagerstown,MD,21740,us
1206,987,,500 Snow Hill Road,,Salisbury,MD,21804,us
1207,988,,201 Back River Neck Road,,Baltimore,MD,21221,us
1208,989,,110 E. West Street,,Baltimore,MD,21230-4314,us
1209,990,,6423 Frederick Road,Suite B,Catonsville,MD,21228,us
1210,528,,7801 York Road,Suite 215,Towson,MD,21204,us
1211,991,,1029 East Baltimore Street,,Baltimore,MD,21202,us
1212,992,,2700 W. Patapsco Avenue,,Baltimore,MD,21230,us
1213,992,,2700 W. Patapsco Avenue,,Baltimore,MD,21230-2702,us
1214,993,,1114 N. Calvert St.,,Baltimore,MD,21202-3875,us
1215,994,,511 S. Crain Highway,,Glen Burnie,MD,21061,us
1216,995,,814 Light Street,,Baltimore,MD,21230,us
1217,996,,1601 W. Baltimore Street,,Baltimore,MD,21223,us
1218,997,,Po Box 25535,,Baltimore,MD,21217,us
1219,998,,1912 Liberty Road,Country Village Center,Eldersburg,MD,21784-6601,us
1220,999,,7480 Baltimore Annapolis Blvd.,Suite 100,Glen Burnie,MD,21061,us
1221,1000,,7161 Columbia Gateway Drive,Suite D,Columbia,MD,21046,us
1222,1001,,"County, One Stop Career Center","138 Baltimore Street, Suite 102",Cumberland,MD,21502,us
1223,1002,,County One Stop Career Center,300 Market Street,Denton,MD,21629,us
1224,1003,,One Stop Career Center,1275 W. Pulaski Highway,Elkton,MD,21921,us
1225,1004,,Dorchester County One Stop Career Center,627 A Race Street,Cambridge,MD,21613,us
1226,1005,,One Stop Career Center,Po Box 516,Oakland,MD,21550-4516,us
1227,1006,,One Stop Career Center,601 High Street 2Nd Floor,Chestertown,MD,21620,us
1228,33,,917 Mt. Hermon R,,Salisbury,MD,21801,us
1229,1007,,County One Stop Career Center,"301 Bay Street, Suite 301",Easton,MD,21601,us
1230,1008,,224 N. Center Street,2Nd Floor,Westminster,MD,21157,us
1231,1009,,One Stop Career Center,917 Mt. Hermon Road Suite 1,Salisbury,MD,21804,us
1232,1010,,5340 Spectrum Drive,Suite A,Frederick,MD,21703,us
1233,1011,,1100 N. Eutaw Street,Room 508,Baltimore,MD,21201,us
1234,1012,,500 N. Calvert Street,,Baltimore,MD,21201-3651,us
1235,594,,"Mary Risteau Building, 2Nd Floor",2 South Bond Street,Bel Air,MD,21014-3737,us
1236,1011,,Division Of Labor & Industry,1100 N. Eutaw Street-Room 606,Baltimore,MD,21201,us
1237,1011,,100 W. 23Rd Street,Room 111,Baltimore,MD,21218,us
1238,1013,,11002 Veirs Mills Road,Westfield Shopping Center,Wheaton,MD,20902,us
1239,1014,,One Stop Career Center,"200 Duke Street, Room 1400",Prince Frederick,MD,20678,us
1240,1015,,One Stop Career Center,175 Post Office Road,Waldorf,MD,20604,us
1241,1016,,One Stop Career Center,P.O. Box 282,Leonardtown,MD,20650,us
1242,1017,,14 North Potomac Street,Suite 100,Hagerstown,MD,21740,us
1243,1018,,1734  Maryland Avenue,,Baltimore,MD,21201,us
1244,1019,,P.O. Box 3909,,Baltimore,MD,21222,us
1245,1020,,130 Admiral Cochran Drive,Suite 103,Annapolis,MD,21401,us
1246,1021,,3700 Koppers Street,Suite 501,Arbutus,MD,21227,us
1247,844,,711 West 40Th Street,Suite 400,Baltimore,MD,21211,us
1248,1022,,12070 Old Line Centre,Suite 211,Waldorf,MD,20602,us
1249,1023,,101 Marlboro Road,Suite 47,Easton,MD,21601,us
1250,1024,,800 Oak Street,,Frederick,MD,21703,us
1251,1025,,131 King Street,,Hagerstown,MD,21740,us
1252,1026,,2301 Research Blvd.,Suite 303,Rockville,MD,20850,us
1253,1027,,135 W. Dares Beach Road,Unit 210,Prince Frederick,MD,20678,us
1254,1028,,99 Commerce Place,,Largo,MD,20772,us
1255,1029,,2009 Northwood Drive,,Salisbury,MD,21801,us
1256,1030,,15 East Main Street,Suite 114,Westminster,MD,21157,us
1257,1031,,900 Somerset Street,,Baltimore,MD,21202,us
1258,1032,,1200 Dual Highway,,Hagerstown,MD,21740,us
1259,1033,,7567 Ritchie Highway,,Glen Burnie,MD,21061,us
1260,1034,,301 N. Gilmore Street,,Baltimore,MD,21223,us
1261,1035,,1601 Druid Hill Avenue,,Baltimore,MD,21217,us
1262,1036,,212 Blue Ball Avenue,,Elkton,MD,21921,us
1263,1037,,P.O. Box 19618,,Baltimore,MD,21225,us
1264,1038,,1435 South Hanover Street,,Baltimore,MD,21230,us
1265,1039,,7 West Randall Street,,Baltimore,MD,21230,us
1266,1040,,P.O. Box 3756,,Crofton,MD,21114,us
1267,1041,,856 Seneca Park Drive,,Baltimore,MD,21220,us
1268,1042,,6339 Executive  Blvd,,Rockville,MD,20852,us
1269,1043,,5153 Bonnie Acres Drive,,Ellicott City,MD,21043,us
1270,1044,,901 Poplar Grove Street,,Baltimore,MD,21216-4350,us
1271,1045,,21 West 25Th Street,,Baltimore,MD,21218,us
1272,1046,,1118 Light Street,Suite 101,Baltimore,MD,21230,us
1273,1047,,5701 York Road,,Baltimore,MD,21212,us
1274,1048,,Share,11832 Eastern Avenue,Baltimore,MD,21220,us
1275,220,,1000 E. Eager Street,,Baltimore,MD,21202,us
1276,1049,,324 East Antietam Street,,Hagerstown,MD,21740,us
1277,1050,,137 Mitchells Chance Rd,Suite 180,Edgewater,MD,21037,us
1278,1051,,At Frederick,195 Thomas Johnson Drive,Frederick,MD,21702,us
1279,1052,,6350 Stevens Forest Road,Suite 102,Columbia,MD,21046,us
1280,1053,,14207 Laurel Park Center Drive,Suite 102,Laurel,MD,20707,us
1281,1054,,1132 Annapolis Road,,Odenton,MD,21113,us
1282,1055,,2809 Boston Street,,Baltimore,MD,21224,us
1283,1056,,Suite C,,Westminster,MD,21157,us
1284,1057,,"15201 Shady Grove Road, Suite 202",,Rockville,MD,20850,us
1285,1058,,3100 Wyman Park Drive,,Baltimore,MD,21211,us
1286,1059,,1501 E. Oliver Street,,Baltimore,MD,21213-2999,us
1287,1060,,1500 Gorsuch Avenue,,Baltimore,MD,21218,us
1288,1061,,2405 Loch Raven Road,,Baltimore,MD,21218,us
1289,1062,,Baltimore-Chesapeake Chapter,P.O. Box 10822,Baltimore,MD,21234,us
1290,1063,,Frederick County Chapter,6595 Ewald Court,Frederick,MD,21703,us
1291,1064,,7910 Woodmont Avenue,Suite 300,Bethesda,MD,20814-3015,us
1292,1065,,15554 Peach Walker Drive,,Bowie,MD,20716,us
1293,1066,,700 Castlewood Drive,,Upper Marlboro,MD,20774,us
1294,1067,,14700 Mt. Calvert Road,,Upper Marlboro,MD,20772,us
1295,1068,,718 W. Lafayette Avenue,,Baltimore,MD,21217,us
1296,1069,,2701 W. Patapsco Avenue,Suite 110,Baltimore,MD,21230-2797,us
1297,1070,,Love Outreach Ministry,5401 Frankford Ave.,Baltimore,MD,21206-6139,us
1298,1071,,P.O. Box 735,,Baltimore,MD,21203,us
1299,1072,,1228 East Baltimore Street,,Baltimore,MD,21202,us
1300,1073,,2100 E. Madison Street,,Baltimore,MD,21205,us
1301,1074,,5750 Park Heights Ave.,Suite 286,Baltimore,MD,21215,us
1302,1074,,5750 Park Heights Avenue,,Baltimore,MD,21215,us
1303,1074,,5750 Park Heights Ave,,Baltimore,MD,21215,us
1304,1075,,10630 Little Patuxent Parkway,Suite 401,Columbia,MD,21044,us
1305,1074,,5750 Park Heights Avenue,,Baltimore,MD,21215,us
1306,1076,,20465 Seneca Meadows Parkway,,Germantown,MD,20876,us
1307,1077,,219 North Chester St.,,Baltimore,MD,21231,us
1308,1078,,30 S. Broadway,,Baltimore,MD,21231,us
1309,1079,,Other Victims Of Homicide,4001 Old Court Road,Baltimore,MD,21208,us
1310,1080,,231 East Baltimore Street,Suite 1102,Baltimore,MD,21202,us
1311,1081,,1645 Ridgely St.,Suite 200,Baltimore,MD,21230,us
1312,1082,,2105 Laurel Bush Road,Suite 105,Bel Air,MD,21015,us
1313,1083,,608 Water Street,,Baltimore,MD,21202-4079,us
1314,1083,,608 Water Street,,Baltimore,MD,21202-4079,us
1315,1084,,"4720 Montgomery Lane, Suite 205",,Bethesda,MD,20814,us
1316,1085,,118 East Oak Ridge Drive,,Hagerstown,MD,21740,us
1317,561,,1700 Reisterstown Road,Suite 226,Baltimore,MD,21208,us
1318,1086,,5736 Industry Lane,,Frederick,MD,21704,us
1319,1087,,6400 B Frederick Road,,Catonsville,MD,21228,us
1320,821,,Monitoring Program (Champ),"2901 Druid Park Drive, Suite A204",Baltimore,MD,21215,us
1321,544,,Division Of Pediatric Immunology,737 W. Lombard St. Room 240,Baltimore,MD,21201,us
1322,1088,,120 N. Penn Street,,Baltimore,MD,21201,us
1323,1089,,630 West Fayette Street,Room 5-684,Baltimore,MD,21201,us
1324,1090,,8630 Fenton Street,Suite 930,Silver Spring,MD,20910,us
1325,1091,,2700 Seamon Avenue,,Baltimore,MD,21225,us
1326,1092,,5620 The Alameda,,Baltimore,MD,21239,us
1327,1093,,9C Central Ave,,Glen Burnie,MD,21061,us
1328,1094,,517 N. Charles Street,Suite 200,Baltimore,MD,21201,us
1329,1095,,218 W. Saratoga Street,5Th Floor,Baltimore,MD,21201,us
1330,1096,,P.O. Box 88,,Bel Air,MD,21014-2434,us
1331,1097,,3320 Benson Avenue,,Baltimore,MD,21227-1035,us
1332,1046,,1118 Light Street,Suite  200,Baltimore,MD,21230,us
1333,1098,,1166 Greenspring Drive,Suite 200,Timonium,MD,21093,us
1334,1099,,"11 E. Mt. Royal Ave,",Suite 2A,Baltimore,MD,21202,us
1335,1100,,Legal Services,430 S. Broadway,Baltimore,MD,21231,us
1336,1099,,Center For Family Services,"11 E. Mount Royal Ave, 3Rd Floor",Baltimore,MD,21202,us
1337,397,,34 North Philadelphia Blvd.,,Aberdeen,MD,21001,us
1338,1101,,Harford County,1980 Brookside Drive,Edgewood,MD,21040-1612,us
1339,1102,,Our Daily Bread Employment  Center,725 Fallsway,Baltimore,MD,21201,us
1340,1103,,1301 Continental Drive,Suite 101,Abingdon,MD,21009,us
1341,1104,,Confidential Address,,Baltimore,MD,21215,us
1342,1105,,"606 Cherry Hill Road, Suite 201",,Baltimore,MD,21225-1229,us
1343,1106,,725 Fallsway,,Baltimore,MD,21202,us
1344,1107,,320 Cathedral Street,,Baltimore,MD,21201,us
1345,1100,,430 S. Broadway,,Baltimore,MD,21231,us
1346,1106,,725 Fallsway,,Baltimore,MD,21202,us
1347,1108,,2520 Pot Spring Road,,Timonium,MD,21093,us
1348,65,,255 Clifton Blvd.,,Westminster,MD,21157,us
1349,1109,,761 West Hamburg Street,,Baltimore,MD,21230,us
1350,1106,,725 Fallsway,,Baltimore,MD,21202,us
1351,1110,,123 West Mulberry Street,,Baltimore,MD,21201,us
1352,1111,,111 W. Mulberry Street,,Baltimore,MD,21201,us
1353,1106,,725 Fallsway,,Baltimore,MD,21202,us
1354,1106,,725 Fallsway,,Baltimore,MD,21202,us
1355,1106,,725 Fallsway,,Baltimore,MD,21202,us
1356,1112,,228 West Lexington Street,Suite 220,Baltimore,MD,21201,us
1357,570,,128 W Franklin Street,,Baltimore,MD,21201,us
1358,1113,,2015 20Th Street,,Fort Meade,MD,20755,us
1359,1114,,3308 Benson Avenue,,Baltimore,MD,21227,us
1360,1115,,3320 Benson Avenue,,Baltimore,MD,21227,us
1361,1116,,2600 Pot Spring Road,,Timonium,MD,21093,us
1362,1116,,St. Vincent's Center,2600 Pot Spring Road,Timonium,MD,21093,us
1363,1117,,St. Clements Church,2700 Washington  Avenue,Baltimore,MD,21227,us
1364,1030,,Westminster,"255 Clifton Blvd., Suite 302",Westminster,MD,21157,us
1365,1118,,Health Program Of Catholic Charities,116 East 2Nd Street,Frederick,MD,21701,us
1366,1119,,Mountain Maryland,"921 Seton Drive, Suite 2G",Cumberland,MD,21502,us
1367,1120,,Washington County,229 North Potomac Street,Hagerstown,MD,21740,us
1368,1103,,Health Center (Abingdon),"1301 Continental Drive, Suite 103",Abingdon,MD,21009,us
1369,1121,,2300 Dulaney Valley Road,,Timonium,MD,21093,us
1370,1121,,2300 Dulaney Valley Road,,Timonium,MD,21093,us
1371,1122,,"Univ Of Baltimore, The Jacob France Institute",1420 North Charles Street,Baltimore,MD,21201,us
1372,1123,,431 East Belvedere Avenue,,Baltimore,MD,21212,us
1373,1124,,431 East Belvedere Avenue,,Baltimore,MD,21212,us
1374,1125,,431 East Belvedere Avenue,,Baltimore,MD,21212,us
1375,1126,,10003 Derekwood Lane,Suite 200,Lanham,MD,20706,us
1376,1127,,2315 North Charles Street,,Baltimore,MD,21218,us
1377,1128,,417 North Aisquith Street,,Baltimore,MD,21202,us
1378,38,,100 Community Place,Suite 3301,Crownsville,MD,21032-2027,us
1379,1129,,3110 Crittenton Place,,Baltimore,MD,21211,us
1380,1130,,1200 E. Joppa Road,Suite B,Towson,MD,21286,us
1381,1131,,174 Thomas Johnson Drive,Suite 201,Frederick,MD,21702,us
1382,1132,,8627 Ocean Gateway,,Easton,MD,21601,us
1383,1133,,1110 N. Wolfe Street,,Baltimore,MD,21213,us
1384,1134,,3734 Eastern Avenue,Baltimore,Baltimore,MD,21224,us
1385,1135,,402 S. Bond Street,,Baltimore,MD,21231,us
1386,1136,,"2601 Ulman Avenue, Rear",,Baltimore,MD,21215,us
1387,1137,,400 S. Bond Street,,Baltimore,MD,21231,us
1388,1138,,5001 Park Heights Avenue,,Baltimore,MD,21215,us
1389,1139,,65 Sacred Heart Lane,,Glyndon,MD,21071,us
1390,141,,9100 Franklin Square Drive,Suite 108,Baltimore,MD,21237,us
1391,1140,,3445 Park Heights Avenue,,Baltimore,MD,21215-7850,us
1392,1141,,3812 Edmondson Avenue,,Baltimore,MD,21229,us
1393,1142,,251 S. Morely Street,,Baltimore,MD,21229,us
1394,1143,,1546 N. Fremont Ave.,,Baltimore,MD,21217,us
1395,1144,,8801 Harford Road,,Baltimore,MD,21234,us
1396,1145,,806 Cherry Hill Road,St. Veronica's Catholic Church,Baltimore,MD,21225-1314,us
1397,1107,,320 Cathedral Street,,Baltimore,MD,21201,us
1398,1146,,Perpetual Help,515 Loch Haven Road,Edgewater,MD,21037,us
1399,1147,,Bank,1123 Wilso Drive,Baltimore,MD,21223,us
1400,1148,,120 N. Front Street,,Baltimore,MD,21202-4804,us
1401,1149,,"Equitable Building, Suite 915",10 N. Calvert St.,Baltimore,MD,21202-1812,us
1402,1150,,4244 Reisterstown Road,,Baltimore,MD,21215,us
1403,1151,,9833 Harford Road,,Baltimore,MD,21234,us
1404,1152,,27 S. Caroline Street,,Baltimore,MD,21231,us
1405,1153,,13 S. Poppleton Street,,Baltimore,MD,21201,us
1406,453,,Bar Association Of Baltimore City,"111 North Calvert Street, Suite 629",Baltimore,MD,21202,us
1407,1154,,P.O. Box 910,,La Plata,MD,20646-0910,us
1408,1155,,115 Williams Road,,Prince Frederick,MD,20678,us
1409,1156,,County Campus,22950 Hollywood Road,Leonardtown,MD,20650-4700,us
1410,1157,,"3261 Old Washington Rd.,",Suite 1020,Waldorf,MD,20602-3223,us
1411,1154,,8730 Mitchell Road,P.O. Box 910 (Mailing Address),La Plata,MD,20646,us
1412,1154,,P.O. Box 910,,La Plata,MD,20646,us
1413,1158,,5230 Washington Blvd.,,Baltimore,MD,21227,us
1414,54,,Bureau Of Mental Health,"6401 York Road, 3Rd. Floor",Baltimore,MD,21212,us
1415,54,,6401 York Road,3Rd Floor,Baltimore,MD,21212,us
1416,1159,,13800 Manor Road,,Baldwin,MD,21013,us
1417,54,,6401 York Road,,Baltimore,MD,21212,us
1418,54,,6401 York Road,3Rd Floor,Baltimore,MD,21212-2130,us
1419,54,,6401 York Road,3Rd Floor,Baltimore,MD,21212,us
1420,54,,6401 York Road,,Baltimore,MD,21212,us
1421,1160,,,7700 Dunnmanway,Dundalk,MD,21222,us
1422,497,,Eastern Family Resource Center,9100 Franklin Square Drive,Rosedale,MD,21237,us
1423,1161,,Essex Health Center,1538 Country Ridge Lane,Essex,MD,21221,us
1424,1162,,12035 Reisterstown Road,,Reisterstown,MD,21136,us
1425,54,,Health Education & Information,6401 York Road,Baltimore,MD,21212,us
1426,382,,Lansdowne Health Center,3902 Annapolis Road,Lansdowne,MD,21227,us
1427,1163,,3525 Resource Drive,,Randallstown,MD,21133,us
1428,54,,6401 York Road,,Baltimore,MD,21212,us
1429,54,,6401 York Road,3Rd Floor,Baltimore,MD,21212,us
1430,54,,6401 York Road,3Rd Fl,Baltimore,MD,21212-2130,us
1431,54,,6401 York Road,,Baltimore,MD,21212,us
1432,1164,,1046 Taylor Avenue,,Towson,MD,21286,us
1433,1165,,1811 Woodlawn Drive,,Woodlawn,MD,21207,us
1434,54,,6401 York Road,3Rd Floor,Baltimore,MD,21212,us
1435,497,,9100 Franklin Square Drive,,Rosedale,MD,21237,us
1436,1163,,3525 Resource Drive,,Randallstown,MD,21133,us
1437,1166,,Anne Arundel County Center,230 West Street,Annapolis,MD,21401,us
1438,1167,,1706 Eastern Avenue,,Baltimore,MD,21231,us
1439,1168,,438 Eastern Boulevard,,Essex,MD,21221,us
1440,1169,,601 Hammond Lane,,Baltimore,MD,21225,us
1441,1170,,531 Legion Drive,,Havre De Grace,MD,21078,us
1442,134,,2660 Yorkway,,Baltimore,MD,21222,us
1443,715,,1 N. Charles Street,Suite 1600,Baltimore,MD,21201,us
1444,1171,,410 A University Blvd. West,,Silver Spring,MD,20901,us
1445,1172,,"6200 2Nd Street, Nw",,Washington,DC,20011,us
1446,1173,,Value Village Thrift Store,2277 B University Blvd.,Adelphi,MD,20783,us
1447,1174,,"Value Village Thrift Stores, Md",5604 Ritchie Highway,Brooklyn Park,MD,21225,us
1448,1175,,County Office,"14701 National Highway, Suite 4",Lavale,MD,21502,us
1449,1176,,Westwood Business Park,190 Admiral Cochran Drive,Annapolis,MD,21401,us
1450,1177,,31 Hopkins Plaza,Fallon Federal Building,Baltimore,MD,21201,us
1451,1178,,201 Thomas Johnson Drive,,Frederick,MD,21701,us
1452,1179,,1260 Maryland Avenue,,Hagerstown,MD,21740,us
1453,1180,,Federal Building,212 W. Main St.,Salisbury,MD,21801,us
1454,1181,,3717 Springdale Avenue,,Baltimore,MD,21216,us
1455,213,,Catonsville Community College,"800 S. Rolling Road, Buld E, Rm 109",Catonsville,MD,21228,us
1456,1182,,118 S. Stokes Street,,Havre De Grace,MD,21078,us
1457,1183,,Social Services,100 East All Saints Street,Frederick,MD,21701,us
1458,1184,,Framptom Hall,101 Braddock Road,Frostburg,MD,21532,us
1459,1185,,540 Joppa Farm Road,,Joppa,MD,21085,us
1460,1186,,5620 Greenhill Avenue,,Baltimore,MD,21206,us
1461,1187,,3301 Milford Mill Road,,Baltimore,MD,21216,us
1462,1188,,2 College Hill,Computer Lab- Lewis Hall,Westminster,MD,21157-4390,us
1463,1189,,101 Market Street,,Oxford,MD,21654-1307,us
1464,1190,,1901 E. Federal Street,,Baltimore,MD,21218,us
1465,1191,,2553 West North Avenue,,Baltimore,MD,21216,us
1466,1191,,2553 W. North Avenue,2Nd Floor,Baltimore,MD,21216,us
1467,1192,,514 North Crain Highway,Suite K,Glen Burnie,MD,21061,us
1468,1192,,514 North Crain Highway,Suite K,Glen Burnie,MD,21061,us
1469,1192,,514 North Crain Highway,Suite K,Glen Burnie,MD,21061,us
1470,1193,,6401 Ritchie Highway,,Glen Burnie,MD,21061,us
1471,1192,,514 North Crain Highway,Suite K,Glen Burnie,MD,21061,us
1472,1192,,514 North Crain Highway,Suite K,Glen Burnie,MD,21061,us
1473,1194,,5150 Baltimore National Pike,,Baltimore,MD,21229,us
1474,1195,,212 Bay Street,,Easton,MD,21601-2734,us
1475,1196,,6095 Marshalee Drive,,Elkridge,MD,21075,us
1476,1197,,711 West 40Th Street,"The Rotunda, Suite 310",Baltimore,MD,21211,us
1477,1198,,2209 Park Avenue,,Baltimore,MD,21217-4847,us
1478,1199,,4 South Gay Street,,Baltimore,MD,21202,us
1479,88,,1515 W. North Avenue,,Baltimore,MD,21217,us
1480,1200,,1501 Division Street,,Baltimore,MD,21217,us
1481,1201,,1501 Division Street,,Baltimore,MD,21217,us
1482,1202,,1501 Division Street,,Baltimore,MD,21217,us
1483,1203,,1501 Division Street,,Baltimore,MD,21217,us
1484,1203,,Program,1501 W. Saratoga Street,Baltimore,MD,21223,us
1485,1204,,206 North Fremont Avenue,,Baltimore,MD,21201,us
1486,225,,22 South Market St.,,Frederick,MD,21701,us
1487,1205,,403 S. Main Street,,Mount Airy,MD,21771,us
1488,1206,,22 South Market Street,,Frederick,MD,21701,us
1489,1207,,22 South Market Street,,Frederick,MD,21701,us
1490,1208,,22 South Market St.,,Frederick,MD,21701,us
1491,1209,,22 South Market St.,,Frederick,MD,21701,us
1492,1210,,22 South Market St.,,Frederick,MD,21701,us
1493,1211,,9441 Farewell Road,,Columbia,MD,21045-4442,us
1494,1212,,Support Enforcement,"44 Calvert Street, 2Nd Floor",Annapolis,MD,21401,us
1495,715,,Enforcement,"1 North Charles St., 5Th Floor",Baltimore,MD,21201,us
1496,1213,,170 W. Ridgely Road,Suite 200,Lutherville,MD,21093-5114,us
1497,715,,1 N. Charles Street,Suite 1300,Baltimore,MD,21201,us
1498,1214,,(Dhr),311 W. Saratoga Street,Baltimore,MD,21201,us
1499,1214,,311 W. Saratoga Street,,Baltimore,MD,21201,us
1500,1212,,P.O. Box 1870,,Annapolis,MD,21404,us
1501,1215,,Saratoga State Center,311 West Saratoga Street,Baltimore,MD,21201-3521,us
1502,1214,,311 W. Saratoga Street,,Baltimore,MD,21201-3521,us
1503,1214,,"311 West Saratoga Street,",Suite 213,Baltimore,MD,21201,us
1504,450,,51 Monroe Street,Suite 811,Rockville,MD,20850,us
1505,405,,126 Port Street,,Easton,MD,21601,us
1506,1214,,311 West Saratoga Street,5Th Floor,Baltimore,MD,21201,us
1507,1216,,3355 Keswick Road,,Baltimore,MD,21211,us
1508,1217,,312 North Martin Luther King Jr. Boulevard,3Rd Floor,Baltimore,MD,21201,us
1509,1218,,1732 Dunwoody Road,,Towson,MD,21234,us
1510,1219,,8720 Philadelphia Road,,Baltimore,MD,21237,us
1511,1220,,1607 Cromwell Bridge Road,,Towson,MD,21234,us
1512,1221,,37 Main Street,,Reisterstown,MD,21136,us
1513,1221,,37 Main Street,,Reisterstown,MD,21136,us
1514,1222,,7509 Windsor Mill Road,,Baltimore,MD,21244,us
1515,1223,,100 S. Washington Street,,Baltimore,MD,21231,us
1516,1224,,2822 Hollins Ferry Road,,Baltimore,MD,21230,us
1517,1225,,2401 West Belvedere Avenue,,Baltimore,MD,21215,us
1518,1226,,Ambulatory Psychiatry Building,2401 W. Belvedere Avenue,Baltimore,MD,21215,us
1519,1225,,"Sinai Hospital, Rehabilitation Center",2401 W. Belvedere Avenue,Baltimore,MD,21215,us
1520,1227,,5607 Metro Drive,,Baltimore,MD,21215,us
1521,1228,,1201 Maple Avenue,,Baltimore,MD,21227-2639,us
1522,1229,,403 A Old Stage Road,,Glen Burnie,MD,21061,us
1523,1230,,555 W. Towsontown Blvd.,,Baltimore,MD,21204,us
1524,1231,,5537 Twin Knolls Road,Suite 433,Columbia,MD,21045,us
1525,1232,,321 N. Calvert Street,2Nd Floor,Baltimore,MD,21202,us
1526,1233,,301 St. Paul Place,,Baltimore,MD,21202-2140,us
1527,1121,,2300 Dulaney Valley Road,,Timonium,MD,21093,us
1528,1234,,"914 Washington Road, Suite D",Hunter Professional Center,Westminster,MD,21157,us
1529,1235,,P.O. Box 429,,New Windsor,MD,21776,us
1530,1236,,1840 N. Aisquith Street,,Baltimore,MD,21202,us
1531,1237,,1300 Fulton Avenue,,Baltimore,MD,21217,us
1532,1238,,1530 Presstman Street,,Baltimore,MD,21217,us
1533,1239,,1601 N. Calhoun St.,,Baltimore,MD,21217,us
1534,1237,,1300 N. Fulton Avenue,,Baltimore,MD,21217,us
1535,1240,,19 Bond Street,Westminster Church Of The Brethren,Westminster,MD,21157,us
1536,98,,P.O. Box 625,,Brooklandville,MD,21022-0625,us
1537,1241,,8659 Baltimore National Pike,,Ellicott City,MD,21043,us
1538,1241,,8659 Baltimore National Pike,,Ellicott City,MD,21043,us
1539,1242,,"Hahn Building, 35 East Church Street",3Rd Floor,Frederick,MD,21701,us
1540,1243,,,,Baltimore,MD,21237,us
1541,1244,,C/O The Associated,101 West Mount Royal Avenue,Baltimore,MD,21201,us
1542,1245,,1515 Reisterstown Road,3Rd Floor,Baltimore,MD,21208,us
1543,1244,,101 West Mount Royal Avenue,,Baltimore,MD,21201,us
1544,1246,,838 N. Eutaw Street,,Baltimore,MD,21201-4686,us
1545,1247,,1004 Frederick Road,,Catonsville,MD,21228,us
1546,1248,,3600-2 N. Rogers Avenue,,Baltimore,MD,21207,us
1547,1249,,1100 Whitmore Avenue,,Baltimore,MD,21216,us
1548,1250,,2505 N. Charles Street,,Baltimore,MD,21218,us
1549,1251,,P.O. Box 41,,Butler,MD,21023,us
1550,1252,,2140 Mcculloh Street,,Baltimore,MD,21217,us
1551,1253,,1313 W. Old Cold Spring Lane,,Baltimore,MD,21209,us
1552,1254,,"Walter P. Carter Bld., Rm 2-357",630 W. Fayette Street,Baltimore,MD,21201,us
1553,21,,3939 Reisterstown Road,Suite 105,Baltimore,MD,21215,us
1554,1255,,1227 West Pratt Street,,Baltimore,MD,21223,us
1555,1256,,"Institute Of Human Virology, Clinical Center","16 S. Eutaw Street, Suite 100",Baltimore,MD,21202,us
1556,386,,2200 Kernan Drive,,Baltimore,MD,21207,us
1557,1257,,4101 1/2 Old York Road,,Baltimore,MD,21218,us
1558,1258,,701 W. Pratt Street,,Baltimore,MD,21201,us
1559,1259,,"701 W. Pratt Street, 4Th Floor",,Baltimore,MD,21201-1601,us
1560,1260,,4538 Edmondson Avenue,,Baltimore,MD,21229,us
1561,1261,,29 South Paca Street,,Baltimore,MD,21201,us
1562,1089,,"630 W. Fayette Street, 1St Floor",Walter P. Carter Building,Baltimore,MD,21201,us
1563,1262,,22 S. Greene Street,,Baltimore,MD,21201,us
1564,1088,,Adolescent Clinic,"120 Penn Street, 1St Floor",Baltimore,MD,21201,us
1565,1263,,701 W. Pratt Street,,Baltimore,MD,21201,us
1566,1259,,701 W. Pratt Street,1St Floor,Baltimore,MD,21201,us
1567,1089,,630 W. Fayette Street,4Th Floor,Baltimore,MD,21201,us
1568,1264,,105 Penn Street,,Baltimore,MD,21201-1090,us
1569,1088,,120 Penn Street,,Baltimore,MD,21201,us
1570,1265,,601 S. Charles Street,,Baltimore,MD,21230,us
1571,1266,,3302 Toone Street,,Baltimore,MD,21224,us
1572,1267,,"1361 ""A"" Brass Mill Road",,Belcamp,MD,21017,us
1573,1268,,2225 N. Charles Street,,Baltimore,MD,21218,us
1574,1268,,2225 N. Charles Street,,Baltimore,MD,21218,us
1575,1269,,Emmanuel United Methodist Church,6517 Frederick Road,Catonsville,MD,21228,us
1576,1270,,St. Marks Presbyterian Church,10701 Old Georgetown Road,Rockville,MD,20850,us
1577,1271,,12901 Georgia Ave,,Silver Spring,MD,20910,us
1578,1272,,1601 Nicodemus Rd.,,Reisterstown,MD,21136,us
1579,642,,1211 Cathedral Street,,Baltimore,MD,21201,us
1580,642,,1211 Cathedral Street,,Baltimore,MD,21201-5585,us
1581,1273,,Anne Arundel County,1700 Margaret Ave,Annapolis,MD,21401,us
1582,1274,,Allegany County,248 North Mechanic Street,Cumberland,MD,21502,us
1583,1275,,Anne Arundel County,7500 Ritchie Highway,Glen Burnie,MD,21061,us
1584,1276,,201 St. Paul Place,,Baltimore,MD,21202,us
1585,1277,,500 Virginia Avenue,,Towson,MD,21204,us
1586,1278,,200 Duke Street Suite 2000,,Prince Frederick,MD,20678,us
1587,1279,,P.O. Box 159,,Denton,MD,21629,us
1588,1280,,101 N Court Street,,Westminster,MD,21157,us
1589,1281,,170 East  Main Street,,Elkton,MD,21921,us
1590,1282,,101 Catalpa Drive,Suite 102A,La Plata,MD,20646,us
1591,1283,,Dorchester County,310 Gay Street,Cambridge,MD,21613,us
1592,1284,,Frederick County,100 West Patrick Street,Frederick,MD,21701,us
1593,1285,,105 South Second Street,Suite 5,Oakland,MD,21550,us
1594,594,,2 S Bond Street,,Bel Air,MD,21014,us
1595,446,,3451 Court House Drive,,Ellicott City,MD,21043,us
1596,1286,,115 Court Street,Po Box 148 (Mailing Address),Chestertown,MD,21620,us
1597,1287,,Montgomery County,199-P East Montgomery Avenue,Rockville,MD,20850,us
1598,1288,,14735 Main Street,Suite 272B,Upper Marlboro,MD,20772,us
1599,1289,,Queen Anne's County,Po Box 230,Centreville,MD,21617,us
1600,1290,,30509 Prince William Street,,Princess Anne,MD,21853,us
1601,1016,,Po Box 653,,Leonardtown,MD,20650,us
1602,43,,301 Bay Street,Suite 308,Easton,MD,21601,us
1603,1291,,Washington County,100 West Franklin Street,Hagerstown,MD,21740,us
1604,677,,201 Baptist Street,Suite 26,Salisbury,MD,21801,us
1605,1292,,Worcester County,Po Box 276,Snow Hill,MD,21863,us
1606,1293,,27 Main Avenue,,Catonsville,MD,21228,us
1607,1294,,Hillendale Gate,6600 Wycombe Way,Baltimore,MD,21234,us
1608,1295,,2903 Bero Road,,Lansdowne,MD,21227,us
1609,116,,7701 Dunmanway,,Baltimore,MD,21222,us
1610,1296,,12041 Reisterstown Road,,Reisterstown,MD,21136,us
1611,1297,,55 Wade Avenue,,Catonsville,MD,21228,us
1612,1298,,2211 St. Lukes Lane,,Woodlawn,MD,21207,us
1613,1299,,218 Main Street,,Reisterstown,MD,21136,us
1614,1300,,Camp Frettered Military Reservation,5401 Rue Saint Lo Drive,Reisterstown,MD,21136,us
1615,1301,,1201 E. Coldspring Lane,,Baltimore,MD,21239,us
1616,1302,,658 Lucabaugh Mill Road,,Westminster,MD,21158,us
1617,1303,,41 N. Philadelphia Boulevard,,Aberdeen,MD,21001-2563,us
1618,1304,,1 Commerce Drive,,Cumberland,MD,21502,us
1619,773,,7320 Ritchie Highway,Suite 210,Glen Burnie,MD,21061,us
1620,1305,,6615 Reisterstown Road,Suite 201,Baltimore,MD,21215,us
1621,899,,1840 York Road,Suite J,Timonium,MD,21093,us
1622,1306,,P.O. Box 486,,Prince Frederick,MD,20678,us
1623,1307,,207 S. 3Rd Street,,Denton,MD,21629,us
1624,1308,,700 Agriculture Center,,Westminster,MD,21157,us
1625,1309,,126A East High Street,,Elkton,MD,21921,us
1626,147,,9375 Chesapeake Street,Suite 119,La Plata,MD,20646,us
1627,1310,,501 Court Lane,,Cambridge,MD,21613,us
1628,1311,,Frederick County,330 Montevue Lane,Frederick,MD,21702,us
1629,1312,,1916 Maryland Highway,Suite A,Mt. Lake Park,MD,21550,us
1630,1313,,P.O. Box 663,,Forest Hill,MD,21050,us
1631,1314,,3525-L Ellicott Mills Drive,,Ellicott City,MD,21043,us
1632,1315,,709 Morgnec Road,Suite 202,Chestertown,MD,21620,us
1633,1316,,18410 Muncaster Road,,Derwood,MD,20855,us
1634,1317,,6707 Groveton Drive,,Clinton,MD,20735,us
1635,1318,,505 Railroad Avenue,Suite 4,Centreville,MD,21617,us
1636,1319,,30730 Park Drive,,Princess Anne,MD,21853,us
1637,1320,,21580 Peabody Street,,Leonardtown,MD,20650,us
1638,1321,,Po Box 519,,Easton,MD,21601,us
1639,1322,,Washington County,7303 Sharpsburg Pike,Boonsboro,MD,21713,us
1640,1323,,P.O. Box 1836,,Salisbury,MD,21802,us
1641,1324,,P.O. Box 219,,Snow Hill,MD,21863,us
1642,1325,,4301 Old York Road,,Baltimore,MD,21212,us
1643,1326,,1355 Homestead Street,,Baltimore,MD,21218,us
1644,1327,,11308 Grandview Avenue,2Nd Floor,Wheaton,MD,20902,us
1645,1328,,613 Ridgely Avenue,,Annapolis,MD,21401,us
1646,1329,,613 Ridgley Avenue,,Annapolis,MD,21401,us
1647,1330,,1351 S. Clinton Street,,Baltimore,MD,21224,us
1648,1331,,7002 Golden Ring Road,,Rosedale,MD,21237,us
1649,171,,1600 Rutland Avenue,Lower Level,Baltimore,MD,21213,us
1650,1332,,1055 Taylor Avenue,,Towson,MD,21286,us
1651,1333,,9733 Healthway Drive,,Berlin,MD,21811,us
1652,1334,,520 West Lombard Street,"Gray Hall, 1St Floor",Baltimore,MD,21201,us
1653,1335,,6419 York Road,,Baltimore,MD,21212,us
1654,1336,,5209 York Road,"Unit A6, Suite M25",Baltimore,MD,21212,us
1655,859,,501 E. Fayette Street,,Baltimore,MD,21202,us
1656,1337,,3600 Clipper Mill Road,Suite 250,Baltimore,MD,21211,us
1657,1338,,700 N. Calvert Street,,Baltimore,MD,21202,us
1658,1339,,And Garrett Counties,"1 Frederick Street, Suite 100",Cumberland,MD,21502,us
1659,1340,,County,"10 North Jefferson Street, Suite 204",Frederick,MD,21701,us
1660,1341,,County,1258 Maryland Avenue,Hagerstown,MD,21740,us
1661,1342,,6401 Security Blvd.,,Baltimore,MD,21235,us
1662,1343,,100 Church Alley,,Chestertown,MD,21620,us
1663,54,,Community Conservation,"6401 York Road, 2Nd Floor",Baltimore,MD,21212,us
1664,54,,6401 York Road,,Baltimore,MD,21212,us
1665,1344,,116 Slade Avenue,,Pikesville,MD,21208,us
1666,1345,,5900 Metro Drive,,Baltimore,MD,21215,us
1667,1346,,Dept. Of Legislative Services,90 State Circle,Annapolis,MD,21401-1991,us
1668,1347,,4604 W. Caroline Avenue,,Beltsville,MD,20705-2555,us
1669,1348,,4061 Powder Mill Road,Suite210,Calverton,MD,20705,us
1670,1349,,P.O. Box 2018,,Salisbury,MD,21802-2018,us
1671,27,,201 West Preston Street,Room 299,Baltimore,MD,21201,us
1672,715,,1 North Charles Street,6Th Floor,Baltimore,MD,21201,us
1673,27,,201 W. Preston Street,,Baltimore,MD,21201,us
1674,1012,,500 N. Calvert Street,5Th Floor,Baltimore,MD,21202,us
1675,1297,,55 Wade Avenue,,Catonsville,MD,21228,us
1676,387,,Allegany County,Po Box 1745,Cumberland,MD,21501-1745,us
1677,1350,,"Anne Arundel County Health Department, Hd 23","1 Harry S. Truman Parkway, Suite 200",Annapolis,MD,21401,us
1678,1351,,"Baltimore City Health Access, Inc.","201 E. Baltimore Street, Suite 920",Baltimore,MD,21202,us
1679,1352,,Baltimore County Health Department,8501 Lasalle Rd. Suite 103,Towson,MD,21286,us
1680,1353,,P.O. Box 980,,Prince Frederick,MD,20678,us
1681,1354,,P.O. Box 10,,Denton,MD,21629,us
1682,392,,Carroll County,P.O. Box 845,Westminster,MD,21158,us
1683,393,,Cecil County,401 Bow Street,Elkton,MD,21921,us
1684,1355,,Charles County Dept. Of Health Department,P.O. Box 1050,White Plains,MD,20695,us
1685,1356,,Dorchester County Health Department,503-B Muir Street,Cambridge,MD,21613,us
1686,1357,,Frederick County Health Department,350 Montevue Lane,Frederick,MD,21702,us
1687,1358,,Garrett County Health Department,1025 Memorial Drive,Oakland,MD,21550,us
1688,1359,,Harford County Health Department,119 S. Hays Street,Bel Air,MD,21014-0797,us
1689,1360,,Howard County Health Department,7180 Columbia Gateway Drive,Columbia,MD,21046,us
1690,1361,,Kent County Health Department,125 S. Lynchburg Street,Chestertown,MD,21620,us
1691,1362,,Montgomery County Dhhs,1335 Piccard Drive,Rockville,MD,20850,us
1692,1363,,P.G. County Health Dept.,9314 Piscataway Road,Clinton,MD,20735,us
1693,1364,,Queen Anne's County Health Department,206 N. Commerce Street,Centreville,MD,21617,us
1694,1365,,Somerset County Health Department,7920 Crisfield Highway,Westover,MD,21871,us
1695,795,,P.O. Box 316,,Leonardtown,MD,20650-0316,us
1696,1366,,Talbot County Health Department,100 S. Hanson Street,Easton,MD,21601,us
1697,165,,Washington County Health Department,1302 Pennsylvania Avenue,Hagerstown,MD,21742,us
1698,1367,,Wicomico County Health Department,108 E. Main Street,Salisbury,MD,21801,us
1699,1368,,Berlin Health Department,9730 Healthway Drive,Berlin,MD,21811,us
1700,1369,,500 N. Calvert Street,"5Th Floor, Shillman Building",Baltimore,MD,21202,us
1701,1370,,201 West Preston Street,Third Floor,Baltimore,MD,21201-2399,us
1702,1371,,Spring Grove Center,55 Wade Avenue,Catonsville,MD,21228,us
1703,27,,Lab Administration,201 W. Preston Street,Baltimore,MD,21201,us
1704,27,,201 West Preston Street,,Baltimore,MD,21201-2399,us
1705,1372,,6550 Reisterstown Road,Reisterstown Road Plaza Mall,Baltimore,MD,21215,us
1706,1373,,Spring Grove Hospital Center,55 Wade Avenue,Baltimore,MD,21228,us
1707,1374,,P.O. Box 386,,Baltimore,MD,21203,us
1708,27,,Md. Dept Of Health And Mental Hygiene,"201 W. Preston Street, Room 210",Baltimore,MD,21201,us
1709,1375,,Southern Maryland,9400 Surratts Road,Cheltenham,MD,20623,us
1710,1297,,55 Wade Avenue,,Catonsville,MD,21228,us
1711,1376,,Po Box 1722,,Cumberland,MD,21502-1722,us
1712,1377,,P.O. Box 2358,,Salisbury,MD,21802,us
1713,1378,,611 S. Charles St.,4Th Floor,Baltimore,MD,21230,us
1714,1089,,630 W Fayette Street,,Baltimore,MD,21201-1585,us
1715,1379,,12039 Reisterstown Road,,Reisterstown,MD,21136,us
1716,1380,,703 Whitelock Street,,Baltimore,MD,21217,us
1717,821,,2901 Druid Park Drive,Suite 303,Baltimore,MD,21215,us
1718,1381,,570 Bellerive Road,Suite 109,Annapolis,MD,21409,us
1719,1382,,303 Maiden Choice Lane,,Catonsville,MD,21228,us
1720,1383,,P.O. Box 206,,Westminster,MD,21158,us
1721,1384,,3102 Lord Baltimore Drive,Suite 212,Baltimore,MD,21244,us
1722,1385,,"16220 S. Frederick Avenue, Suite 312",,Gaithersburg,MD,20877,us
1723,1386,,4351 Garden City  Drive,Suite 200,Hyattsville,MD,20785,us
1724,1387,,1111 East Cold Spring Lane,,Baltimore,MD,21239-3998,us
1725,1388,,2201 Argonne Drive,,Baltimore,MD,21218-1627,us
1726,1388,,2201 Argonne Drive,,Baltimore,MD,21218-1627,us
1727,1388,,Domestic Violence Legal Clinic,2201 Argonne Drive,Baltimore,MD,21218-1627,us
1728,1389,,P.O. Box 697,,Beltsville,MD,20704,us
1729,1388,,2201 Argonne Drive,,Baltimore,MD,21218-1627,us
1730,1388,,2201 Argonne Drive,,Baltimore,MD,21218-1627,us
1731,1388,,2201 Argonne Drive,,Baltimore,MD,21218-1627,us
1732,1390,,2417 East North Avenue,,Baltimore,MD,21213,us
1733,1391,,2701 St. Lo Drive,,Baltimore,MD,21213,us
1734,1392,,5600 Fishers Lane,Room 10-105,Rockville,MD,20857,us
1735,595,,101 S. Main Street,Suite 300,Bel Air,MD,21014,us
1736,1393,,20 West Courtland Street,Circuit Court Building,Bel Air,MD,21014,us
1737,10,,417 E. Fayette Street,Room 129,Baltimore,MD,21202,us
1738,1394,,1025 W. Nursery Road,,Linthicum,MD,21090,us
1739,1395,,9515 Belair Road,,Baltimore,MD,21236,us
1740,54,,6401 York Road,,Baltimore,MD,21212,us
1741,54,,6401 York Road,,Baltimore,MD,21212,us
1742,54,,6401 York Road,,Baltimore,MD,21212,us
1743,54,,6401 York Road,,Baltimore,MD,21212,us
1744,54,,6401 York Road,,Baltimore,MD,21212,us
1745,1396,,Catonsville District Office,910 Frederick Rd.,Catonsville,MD,21228,us
1746,116,,7701 Dunmanway,,Dundalk,MD,21222,us
1747,1397,,439 Eastern Avenue,,Baltimore,MD,21221,us
1748,1398,,130 Chartley Drive,,Reisterstown,MD,21136,us
1749,1399,,Drumcastle Center,6401 York Road,Baltimore,MD,21212,us
1750,54,,To Families  W/Children,6401 York Road,Baltimore,MD,21212,us
1751,54,,Emergency Food Assistance Program,6401 York Road,Baltimore,MD,21212,us
1752,54,,6401 York Road,,Baltimore,MD,21212,us
1753,54,,6401 York Road,,Baltimore,MD,21212,us
1754,54,,Children & Licensing,6401 York Road,Baltimore,MD,21212,us
1755,54,,6401 York Road,,Baltimore,MD,21212,us
1756,54,,6401 York Road,,Baltimore,MD,21212,us
1757,54,,6401 York Road,,Baltimore,MD,21212,us
1758,54,,6401 York Road,,Baltimore,MD,21212,us
1759,54,,6401 York Rd,,Baltimore,MD,21212,us
1760,54,,6401 York Road,,Baltimore,MD,21212,us
1761,54,,With Children,6401 York Road,Towson,MD,21212,us
1762,54,,6401 York Road,,Baltimore,MD,21212,us
1763,54,,6401 York Road,Room 1068,Baltimore,MD,21212,us
1764,54,,6401 York Road,,Baltimore,MD,21212,us
1765,54,,6401 York Road,,Baltimore,MD,21212,us
1766,1400,,1750 E. Fairmount Avenue,,Baltimore,MD,21231,us
1767,1401,,707 North Broadway,,Baltimore,MD,21205,us
1768,1400,,1750 E. Fairmount Avenue,,Baltimore,MD,21231,us
1769,1402,,7000 Tudsbury Road,,Baltimore,MD,21244,us
1770,1403,,"4406 Georgia Avenue, Nw",,Washington,DC,20011-7124,us
1771,1404,,7401 Leesburg Pike,,Falls Church,VA,22043,us
1772,1405,,351 Eastern Avenue,,Baltimore,MD,21224,us
1773,1406,,4406 Georgia Avenue Nw,,Washington,DC,20011,us
1774,1407,,1101 St. Paul Street,,Baltimore,MD,21202,us
1775,1408,,9180 Rumsey Road,Suite D-2,Columbia,MD,21045,us
1776,1409,,2901 Liberty Heights Avenue,,Baltimore,MD,21215,us
1777,1410,,Adult Education And English Language Services,701 E. Lombard Street,Baltimore,MD,21202,us
1778,1411,,4615 Park Heights Avenue,,Baltimore,MD,21215-6331,us
1779,1412,,8303 Liberty Road,,Baltimore,MD,21244-3125,us
1780,1413,,10400 Ridgeland Road,Suite 1,Cockeysville,MD,21030,us
1781,1414,,P.O. Box 1951,,Annapolis,MD,21404,us
1782,538,,Reverse Mortgage Counseling Program,251 West Street,Annapolis,MD,21401,us
1783,171,,"Martin Luther King,",1600 Rutland Avenue,Baltimore,MD,21213-2415,us
1784,1415,,Harlem Park Community School,1500 Harlem Avenue,Baltimore,MD,21217,us
1785,125,,1200 N. Collington Avenue,,Baltimore,MD,21213,us
1786,1416,,3510 Eldorado Avenue,,Baltimore,MD,21207,us
1787,1417,,2001 Park Avenue,,Baltimore,MD,21217,us
1788,1418,,1600 Havenwood Road,,Baltimore,MD,21218,us
1789,1419,,3814 Edmondson Avenue,,Baltimore,MD,21229,us
1790,1420,,1427 N. Caroline Street,,Baltimore,MD,21213,us
1791,1421,,915 Sterrett Street,,Baltimore,MD,21230,us
1792,1422,,5427 Belair Road,,Baltimore,MD,21206,us
1793,1423,,2920 Joseph Avenue,,Baltimore,MD,21225,us
1794,1424,,1211 Druid Hill Avenue,,Baltimore,MD,21217,us
1795,1425,,Beechfield United Methodist Church,541 S. Beechfield Avenue,Baltimore,MD,21229,us
1796,11,,Baltimore City Head Start,"2700 North Charles St., Suite 201",Baltimore,MD,21218,us
1797,1426,,Center,200 School Lane,Linthicum Heights,MD,21090,us
1798,1427,,1634 Guilford Ave,,Baltimore,MD,21202,us
1799,1428,,2113 E. Oliver Street,,Baltimore,MD,21213,us
1800,1429,,1114 Mount Street,,Baltimore,MD,21217,us
1801,1430,,1001 Fayette Street,,Baltimore,MD,21202,us
1802,1431,,1216 E. Baltimore Street,,Baltimore,MD,21202,us
1803,1432,,611 North Eutaw Street,,Baltimore,MD,21201,us
1804,1433,,222 North Carrollton Avenue,,Baltimore,MD,21223,us
1805,1434,,1601 Bowman's Farm Road,(Exit 56 Off I-70),Frederick,MD,21701,us
1806,557,,6 St. Paul Street,,Baltimore,MD,21202-1614,us
1807,1435,,"6601 Ritchie Highway, N.E.",,Glen Burnie,MD,21062,us
1808,1436,,2450 Cambridge Beltway,,Cambridge,MD,21613-3038,us
1809,1437,,Action Center,P.O. Box 637,Cambridge,MD,21613-3038,us
1810,1438,,10502 Greensboro Road,,Denton,MD,21629,us
1811,1439,,"Delmarva Community Services, Inc.",2450 Cambridge Beltway,Cambridge,MD,21613,us
1812,1440,,Rosewood Lane,,Owings Mills,MD,21117,us
1813,1441,,1500 Riverside Drive,,Salisbury,MD,21801,us
1814,353,,312 Marshall Avenue,Suite 700,Laurel,MD,20707,us
1815,1442,,1360 Marshall Street,,Hagerstown,MD,21740,us
1816,1443,,4415 Queensbury Road,,Riverdale,MD,20737,us
1817,1377,,926 Snow Hill Road,,Salisbury,MD,21804,us
1818,1444,,1380 Marshall Street,,Hagerstown,MD,21740,us
1819,1445,,4000 Annapolis Road,Suite 105,Baltimore,MD,21227,us
1820,1446,,Belair-Edison Family Health Center,3120 Erdman Avenue,Baltimore,MD,21213,us
1821,1447,,3612 Falls Road,,Baltimore,MD,21211,us
1822,1448,,3509 Eastern Avenue,,Baltimore,MD,21224,us
1823,1449,,Health Center,1245 Eastern Boulevard,Essex,MD,21221,us
1824,1450,,2323 Orleans Street,,Baltimore,MD,21224,us
1825,175,,900 Caton Avenue,Mailbox # 081,Baltimore,MD,21229,us
1826,1451,,219 West Patrick Street,Suite A,Frederick,MD,21701,us
1827,1452,,Treatment Center,Po Box 9,Jefferson,MD,21755,us
1828,1453,,Po Box 1722,,Cumberland,MD,21502-1722,us
1829,1454,,42 North Main Street,Suite 204,Bel Air,MD,21014,us
1830,1455,,P. O. Box 396,,Ellicott City,MD,21041-0396,us
1831,810,,9030 Route 108,,Columbia,MD,21045,us
1832,1456,,P.O. Box 6815,,Baltimore,MD,21285-6815,us
1833,1457,,2629 Huntingdon Ave. (Food Pantry),335 W. 27Th St. (Thrift Shop),Baltimore,MD,21211,us
1834,1458,,Wilde Lake Village Center,"10451 Twin Rivers Road, Suite 247",Columbia,MD,21044,us
1835,849,,2500 E. Northern Parkway,,Baltimore,MD,21214,us
1836,1459,,4207 Frederick Avenue,,Baltimore,MD,21229,us
1837,1460,,P.O. Box 2298,,Baltimore,MD,21203,us
1838,1460,,,P.O. Box 2298,Baltimore,MD,21203,us
1839,1461,,111431 Cronhill Drive,Suite C,Owings Mills,MD,21117,us
1840,1462,,3701 4Th Street,,Baltimore,MD,21225,us
1841,1463,,P.O. Box 13004,,Baltimore,MD,21203,us
1842,1464,,4120 Patterson Avenue,,Baltimore,MD,21215,us
1843,1464,,4120 Patterson Avenue,,Baltimore,MD,21215,us
1844,246,,3319 W. Belvedere Avenue,,Baltimore,MD,21215,us
1845,1465,,217 N. Warwick Avenue,,Baltimore,MD,21223,us
1846,1466,,2217 St. Paul Street,,Baltimore,MD,21218,us
1847,396,,1025 Memorial Drive,,Oakland,MD,21550,us
1848,396,,1025 Memorial Drive,,Oakland,MD,21550,us
1849,396,,1025 Memorial Drive,,Oakland,MD,21550,us
1850,396,,Healthy Families,1025 Memorial Drive,Oakland,MD,21550,us
1851,396,,1025 Memorial Drive,Room 120,Oakland,MD,21550,us
1852,396,,Vital Records,1025 Memorial Drive,Oakland,MD,21550,us
1853,1467,,241 East Main Street,,Kitzmiller,MD,21538,us
1854,396,,1025 Memorial Drive,,Oakland,MD,21550,us
1855,396,,1025 Memorial Drive,,Oakland,MD,21550,us
1856,1468,,"12 North Liberty Street, Suite 101",,Cumberland,MD,21502,us
1857,1469,,8334 Veterans Hwy.,Suite 1,Millersville,MD,21108,us
1858,844,,711 W. 40Th Street,Suite 440,Baltimore,MD,21211-2196,us
1859,1470,,7001 Johnnycake Road,Suite 204,Woodlawn,MD,21244,us
1860,1471,,8615 Ridgely's Choice Drive,Suite 205,Perry Hall,MD,21236-3028,us
1861,1472,,359 Manchester Road,,Westminster,MD,21157,us
1862,44,,5303 Spectrum Drive,Suite I,Frederick,MD,21703,us
1863,1473,,"315 Dawson Avenue, Suite B",,Oakland,MD,21550,us
1864,1474,,121A Industry Lane,Suite 6,Forest Hill,MD,21050,us
1865,1475,,5565 Sterrett Place,Suite 314,Columbia,MD,21044,us
1866,1476,,110 West Road,Suite 440,Towson,MD,21204-2364,us
1867,1477,,707 Conservation Lane,Suite 200,Gaithersburg,MD,20878-2982,us
1868,974,,1777 Reisterstown Road,Suite 384,Pikesville,MD,21208-1393,us
1869,1478,,931-B Sweeny Drive,,Hagerstown,MD,21740,us
1870,1479,,2130 Smith Avenue,,Lansdowne,MD,21227,us
1871,1064,,7910 Woodmont Avenue,Suite 1200,Bethesda,MD,2081-7022,us
1872,1480,,P.O. Box 6003,,Rockville,MD,20849-6003,us
1873,1481,,8855 Annapolis Road,Suite 110,Lanham,MD,20706-2924,us
1874,1482,,2401 St. Paul Street,,Baltimore,MD,21218,us
