id,location_id,address_1,address_2,city,state_province,postal_code,country
616544,50664374,643 Tunbridge Road,,Baltimore,MD,21212,US
616544,50664375,643 Tunbridge Road,,Baltimore,MD,21212,US
168299,55287572, Eastside District Court,1400 East North Avenue,Baltimore,MD,21213,US
168299,55291286," Eastside District Court, Early Resolution Court",1400 East North Avenue,Baltimore,MD,21213,US
167244,55291290,1 Center Plaza,120 West Fayette Street,Baltimore,MD,21201,US
167495,55291296,1 North Charles Street,5th Floor,Baltimore,MD,21201,US
166968,55291323,1 North Charles Street,Suite 2400,Baltimore,MD,21201,US
166968,55291320,1 North Charles Street,Suite 2400,Baltimore,MD,21201,US
167644,55291317,1 North Charles Street,Suite 200,Baltimore,MD,21201,US
167494,55291301,1 North Charles Street,6th Floor,Baltimore,MD,21201,US
168443,58285903,1 North Charles Street,,Baltimore,MD,21201,US
167048,55291329,10 Cherry Hill Road,,Baltimore,MD,21225,US
168011,55291331,10 East Baltimore Street,,Baltimore,MD,21202,US
167970,55291334,10 East Eager Street,,Baltimore,MD,21202,US
167832,55291337,10 North Greene Street,,Baltimore,MD,21201,US
167832,55291339,10 North Greene Street,,Baltimore,MD,21201,US
167094,55291341,10 North Payson Street,,Baltimore,MD,21217,US
167094,55291345,10 North Pulaski Street,,Baltimore,MD,21223,US
168046,55291347,10 South Howard Street,3rd Floor,Baltimore,MD,21201,US
167809,55291354,10 South Howard Street,Suite 6220,Baltimore,MD,21201,US
167693,55291352,10 South Howard Street,6th Floor,Baltimore,MD,21201,US
168612,55291350,10 South Howard Street,"5th Floor, City Crescent Building",Baltimore,MD,21201-2505,US
167226,55291357,100 Community Place,1st Floor,Baltimore,MD,21032,US
169142,55291360,100 North Calvert Street,Room 104,Baltimore,MD,21202,US
201133,55291362,100 North Chester Street,,Baltimore,MD,21231,US
167043,55291366,100 North Holiday Street,Room 626,Baltimore,MD,21202,US
167922,55291368,100 North Holliday Street,,Baltimore,MD,21202,US
401849,55289963,100 Saint Helena Avenue,,Baltimore,MD,21222,US
168443,55291384,100 South Charles Street,"Tower 2, 8th Floor",Baltimore,MD,21201,US
168521,55291382,100 South Charles Street,9th Floor,Baltimore,MD,21201,US
168396,55291386,100 South Washington Street,,Baltimore,MD,21231,US
167210,55291393,1000 Cathedral Street,,Baltimore,MD,21201,US
168523,55291396,1000 East Eager Street,,Baltimore,MD,21202,US
168722,55291398,1000 East Eager Street,3rd Floor,Baltimore,MD,21202,US
168538,55291400,1000 East Joppa Road,Apartment 203,Baltimore,MD,21286,US
0,168632,1209 North Calvert Street,,Baltimore,MD,21202,US
168443,55291412,1001 East Fayette Street,,Baltimore,MD,21202,US
168443,55291409,1001 East Fayette Street,,Baltimore,MD,21202,US
168443,55291407,1001 East Fayette Street,,Baltimore,MD,21202,US
168443,55291404,1001 East Fayette Street,,Baltimore,MD,21202,US
201133,55291417,1001 Eastern Avenue,2nd Floor,Baltimore,MD,21202,US
201133,55291415,1001 Eastern Avenue,2nd Floor,Baltimore,MD,21202-4079,US
168575,55291425,1001 Saint Paul Street,,Baltimore,MD,21202,US
167827,55291428,1001 West Pratt Street,,Baltimore,MD,21223,US
167827,55291431,1001 West Pratt Street,2nd Floor,Baltimore,MD,21223,US
260285,55291433,101 North Gay Street,Room E,Baltimore,MD,21202,US
167308,55291436,101 West 23rd Street,,Baltimore,MD,21218,US
167524,55291443,101 West 24th Street,,Baltimore,MD,21218-5024,US
167524,55291446,101 West 24th Street,,Baltimore,MD,21218,US
167521,55291449,101 West Lombard Street,8th Floor,Baltimore,MD,21201,US
167034,55291455,101 West Mount Royal Avenue,,Baltimore,MD,21201,US
167034,55291452,101 West Mount Royal Avenue,,Baltimore,MD,21201,US
167513,55291458,1010 Park Avenue,Suite 102 & 110,Baltimore,MD,21201,US
168577,55289969,1012 North Point Road,,Baltimore,MD,21224,US
167390,55291464,1029 East Baltimore Street,,Baltimore,MD,21202,US
168248,55291470,103 South Gay Street,Room 207,Baltimore,MD,21202-4061,US
167048,55291476,1034 North Mount Street,,Baltimore,MD,21217,US
168626,55291488,106 West Clay Street,,Baltimore,MD,21201,US
168313,55291493,108 West Centre Street,,Baltimore,MD,21201,US
44865489,55291496,11 E Mt Royal Avenue,Lower level,Baltimore,MD,21202,US
182559,55291498,11 West Mount Royal Avenue,,Baltimore,MD,21201,US
1294078,55291502,11 West Mount Vernon Place,Suite 4,Baltimore,MD,21201,US
1739551,55291508,110 Townsend Avenue,,Baltimore,MD,21225,US
167227,55291511,110 West Lafayette Avenue,,Baltimore,MD,21217,US
167922,55291514,1100 Bolton Street,1st Floor,Baltimore,MD,21201,US
26878053,55291516,1100 East Northern Parkway,,Baltimore ,MD,21239,US
167513,55291521,1100 North Eutaw Street,Room 121,Baltimore,MD,21201,US
167496,55291527,1100 North Eutaw Street,Room 606,Baltimore,MD,21201,US
167496,55291524,1100 North Eutaw Street,Room 508,Baltimore,MD,21201,US
201133,55291530,1101 North Point Boulevard,Suite 112,Baltimore,MD,21224,US
168212,55291532,1101 St. Paul Street,Suite 305,Baltimore,MD,21202,US
167360,55291537,1104 West 36th Street,,Baltimore,MD,21211,US
168875,55291542,111 North Calvert Street,,Baltimore,MD,21202,US
169144,55291547,111 North Calvert Street,"Clarence Mitchell, Jr. Courthouse",Baltimore,MD,21202,US
169144,55291545,111 North Calvert Street,,Baltimore,MD,21202,US
168474,55291550,111 South Calvert Street,Suite 1700,Baltimore,MD,21202,US
167148,55291553,111 West Mulberry Street,,Baltimore,MD,21201,US
169014,55291555,11101 Mccormick Road,Suite 102,Baltimore,MD,21031,US
167383,55291561,1111 North Charles Street,,Baltimore,MD,21201,US
167032,55291567,1114 Cathedral Street,,Baltimore,MD,21201-5515,US
167675,55291570,1114 North Calvert Street,,Baltimore,MD,21202-3875,US
167766,55291573,1114 North Mount Street,,Baltimore,MD,21217,US
167148,55291576,1118 Light Street,Suite  200,Baltimore,MD,21230,US
167923,55291582,1118 Ward Street,,Baltimore,MD,21230,US
168862,55291588,1125 North Patterson Park Avenue,,Baltimore,MD,21213,US
168862,55291590,1125 North Patterson Park Avenue,,Baltimore,MD,21213,US
358097,55291604,113 South Broadway,,Baltimore,MD,21231,US
166954,55291609,1142 North Fulton Avenue,,Baltimore,MD,21217,US
168054,55291612,116 North Paca Street,,Baltimore,MD,21201,US
167880,55291618,119 East 25th Street,,Baltimore,MD,21218,US
167050,55291624,120 East Baltimore Street,9th Floor,Baltimore,MD,21202,US
167050,55291627,120 East Baltimore Street,9th Floor,Baltimore,MD,21202,US
167766,55291629,120 North Front Street,,Baltimore,MD,21202-4804,US
167827,55291640,120 Penn Street,University of Maryland Department of Pediatrics,Baltimore,MD,21201,US
167827,55291638,120 Penn Street,1st Floor,Baltimore,MD,21201,US
167827,55291635,120 Penn Street,1st Floor,Baltimore,MD,21201,US
167827,55291631,120 Penn Street,,Baltimore,MD,21201,US
167244,55291642,120 W. Fayette St.,,Baltimore,MD,21201,US
167574,55291647,120 West North Avenue,,Baltimore,MD,21201,US
23505117,55291658,1201 Druid Hill Avenue,,Baltimore ,MD,21217,US
168639,55291661,1201 East Coldspring Lane,,Baltimore,MD,21239,US
167723,55289972,1201 Maple Avenue,,Baltimore,MD,21227-2639,US
11920917,55289975,1206 Chesaco Avenue,,Baltimore,MD,21237,US
168632,55291668,1209 North Calvert Street,,Baltimore,MD,21202,US
167941,55291671,1211 Cathedral Street,,Baltimore,MD,21201,US
167047,55291676,1211 Cathedral Street,3rd Floor,Baltimore,MD,21201-5516,US
167941,55291674,1211 Cathedral Street,,Baltimore,MD,21201-5585,US
168048,55291679,1211 Druid Hill Avenue,,Baltimore,MD,21217,US
24418029,55291682,1211 North Chester Street,,Baltimore,MD,21213,US
167524,55291684,1212 North Wolfe Street,,Baltimore,MD,21213,US
168402,55291688,1212 North Wolfe Street,,Baltimore,MD,21213,US
8892260,55291692,1215 East Fort Avenue,Suite 104,Baltimore,MD,21230,US
1830800,55291695,1217 West North Avenue,,Baltimore,MD,21217,US
167045,55291698,1223 West Pratt Street,,Baltimore,MD,21223,US
167045,55291704,1223 West Pratt Street,,Baltimore,MD,21223,US
167045,55291701,1223 West Pratt Street,,Baltimore,MD,21223,US
167045,55291706,1223 West Pratt Street,,Baltimore,MD,21223,US
9061262,55291709,1224 Wicomico Street,,Baltimore,MD,21230,US
167042,55291714,1225 West Pratt Street,,Baltimore,MD,21223,US
167042,55291712,1225 West Pratt Street,,Baltimore,MD,21223,US
167827,55291718,1227 West Pratt Street,,Baltimore,MD,21223,US
167069,55291720,1228 East Baltimore Street,,Baltimore,MD,21202,US
219399,55291722,1235 East Monument Street,,Baltimore,MD,21202,US
167762,55291727,13 South Poppleton Street,,Baltimore,MD,21201,US
168455,55291731,1300 North Eden Street,,Baltimore,MD,21213,US
168486,55291733,1300 North Fulton Avenue,,Baltimore,MD,21217,US
168486,55291738,1300 North Fulton Avenue,,Baltimore,MD,21217,US
167524,55291390,1300 West 36th Street ,,Baltimore,MD,21218,US
168600,55291744,1301 Mcculloh Street,,Baltimore,MD,21217,US
167883,55291746,1301 Woodbourne Avenue,,Baltimore,MD,21239-3399,US
167883,55291749,1301 Woodburne Ave.,,Baltimore,MD,21239,US
167511,55291752,1313 West Old Cold Spring Lane,,Baltimore,MD,21209,US
167438,55291758,1351 South Clinton Street,,Baltimore,MD,21224,US
167690,55291761,1355 Homestead Street,,Baltimore,MD,21218,US
168394,55291763,14 South Broadway,,Baltimore,MD,21231,US
167718,55291773,140 West West Street,,Baltimore,MD,21230,US
167514,55291775,1400 Cherry Hill Road,,Baltimore,MD,21225,US
168362,55291778,1400 East Federal Street,,Baltimore,MD,21213,US
168401,55291784,1400 East Lombard Street,,Baltimore,MD,21231,US
167825,55291789,1401 North Charles Street,Suite D,Baltimore,MD,21201,US
167641,55291791,1401 Pennsylvania Avenue,,Baltimore,MD,21217,US
169021,55291794,1401 Severn Street,Suite 200,Baltimore,MD,21230,US
167531,55291802,1407 Bolton Street,Memorial Episcopal Church,Baltimore,MD,21217,US
168435,55291806,1427 Pennsylvania Avenue,,Baltimore,MD,21217,US
167079,55291808,1429 Mcculloh Street,,Baltimore,MD,21217,US
168095,55291811,1430 Joh Avenue,Suite A,Baltimore,MD,21227,US
167715,55291815,1435 South Hanover Street,,Baltimore,MD,21230,US
168079,55289979,1498 Reisterstown Road,Suite 324,Baltimore,MD,21208,US
167394,55291826,1500 Gorsuch Avenue,,Baltimore,MD,21218,US
167394,55291823,1500 Gorsuch Avenue,,Baltimore,MD,21218,US
167485,55291836,1500 Union Ave,Suite 2500,Baltimore,MD,21211,US
203786,55291839,1500 Union Avenue,Suite 117,Baltimore,MD,21211,US
167485,55291845,1500 Union Avenue,Suite 2500,Baltimore,MD,21211,US
167497,55291842,1500 Union Avenue,Suite 2000,Baltimore,MD,21211,US
168656,55291856,1500 Union Avenue,Suite 2700,Baltimore,MD,21211,US
188179,55291853,1500 Union Avenue,Suite 2600,Baltimore,MD,21211,US
167485,55291850,1500 Union Avenue,Suite 2500,Baltimore ,MD,21211,US
2698485,55291858,"1500 Union Avenue, 2100",,Baltimore,MD,21211,US
167784,55291862,1501 Division Street,,Baltimore,MD,21217,US
167736,55291864,1501 East Oliver Street,,Baltimore,MD,21213-2999,US
167102,55291872,1501 Mcculloh Street,,Baltimore,MD,21217,US
167102,55291870,1501 Mcculloh Street,,Baltimore,MD,21217,US
167102,55291875,1501 Mcculloh Street,,Baltimore,MD,21217,US
168191,55291877,1501 North Dukeland Street,,Baltimore,MD,21216,US
168191,55291883,1501 North Dukeland Street,,Baltimore,MD,21216,US
168191,55291880,1501 North Dukeland Street,,Baltimore,MD,21216,US
168191,55291893,1501 North Dukeland Street,,Baltimore,MD,21216,US
168191,55291891,1501 North Dukeland Street,,Baltimore,MD,21216,US
168191,55291888,1501 North Dukeland Street,,Baltimore,MD,21216,US
168191,55291885,1501 North Dukeland Street,,Baltimore,MD,21216,US
168191,55291899,1501 North Dukeland Street,,Baltimore,MD,21216,US
168191,55291896,1501 North Dukeland Street,,Baltimore,MD,21216,US
168523,55291905,1501 South Clinton Street,Suite 200,Baltimore,MD,21224,US
28766236,55291908,1501 West Lexington Street,,Baltimore,MD,21223,US
167784,55291915,1501 West Saratoga Street,,Baltimore,MD,21223,US
167784,55291912,1501 West Saratoga Street,,Baltimore,MD,21223,US
168751,55289982,1506 Woodlawn Drive,Suite C,Baltimore,MD,21207,US
167524,55291920,1510 West Lafayette Avenue,,Baltimore,MD,21217,US
167784,55291923,1515 West North Avenue,,Baltimore,MD,21217,US
168443,55291925,1515 West North Avenue,,Baltimore,MD,21217,US
167346,55291929,1517 East North Avenue,,Baltimore,MD,21213,US
167045,55291934,1525 North Calvert Street ,,Baltimore,MD,21202,US
167045,55291931,1525 North Calvert Street,,Baltimore,MD,21202,US
168355,55291937,1530 Presstman Street,,Baltimore,MD,21217,US
167737,55291940,1542 North Gilmor Street,,Baltimore,MD,21217,US
167766,55291944,1546 North Fremont Avenue,,Baltimore,MD,21217,US
167091,55291949,16 West 25th Street,Suite 103,Baltimore,MD,21218,US
167791,55291961,1601 Druid Hill Avenue,,Baltimore,MD,21217,US
167900,55291969,1609 Druid Hill Avenue,,Baltimore,MD,21217,US
167900,55291971,1609 Druid Hill Avenue,,Baltimore,MD,21217,US
167048,55291974,1620 Edison Highway,,Baltimore,MD,21213,US
166957,55291977,1621 Druid Hill Avenue,,Baltimore,MD,21217,US
31463215,55291982,1635 West Pratt Street,,Baltimore,MD,21223,US
167148,55291988,17 West Franklin Street,,Baltimore,MD,21201,US
167766,55291985,17 West Franklin Street,,Baltimore,MD,21201,US
168877,55291990,17 West Mulberry Street,,Baltimore,MD,21201,US
169001,55291993,1700 Coldspring Lane,,Baltimore,MD,21251,US
169051,55291996,"1700 East Coldspring Lane, Truth Hall 111",Morgan State University,Baltimore,MD,21251,US
168387,55292000,1700 North Caroline Street,,Baltimore,MD,21213,US
167904,55292003,1700 North Caroline Street,,Baltimore,MD,21213,US
12477699,55292017,1700 Ridgely Street,,Baltimore,MD,21230,US
167605,55292022,1701 Madison Avenue,,Baltimore,MD,21217,US
167605,55292020,1701 Madison Avenue,,Baltimore,MD,21217,US
169149,55292025,1701 Madison Avenue ,4th Floor,Baltimore,MD,21217,US
167245,55292036,1701 North Gay Street,,Baltimore,MD,21213,US
167245,55292040,1701 North Gay Street,,Baltimore,MD,21213,US
167271,55292042,1705 West Fayette Street,,Baltimore,MD,21223-1708,US
167474,55292044,1706 Eastern Avenue,,Baltimore,MD,21231,US
167827,55292048,1708 West Rogers Avenue,,Baltimore,MD,21209,US
169096,55292050,1708 Whitehead Road,Suite 100,Baltimore,MD,21207,US
168715,55292056,1714 East 33rd Street,,Baltimore,MD,21218,US
167435,55292059,1717 East Monument Street,,Baltimore,MD,21287,US
54843697,55291781,1731 East Chase Street,,Baltimore,MD,21213,US
374366,55292082,1736 North Payson Street,,Baltimore,MD,21217,US
167480,55292089,175 West Ostend Street,Suite C-2,Baltimore,MD,21230,US
168259,55292086,175 West Ostend Street,Suite 100,Baltimore,MD,21230,US
168881,55292100,1750 East Fairmount Avenue,2nd Floor,Baltimore,MD,21231,US
167442,55292093,1750 East Fairmount Avenue,,Baltimore,MD,21231,US
167494,55292130,1770 Ashland Avenue,,Baltimore,MD,21205,US
168080,58121265,1777 Reisterstown Road,Suite 206 West ,Baltimore,MD,21208,US
56755788,56938855,1800 N. Charles Street,Suite 810,Baltimore,MD,21201,US
167697,55292132,1800 North Charles Street,Suite 404,Baltimore,MD,21201,US
166957,55292138,1800 North Charles Street,Suite 700,Baltimore,MD,21201,US
166957,55292135,1800 North Charles Street,Suite 700,Baltimore,MD,21201,US
167435,55292141,1800 Orleans Street,,Baltimore,MD,21287,US
167608,55292146,1800 Penrose Avenue,,Baltimore,MD,21223,US
167813,55292163,1800 Washington Boulevard,Suite 340,Baltimore,MD,21230,US
167813,55292154,1800 Washington Boulevard,Suite 340,Baltimore,MD,21230,US
167813,55292151,1800 Washington Boulevard,Suite 340,Baltimore,MD,21230,US
358732,55292148,1800 Washington Boulevard,,Baltimore,MD,21230,US
358719,55292170,1800 Washington Boulevard,Suite 755,Baltimore ,MD,21230,US
167327,55292166,1800 Washington Boulevard,Suite 410-A,Baltimore,MD,21230,US
167639,55292173,1814 Maryland Avenue,,Baltimore,MD,21201,US
168382,55292176,1821 North Smallwood Street,,Baltimore,MD,21216-7512,US
169023,55289986,"1829 Reisterstown Road, Suite 350",,Baltimore,MD,21208,US
167470,55292180,1840 Aisquith Street,,Baltimore,MD,21202,US
167048,55292183,1900 Argonne Drive,,Baltimore,MD,21218,US
168524,55292186,1900 Eagle Drive,,Baltimore,MD,21207,US
204262,55292189,1900 East Northern Parkway,Suite 201,Baltimore,MD,21239,US
12830652,55292195,1900 North Broadway,Suite 100,Baltimore,MD,21213,US
56406496,56406500,"1900 North Howard Street, Suite 300",,Baltimore ,MD,21218,US
167044,55292206,1901 Pennsylvania Avenue,,Baltimore,MD,21217,US
167902,55292209,1901 Pennsylvania Avenue,,Baltimore,MD,21201,US
168676,55292215,1947 Pennsylvania Avenue,,Baltimore,MD,21217,US
167262,55289990,2 North Dundalk Avenue,2nd Floor,Baltimore,MD,21222,US
167471,55292218,2 North Kresson Street,,Baltimore,MD,21224,US
168671,55292221,20 South Charles Street,6th Floor,Baltimore,MD,21202,US
38339526,55292231,20 South Charles Street,Suite 800,Baltimore,MD,21201,US
168399,55292235,20 West Easger Street,3rd Floor,Baltimore,MD,21201,US
168752,55292238,20 West Montgomery Street,,Baltimore,MD,21230,US
368000,55292242,200 East Lexington Street,Suite 501,Baltimore,MD,MD 21202,US
167049,55292248,200 East North Avenue,Room 106,Baltimore,MD,21202,US
167049,55292245,200 East North Avenue,,Baltimore,MD,21202,US
167049,55292254,200 East North Avenue,Room 204 B,Baltimore,MD,21202,US
167049,55292250,200 East North Avenue,Room 204,Baltimore,MD,21202,US
167566,55292257,200 East Wells Street,,Baltimore,MD,21230,US
37337784,55292260,200 Holliday Street,Room 8,Baltimore,MD,21202,US
168443,55292263,200 Holliday Street,Suite 600,Baltimore,MD,21202,US
167585,55292265,200 Saint Paul Place,16th Floor,Baltimore,MD,21202-2021,US
168140,55292270,200 St. Paul Place,Suite 2700,Baltimore,MD,21202,US
167513,55292272,200 West Baltimore Street,,Baltimore,MD,21201,US
39378823,55292278,2000 East Belvedere Avenue,,Baltimore,MD,21239,US
167045,55292284,2000 North Broadway,,Baltimore,MD,21213,US
167882,55292289,2000 North Broadway,3rd Floor,Baltimore,MD,21213,US
167495,55293144,2000 North Broadway Street,2nd and 3rd Floors,Baltimore,MD,21213,US
167094,55292291,2000 West Baltimore Street,,Baltimore,MD,21223,US
167382,55292299,2000 West Baltimore Street,Suite 247,Baltimore,MD,21223,US
167094,55292295,2000 West Baltimore Street,,Baltimore,MD,21223,US
167094,55292293,2000 West Baltimore Street,,Baltimore,MD,21223,US
259792,55292304,2001 West North Avenue,,Baltimore,MD,21217,US
166991,55292309,2002 Clipper Park Road,Suite 110,Baltimore,MD,21211,US
166991,55292307,2002 Clipper Park Road,Suite 110,Baltimore,MD,21211,US
167187,55292312,2005 East Chase Street,,Baltimore,MD,21213-3325,US
201133,55289993,201 Back River Neck Road,Suite 100,Baltimore,MD,21221,US
167922,55292316,201 East Baltimore Street ,,Baltimore ,MD,21202,US
167494,55292322,201 East Baltimore Street,Suite 1000,Baltimore,MD,21202,US
167953,55292320,201 East Baltimore Street,11th Floor,Baltimore,MD,21202,US
168126,55292326,201 East University Parkway,,Baltimore,MD,21218,US
167042,55292329,201 North Aisquith Street,,Baltimore,MD,21202,US
168653,55292339,201 North Charles Street,Suite 200,Baltimore,MD,21201,US
167521,55292337,201 North Charles Street ,Suite 1400,Baltimore,MD,21201,US
167392,55292334,201 North Charles Street,Suite 1104,Baltimore,MD,21201-4403,US
182028,55292445,"201 North Charles Street, 3rd Floor",,Baltimore,MD,21201,US
34283650,55292345,"201 North Charles Street, Suite 920",,Baltimore,MD,21201,US
167643,55292348,201 St. Paul Place,,Baltimore,MD,21202,US
167494,55292350,201 West Preston Street,,Baltimore,MD,21201,US
167494,55292363,201 West Preston Street,5th Floor,Baltimore,MD,21201,US
167494,55292358,201 West Preston Street,3rd Floor,Baltimore,MD,21201-2399,US
167494,55292372,201 West Preston Street,Suite 423A,Baltimore,MD,21201,US
167494,55292369,201 West Preston Street,Room 299,Baltimore,MD,21201,US
167494,55292366,201 West Preston Street,Room 210,Baltimore,MD,21201,US
167882,55292375,2013 East Monument Street,,Baltimore,MD,21205,US
167832,55292391,209 West Fayette Street ,2nd Floor,Baltimore ,MD,21201,US
167392,55292388,209 West Fayette Street,2nd Floor,Baltimore,MD,21201,US
167832,55292384,209 West Fayette Street,,Baltimore,MD,21201,US
166962,55292394,21 West 25th Street,,Baltimore,MD,21218,US
166962,55292396,21 West 25th Street,,Baltimore,MD,21218,US
56406555,56406557,210 East Lexington Street,Suite 104,Baltimore,MD,21202,US
168443,55292402,210 Guilford Avenue,3rd Floor,Baltimore,MD,21202,US
167813,55292404,2100 Ashland Avenue,,Baltimore,MD,21205,US
167663,55292407,2100 East Madison Street,,Baltimore,MD,21205,US
168598,55292412,2100 Eutaw Place,,Baltimore,MD,21217,US
1741086,55292414,2100 Liberty Heights Avenue,,Baltimore,MD,21217,US
167578,55292420,2100 North Monroe Street,,Baltimore,MD,21217,US
616558,55292423,2104 Maryland Avenue,,Baltimore,MD,21218,US
167599,55292425,2108 North Charles Street,,Baltimore,MD,21218,US
168443,55292429,211 East 25th Street,,Baltimore,MD,21218,US
167281,55292432,2110 Mura Street,,Baltimore,MD,21213,US
616562,55292435,2117 Maryland Avenue,,Baltimore,MD,21218,US
169080,55292440,2140 Mcculloh Street,,Baltimore,MD,21217,US
169061,55292442,217 East Redwood Street,Suite 1500,Baltimore,MD,21202,US
169061,55289415,217 East Redwood Street,Suite 1500,Baltimore,MD,21202,US
166992,55292447,"217 East Redwood Street, 11th Floor",,Baltimore,MD,21202,US
182028,55292450,"217 East Redwood Street, Suite 1500",,Baltimore,MD,21202,US
167068,55292458,217 North Warwick Avenue,,Baltimore,MD,21223,US
182683,55292460,218 East Lexington Street,Suite 401,Baltimore,MD,21202,US
168350,55292465,218 North Charles Street,Suite 301,Baltimore,MD,21201,US
168616,55290002,218 North Charles Street,Suite 220,Baltimore,MD,21201,US
167461,55292467,218 North Paca Street,,Baltimore,MD,21201,US
167249,55292470,219 North Chester Street,,Baltimore,MD,21231,US
168585,55292473,22 Light Street,6th Floor,Baltimore,MD,21202,US
167827,55292475,22 South Greene Street,,Baltimore,MD,21201,US
167828,55292478,220 Arch Street,Office Level # 1,Baltimore,MD,21201,US
168581,55292481,2200 Garrison Boulevard,Suite 205,Baltimore,MD,21216,US
167498,55292483,2200 Halethorpe Farms Road,,Baltimore,MD,21227,US
167827,55292489,2200 Kernan Drive,,Baltimore,MD,21207,US
168516,55290005,2200 Kernan Drive,,Baltimore,MD,21207-6665,US
168508,55292492,2200 North Monroe Street ,,Baltimore,MD,21217,US
167400,55292508,2201 Argonne Drive,,Baltimore,MD,21218,US
167400,55292505,2201 Argonne Drive,,Baltimore,MD,21218-1627,US
167400,55292502,2201 Argonne Drive,,Baltimore,MD,21218-1627,US
167400,55292499,2201 Argonne Drive,,Baltimore,MD,21218-1627,US
167400,55292496,2201 Argonne Drive,,Baltimore,MD,21218-1627,US
358851,55292513,2201 Garrison Boulevard,,Baltimore,MD,21216,US
168649,55292518,2201 North Monroe Street,,Baltimore,MD,21217,US
168649,55292516,2201 North Monroe Street,,Baltimore,MD,21217,US
167524,56074995,2201 Pioneer Avenue,,Baltimore,MD,21214,US
167048,55292520,2201 West Coldspring Lane,,Baltimore,MD,21209,US
168223,55292523,2209 Park Avenue,,Baltimore,MD,21217-4847,US
167792,55292531,2214 Evergreen Street,,Baltimore,MD,21216,US
167345,55292533,222 East Redwood Street,,Baltimore,MD,21202,US
168583,55292535,2222 East Jefferson Street,,Baltimore,MD,21205,US
168270,55292539,2224 East Fayette Street,,Baltimore,MD,21231,US
168557,55292551,2225 North Charles Street,,Baltimore,MD,21218,US
168557,55292542,2225 North Charles Street,,Baltimore,MD,21218,US
167049,55292554,2235 North Fulton Avenue,,Baltimore,MD,21217,US
167739,55292557,226 Washburn Avenue,,Baltimore,MD,21225-2099,US
167148,55292560,228 West Lexington Street,Suite 220,Baltimore,MD,21201,US
169074,55292563,2300 Garrison Boulevard,Suite 104,Baltimore,MD,21216,US
167882,55292569,2300 Garrison Boulevard,Suite 290,Baltimore,MD,21216,US
169036,55292566,2300 Garrison Boulevard,Suite 140,Baltimore,MD,21216,US
168580,55292572,2300 North Charles Street,4th Floor,Baltimore,MD,21218,US
167513,55292575,2301 Argonne Drive,,Baltimore,MD,21218-1696,US
167519,55292581,2301 Argonne Drive,Suite T-17,Baltimore,MD,21218,US
167839,55292578,2301 Argonne Drive,,Baltimore,MD,21218,US
167524,56074979,2301 Gwynns Falls Parkway,,Baltimore,MD,21217,US
169071,55292584,2304 Belair Road,,Baltimore,MD,21213,US
168436,55292589,2305 North Charles Street,Suite 101,Baltimore,MD,21218,US
167766,55292599,2305 North Charles Street,Suite 300,Baltimore,MD,21218,US
168641,55292596,2305 North Charles Street,Suite 200,Baltimore,MD,21218,US
9693892,55292606,2315 North Charles Street,First Floor,Baltimore,MD,21218,US
167064,55292609,2323 Orleans Street,,Baltimore,MD,21224,US
166983,55292611,234 South Broadway,,Baltimore,MD,21231,US
17174779,55292614,239 North Gay Street,,Baltimore,MD,21202,US
167784,55292617,2400 Kirk Avenue,,Baltimore,MD,21218,US
167784,55292623,2401 Liberty Heights Avenue,Suite 113,Baltimore,MD,21215,US
167524,55292625,2401 Liberty Heights Avenue,Suite 302,Baltimore,MD,21215,US
168736,55292628,2401 St. Paul Street,,Baltimore,MD,21218,US
168736,55292631,2401 St. Paul Street,,Baltimore,MD,21218,US
167094,55292634,2401 West Baltimore Street,,Baltimore,MD,21223,US
167094,55292637,2401 West Baltimore Street,,Baltimore,MD,21223,US
167705,55292639,2401 West Belvedere Avenue,,Baltimore,MD,21215,US
167705,55292645,2401 West Belvedere Avenue,,Baltimore,MD,21215,US
167705,55292642,2401 West Belvedere Avenue,,Baltimore,MD,21215,US
167705,55292648,2401 West Belvedere Avenue,,Baltimore,MD,21215,US
167735,55292651,2405 Linden Avenue,,Baltimore,MD,21217-3944,US
167227,55292657,2405 Linden Avenue,,Baltimore,MD,21217,US
168412,55292659,2405 Loch Raven Road,,Baltimore,MD,21218,US
168423,55292665,2410 Pennsylvania Avenue,Suite 200,Baltimore,MD,21217,US
167724,55292667,2416 Lampost Lane,,Baltimore,MD,21234,US
168241,55292679,2417 East North Avenue,,Baltimore,MD,21213,US
168241,55292673,2417 East North Avenue,,Baltimore,MD,21213,US
168241,55292676,2417 East North Avenue,,Baltimore,MD,21213,US
167766,55292681,242 South Patterson Park Avenue,,Baltimore,MD,21231,US
35553872,55292683,2422 West Patapsco Avenue,,Baltimore,MD,21230,US
219399,55292686,2425 Eutaw Place,,Baltimore,MD,21217,US
167460,55292690,2434 West Belvedere Avenue,,Baltimore,MD,21215,US
168235,55292693,2439 Maryland Avenue,1st Floor,Baltimore,MD,21218,US
167003,55292695,2441 West Baltimore Street,,Baltimore,MD,21223,US
167524,55292698,2446 Washington Boulevard,,Baltimore,MD,21230,US
167784,55292700,2449 Frederick Avenue,,Baltimore,MD,21223,US
168601,55292703,2490 Giles Road,,Baltimore,MD,21225,US
167163,55292707,25 East 20th Street,Suite 170,Baltimore,MD,21218,US
12277601,55292712,25 North Caroline Street,,Baltimore,MD,21231,US
167610,55292719,2500 Edmondson Avenue,,Baltimore,MD,21223,US
167610,55292722,2500 Edmondson Avenue,,Baltimore,MD,21223,US
167495,56061140,2500 Pennsylvania Avenue,,Baltimore,MD,21217,US
169112,55292725,2500 West North Avenue,,Baltimore,MD,21216,US
166985,55292730,2505 North Charles Street,,Baltimore,MD,21218,US
167569,55292733,251 Bayview Boulevard,,Baltimore,MD,21224,US
1110733,55292738,2510 Saint Paul Street,1st Floor,Baltimore,MD,21218,US
167774,55292741,2517 North Charles Street,,Baltimore,MD,21218,US
203444,55292749,2521 Saint Paul Street,,Baltimore,MD,21218,US
203444,55292745,2521 Saint Paul Street,,Baltimore,MD,21218,US
167645,55292751,2523 Maryland Avenue,,Baltimore,MD,21218,US
10117122,55292755,2526 St. Paul Street,,Baltimore,MD,21218,US
167338,55292758,2530 N. Charles St.,,Baltimore,MD,21218,US
168444,55292762,2530 North Charles Street,Suite 200,Baltimore,MD,21218,US
167590,55292764,2539 St. Paul Street,,Baltimore,MD,21218,US
167094,55292770,26 North Fulton Avenue,,Baltimore,MD,21223,US
167094,55292776,26 North Fulton Avenue,,Baltimore,MD,21223,US
167882,55292773,26 North Fulton Avenue,,Baltimore,MD,21223,US
167150,55292780,26 South Mount Street,,Baltimore,MD,21223,US
167039,55292786,2600 Liberty Heights Avenue,3rd Floor,Baltimore,MD,21215,US
167806,55292789,2600 Lord Baltimore Drive,,Baltimore,MD,21244,US
167148,55292793,2601 North Howard Street,,Baltimore,MD,21218,US
167148,55292804,2601 North Howard Street,Suite 200,Baltimore,MD,21218,US
167148,55292801,2601 North Howard Street,Suite 200,Baltimore,MD,21218,US
204343,55292799,2601 North Howard Street,Suite 160,Baltimore,MD,21218,US
203599,55292796,2601 North Howard Street,Suite 150,Baltimore,MD,21218,US
167148,55292807,"2601 North Howard Street, Suite 200",Center for Family Services Villa Maria Community Resources,Baltimore,MD,21218,US
167766,55292810,2601 Ulman Avenue Rear,,Baltimore,MD,21215,US
168186,55292815,"2601 West North Avenue, Suite 131",,Baltimore,MD,21216,US
167733,55292821,2638 East Baltimore Street,,Baltimore,MD,21224,US
168607,55292830,2641 Maryland Avenue,,Baltimore,MD,21218,US
168607,55292827,2641 Maryland Avenue,,Baltimore,MD,21218,US
167260,55290008,2660 Yorkway,,Baltimore,MD,21222-4432,US
167297,55292834,27 South Caroline Street,,Baltimore,MD,21231,US
167506,55292836,2700 North Charles Street,Suite 200,Baltimore,MD,21218,US
167042,55292847,2700 North Charles Street,Suite 202,Baltimore,MD,21218,US
167513,55292850,2700 North Charles Street,Suite 203,Baltimore,MD,21218,US
8891969,55292839,2700 North Charles Street,Suite 201,Baltimore,MD,21218,US
168523,55292853,2700 Remington Avenue ,Suite 2000,Baltimore,MD,21211,US
168943,55292862,2700 Spelman Road,,Baltimore,MD,21225,US
168943,55292865,2700 Spelman Road,,Baltimore,MD,21225,US
167675,55292868,2700 West Patapsco Avenue,,Baltimore,MD,21230-2702,US
167675,55292871,2700 West Patapsco Avenue,,Baltimore,MD,21230,US
168571,55292874,2701 St Lo Drive,,Baltimore,MD,21213,US
168571,55292877,2701 St Lo Drive,,Baltimore,MD,21213,US
168571,55292879,2701 St. Lo Drive,,Baltimore,MD,21213,US
168571,55292882,2701 St. Lo Drive,,Baltimore,MD,21213,US
166955,55292884,2701 West Patapsco Avenue,Suite 110,Baltimore,MD,21230-2797,US
167042,55292888,2707 Sethlow Road,,Baltimore,MD,21225,US
219272,55292892,2713 Latona Road,,Baltimore,MD,21214,US
168335,55292896,2714 Hudson Street,,Baltimore,MD,21224,US
367693,55292899,2716 Baker Street,,Baltimore,MD,21216,US
168679,55292906,28 East Ostend Street,Suite 303,Baltimore,MD,21202,US
168679,55292903,28 East Ostend Street,Suite 303,Baltimore,MD,21230,US
167975,55292901,28 East Ostend Street,,Baltimore,MD,21230,US
168337,55292909,28 South Broadway,,Baltimore,MD,21231,US
167699,55292911,2800 Kirk Avenue,,Baltimore,MD,21218,US
35281678,55292913,2800 Sisson Street,,Baltimore,MD,21211,US
56406588,56407159,2812-14 Reisterstown Road,,Baltimore ,MD,21215,US
168063,55292921,2822 Hollins Ferry Road,,Baltimore,MD,21230,US
169071,55292924,2828 Loch Raven Road,,Baltimore,MD,21218,US
167827,55292927,29 South Paca Street,1st Floor,Baltimore,MD,21201,US
55059188,55292930,2901 Druid Park Drive,Suite 105,Baltimore,MD,21215,US
56406505,56406514,2901 Druid Park Drive,Suite A210,Baltimore,MD,21215,US
167039,55292935,2901 Liberty Heights Avenue,First Floor Life Sciences Building,Baltimore,MD,21215,US
167039,55292932,2901 Liberty Heights Avenue,,Baltimore,MD,21215,US
167072,55292938,2911 Pulaski Highway,,Baltimore,MD,21224,US
167495,56061087,2919 East Biddle Street,,Baltimore,MD,21213,US
167148,55292940,2920 Joseph Avenue,,Baltimore,MD,21225,US
182028,55292944,2921 Stranden Road,,Baltimore,MD,21230,US
169150,55292949,29th Division Street,,Baltimore,MD,21201,US
169150,55292952,29th Division Street,5th Regiment Armory,Baltimore,MD,21201,US
167827,55292955,300 Armory Place,,Baltimore,MD,21201,US
167048,55292957,300 East Madison Street,,Baltimore,MD,21202,US
167244,55292959,300 North Gay Street,,Baltimore,MD,21202,US
1830710,55292963,300 Water Street,Suite 300,Baltimore,MD,21202,US
168443,55292965,3000 Druid Park Drive,Suite 2C,Baltimore,MD,21215,US
1786020,55293254,3000 Falls Road, Mill Number 1,Baltimore,MD,21211,US
167659,55292967,3000 Parkside Drive,,Baltimore,MD,21214,US
167044,55292973,3001 East Drive,Druid Hill Park,Baltimore,MD,21217,US
167524,55292977,3001 East Madison Street,,Baltimore,MD,21205,US
167494,55292983,3001 South Hanover Street,"Harbor Hospital Outpatient Center, Suite 206",Baltimore,MD,21225,US
168126,55292979,3001 South Hanover Street,,Baltimore,MD,21225,US
169047,55292985,3001 Vineyard Lane,,Baltimore,MD,21218,US
167865,55292989,3001-3005 Baker Street,,Baltimore,MD,21216,US
167513,55292993,3002 Druid Park Drive,,Baltimore,MD,21215,US
167045,55292996,3007 East Biddle Street,,Baltimore,MD,21213,US
167045,55292999,3007 East Biddle Street,,Baltimore,MD,21213,US
167265,55293010,301 North Gay Street,,Baltimore,MD,21202,US
167265,55293013,301 North Gay Street,Lower Level,Baltimore,MD,21202,US
168379,55293018,301 North High Street,,Baltimore,MD,21202,US
203844,55293020,301 North Pulaski Street,,Baltimore,MD,21223,US
167717,55293023,301 St. Paul Place,Suite 501,Baltimore,MD,21202,US
168443,55293029,301 Stockholm Street,,Baltimore,MD,21230,US
174293,55293059,301 West Preston Street,Room 1008 A,Baltimore,MD,21201-2365,US
167915,55293065,301 West Preston Street,Room 900,Baltimore,MD,21201,US
174293,55293063,301 West Preston Street,Room 1008A,Baltimore,MD,21201,US
168900,55293082,301 West Preston Street,Suite 1502,Baltimore,MD,21201,US
168463,55293079,301 West Preston Street,Suite 1007,Baltimore,MD,21201,US
168463,55293076,301 West Preston Street,Suite 1007,Baltimore,MD,21201-2374,US
168463,55293072,301 West Preston Street,Suite 1007,Baltimore,MD,21201-2374,US
167915,55293068,301 West Preston Street,Room 900,Baltimore,MD,21201,US
358497,55293087,302 West Fayette Street,,Baltimore,MD,21201,US
36814220,55293094,3043 West Belvedere Avenue,,Baltimore,MD,21215,US
167832,55293096,31 Hopkins Plaza,2nd Floor,Baltimore,MD,21201,US
167247,55293112,31 Hopkins Plaza,Suite 1229,Baltimore,MD,21201-2825,US
167520,55293110,31 Hopkins Plaza,Room 3020,Baltimore,MD,21201,US
167537,55293107,31 Hopkins Plaza,Room 1237,Baltimore,MD,21201-2829,US
167833,55293104,31 Hopkins Plaza,Room 1226,Baltimore,MD,21201,US
167804,55293102,31 Hopkins Plaza,Fallon Federal Building,Baltimore,MD,21201,US
167226,55293099,31 Hopkins Plaza,Fallon Building Suite 400-B,Baltimore,MD,21201,US
167094,55293126,3101 Towanda Avenue,,Baltimore,MD,21215,US
167495,55293128,311 West Saratoga Street,,Baltimore,MD,21201-3521,US
167064,55293146,3120 Erdman Avenue,,Baltimore,MD,21213,US
204007,55293149,3134 Eastern Avenue,,Baltimore,MD,21224,US
167717,55293152,315 North Calvert,,Baltimore,MD,21202,US
167198,55293157,317 Dolphin Street,,Baltimore,MD,21217,US
167345,55293166,32 South Street,,Baltimore,MD,21202,US
3373846,55293168,320 Cathedral Street,,Baltimore,MD,21201,US
167148,55293171,320 Cathedral Street,,Baltimore,MD,21201,US
358099,55293175,3200 Eastern Avenue,,Baltimore,MD,21224,US
167859,55293178,3200 Garrison Boulevard,,Baltimore,MD,21216,US
167433,55293180,3202 West North Avenue,,Baltimore,MD,21216,US
167729,55293183,321 East 25th Street,,Baltimore,MD,21218,US
167922,55293185,321 North Calvert Street,2nd Floor,Baltimore,MD,21202,US
167920,55293194,323 East 25th Street,,Baltimore,MD,21218-5303,US
167552,55293196,3243 Eastern Avenue,,Baltimore,MD,21224,US
168728,55293199,325 East 25th Street,,Baltimore,MD,21218,US
168085,55293202,330 North Howard Street,,Baltimore,MD,21201,US
167508,55293205,3300 Falls Road,,Baltimore,MD,21211,US
167071,55293207,3300 Gaither Road,,Baltimore,MD,21244,US
167731,55293214,3301 Windsor Avenue,,Baltimore,MD,21216,US
167123,55293216,3302 Toone Street,,Baltimore,MD,21224,US
167148,55293222,3308 Benson Avenue,,Baltimore,MD,21227,US
167148,55293227,3310 Benson Avenue,,Baltimore,MD,21227-1035,US
1740613,55293229,3313 Oakfield Avenue,,Baltimore,MD,21207,US
9789514,55293231,3317 St. Luke's Lane,,Baltimore,MD,21207,US
10562264,55290015,3319 Summit Avenue,,Baltimore,MD,21234,US
167774,55293237,3319 West Belvedere Avenue,,Baltimore,MD,21215,US
167601,55293235,3319 West Belvedere Avenue,,Baltimore,MD,21215,US
169084,55293240,3323 Eastern Avenue,Suite 200,Baltimore,MD,21224,US
15044791,55293243,3333 Greenmount Avenue,,Baltimore,MD,21218,US
41274411,55293245,3340 Old Fredrick Road,,Baltimore,MD,21229,US
167092,55293248,3345 Washington Boulevard,,Baltimore,MD,21227,US
167193,55293251,335 West 27th Street,,Baltimore,MD,21211,US
167217,55293259,3355 Keswick Road,Suite 200,Baltimore,MD,21211,US
167197,55293256,3355 Keswick Road,Suite 200,Baltimore,MD,21211,US
167459,55293262,3400 North Charles Street,Levering 200,Baltimore,MD,21218,US
374389,55293265,3410 White Avenue,,Baltimore,MD,21214,US
54843697,55293268,3411 Bank Street,,Baltimore,MD,21224,US
168324,55293271,3412 Belair Road,,Baltimore,MD,21213,US
167860,55293274,3426 Bank Street,,Baltimore,MD,21224,US
167766,55293282,3445 Park Heights Avenue,,Baltimore,MD,21215,US
167766,55293285,3445 Park Heights Avenue,,Baltimore,MD,21215,US
167361,55293290,3449 Falls Road,Hampden United Methodist Church,Baltimore,MD,21211,US
167361,55293298,3449 Falls Road,Hampden United Methodist Church,Baltimore,MD,21211,US
167361,55293296,3449 Falls Road,Hampden United Methodist Church,Baltimore,MD,21211,US
167361,55293293,3449 Falls Road,Hampden United Methodist Church,Baltimore,MD,21211,US
167532,55293301,345 St. Paul Place,,Baltimore,MD,21202-2140,US
167344,55293310,3459 Park Heights Avenue,,Baltimore,MD,21215,US
167344,55293308,3459 Park Heights Avenue,,Baltimore,MD,21215,US
167344,55293305,3459 Park Heights Avenue,,Baltimore,MD,21215,US
167245,55293315,3501 East Federal Street,,Baltimore,MD,21213,US
167353,55293318,3501 North Charles Street,,Baltimore,MD,21218,US
167509,55293320,3501 Taylor Avenue,,Baltimore,MD,21236,US
167657,55293322,3501 Taylor Avenue,,Baltimore,MD,21236,US
167900,55293325,3510 Eldorado Avenue,,Baltimore,MD,21207,US
168361,55293330,3521 West Belvedere Avenue,,Baltimore,MD,21215-5802,US
167212,55290019,3525 Resource Drive,,Baltimore,MD,21133,US
168741,55290026,3527 North Rolling Road,Suite 225,Baltimore,MD,21244,US
38359492,55293332,3529 Edmondson Avenue,,Baltimore ,MD,21229,US
212342,55293336,3533 Dolfield Ave.,,Baltimore,MD,21215,US
168429,55293340,360 South Dukeland Street,,Baltimore,MD,21223,US
166990,55293348,3600 Clipper Mill Road,Suite 350,Baltimore,MD,21211,US
167084,55293344,3600 Clipper Mill Road,Suite 250,Baltimore,MD,21211,US
219213,55293350,3600 O'Donnell Street,Suite 2,Baltimore,MD,21224,US
167639,55293352,3601 Old Frederick Road,,Baltimore,MD,21229,US
167639,55293354,3601 Old Frederick Road,,Baltimore,MD,21229,US
168425,55293357,3604 North Rogers Avenue,,Baltimore,MD,21207,US
9219438,55293360,3612 Falls Road,,Baltimore,MD,21211,US
167054,55293362,3651 Rolling Road,,Baltimore,MD,21244,US
167064,55293365,3700 Fleet Street,Suite 200,Baltimore,MD,21224,US
167307,55293368,3700 Greenspring Avenue,,Baltimore,MD,21211,US
169052,55293376,3701 9th Street,,Baltimore,MD,21225,US
169052,55293374,3701 9th Street,,Baltimore,MD,21225,US
168062,55293378,3701 Commerce Drive,Suite 103,Baltimore,MD,21227,US
167483,55293381,3701 Eastern Avenue,,Baltimore,MD,21224,US
168694,55293384,3701 Koppers Street,,Baltimore,MD,21227,US
167400,55293392,3734 Eastern Avenue,Baltimore,Baltimore,MD,21224,US
167400,55293394,3734 Eastern Avenue,Baltimore,Baltimore,MD,21224,US
167552,55293402,3800 Frederick Avenue,,Baltimore,MD,21229,US
167766,55293404,3812 Edmondson Avenue,,Baltimore,MD,21229,US
167063,55293412,39 West Lexington Street,,Baltimore,MD,21201,US
167520,55293414,3900 Loch Raven Boulevard,,Baltimore,MD,21218,US
6941139,55293417,3900 Roland Avenue,,Baltimore,MD,21211,US
167520,55293420,3901 The Alameda,,Baltimore,MD,21218,US
167882,55290030,3902 Annapolis Road,,Baltimore,MD,21227,US
168431,55293422,3904 Hickory Avenue,Suite 200,Baltimore,MD,21211,US
203791,55293425,3907 Hamilton Avenue,,Baltimore,MD,21206,US
271139,55293428,3909 Garrison Boulevard,,Baltimore,MD,21215,US
401426,55293439,3910 West Rogers Avenue,,Baltimore,MD,21215,US
401426,55293431,3910 West Rogers Avenue,,Baltimore,MD,21215,US
168253,55293445,3914 Vero Road,,Baltimore,MD,21227,US
167758,55293448,3915 Pennington Avenue,,Baltimore,MD,21226-1211,US
368000,55293458,3931 Ridgewood Avenue,,Baltimore,MD,21215,US
54843697,55293461,3939 Reisterstown Road,,Baltimore,MD,21215,US
17175009,55293469,3939 Reisterstown Road,Suite 268,Baltimore,MD,21215,US
168436,55293466,3939 Reisterstown Road,,Baltimore,MD,21215,US
169035,55293471,3986 Roland Avenue,,Baltimore,MD,21211,US
167069,55293473,4 North Central Avenue,,Baltimore,MD,21202,US
167347,55293479,4 South Gay Street,,Baltimore,MD,21202,US
167276,55293483,400 Cathedral Street,,Baltimore,MD,21201-4484,US
167508,55293487,4007 Falls Road,,Baltimore,MD,21211,US
167492,55293493,401 East Pratt Street,9th Floor,Baltimore,MD,21202,US
167503,55293495,401 East Pratt Street,Suite 232,Baltimore,MD,21202,US
168029,55293497,401 Light Street,,Baltimore,MD,21202,US
167435,55293499,401 North Caroline Street,,Baltimore,MD,21231,US
167766,55293502,402 South Bond Street,,Baltimore,MD,21231,US
167391,55293508,408 South Chester Street,,Baltimore,MD,21231,US
168683,55293520,4111 Washington Boulevard,,Baltimore,MD,21227,US
167601,55293525,4120 Patterson Avenue,,Baltimore,MD,21215,US
167601,55293522,4120 Patterson Avenue,,Baltimore,MD,21215,US
260072,55293528,4140 Patterson Avenue,,Baltimore,MD,21215,US
167513,55293532,415 Park Avenue,,Baltimore,MD,21201,US
168443,55293539,417 East Fayette Street,6th floor,Baltimore,MD,21202,US
168443,55293536,417 East Fayette Street,,Baltimore,MD,21202,US
167210,55293565,417 East Fayette Street,Suite 634,Baltimore,MD,21202,US
168443,55293562,417 East Fayette Street,Suite 602,Baltimore,MD,21202,US
167042,55293559,417 East Fayette Street,Suite 1125,Baltimore,MD,21202,US
169139,55293557,417 East Fayette Street,Room 129,Baltimore,MD,21202,US
167210,55293555,417 East Fayette Street,6th Floor,Baltimore,MD,21202,US
167210,55293552,417 East Fayette Street,6th Floor,Baltimore,MD,21202,US
167210,55293549,417 East Fayette Street,6th Floor,Baltimore,MD,21202,US
167210,55293547,417 East Fayette Street,6th Floor,Baltimore,MD,21202,US
168463,55293545,417 East Fayette Street,6th Floor,Baltimore,MD,21202,US
168443,55293541,417 East Fayette Street,6th Floor,Baltimore,MD,21202,US
168443,55293570,"417 East Fayette Street, 6th Floor",,Baltimore,MD,21202,US
167856,55293573,417 North Aisquith Street,,Baltimore,MD,21202,US
358869,55293576,4200 Edmondson Avenue,Suite 200-A,Baltimore,MD,21229,US
169001,55293579,4200 Hillen Road,"School of Business, Room 216",Baltimore,MD,21251,US
168751,55293582,4201 Primrose Avenue,,Baltimore,MD,21215-3305,US
167243,55293584,4203 Ritchie Highway,,Baltimore,MD,21225,US
167561,55293587,4207 Frederick Avenue,,Baltimore,MD,21229,US
167382,55293589,421 Fallsway,,Baltimore,MD,21202,US
56406541,56408045,421 West Pratt Street,,Baltimore,MD,21223,US
167048,55293595,424 Font Hill Avenue,,Baltimore,MD,21223,US
167075,55293603,425 North Chester Street,,Baltimore,MD,21231-1635,US
167075,55293615,425 North Chester Street,,Baltimore,MD,21231-1635,US
167075,55293612,425 North Chester Street,,Baltimore,MD,21231-1635,US
167075,55293609,425 North Chester Street,,Baltimore,MD,21231-1635,US
167075,55293606,425 North Chester Street,,Baltimore,MD,21231-1635,US
55823100,57231713,428 East 25th Street,,Baltimore,MD,21218,US
167148,55293618,430 South Broadway,,Baltimore,MD,21231,US
167365,55293627,4308 Harford Road,,Baltimore,MD,21214-1895,US
167194,55293641,4321 Old York Road,,Baltimore,MD,21212-4727,US
167194,55293638,4321 Old York Road,,Baltimore,MD,21212-4727,US
167194,55293643,4321 Old York Road,,Baltimore,MD,21212-4727,US
167287,55293646,4330 D Pimlico Road,,Baltimore,MD,21215,US
167281,55293649,4330 Pimlico Road,,Baltimore,MD,21215,US
219399,55293651,4340 Park Heights Avenue,,Baltimore,MD,21215,US
167478,55293654,435 East 25th Street,,Baltimore,MD,21218,US
166972,55293663,4406 Liberty Heights Avenue,,Baltimore,MD,21207-7593,US
53488803,55293665,4414 Frankford Avenue,,Baltimore,MD,21206,US
167052,55290034,4423 Bucks Schoolhouse Road,,Baltimore,MD,21237,US
168485,55293673,4432 Park Heights Avenue,,Baltimore,MD,21215,US
31463212,55293676,4500 Frankford Avenue,,Baltimore,MD,21206,US
174272,55293679,4501 North Charles Street,Seton Court 02B,Baltimore,MD,21210,US
167882,55293682,4536 Edmondson Avenue,,Baltimore,MD,21229,US
167365,55293685,4536 Harford Road,,Baltimore,MD,21214,US
167827,55293688,4538 Edmondson Avenue,,Baltimore,MD,21229,US
167494,55293690,4538 Edmondson Avenue,,Baltimore,MD,21229,US
168674,55293696,4615 Park Heights Avenue,,Baltimore,MD,21215-6331,US
168674,55293698,4615 Park Heights Avenue,,Baltimore,MD,21215-6331,US
56363924,56407395,4651 Roland Ave,,Baltimore,MD,21210,US
167287,55293705,4623 Falls Road,,Baltimore,MD,21209,US
167287,55293713,4623 Falls Road,,Baltimore,MD,21209,US
167287,55293708,4623 Falls Road,,Baltimore,MD,21209,US
29426582,55293716,4640 Edmondson Avenue,2nd Floor,Baltimore,MD,21229,US
201551,55293721,4701 Mount Hope Drive,Suite A,Baltimore,MD,21215,US
201551,55290037,4701 Mt. Hope Drive,Suite A,Baltimore,MD,21215,US
27851469,55293727,4710 Pennington Avenue,1st Floor,Baltimore,MD,21226,US
167304,55293729,4711 Edmondson Avenue,,Baltimore,MD,21229,US
166995,55293737,4800 Mount Hope Drive,,Baltimore,MD,21215-3231,US
166995,55293735,4800 Mount Hope Drive,,Baltimore,MD,21215-3231,US
166995,55293745,4800 Mount Hope Drive,,Baltimore,MD,21215-3231,US
166995,55293742,4800 Mount Hope Drive,,Baltimore,MD,21215-3231,US
166995,55293740,4800 Mount Hope Drive,,Baltimore,MD,21215-3231,US
167563,55293750,4805 Mount Hope Drive,,Baltimore,MD,21215,US
167341,55293753,4806 Seton Drive,,Baltimore,MD,21215,US
167183,55293756,4814 Seton Drive,,Baltimore,MD,21215,US
167183,55293758,4814 Seton Drive,,Baltimore,MD,21215,US
182028,55293761,4910 Park Heights Avenue,,Baltimore,MD,21215,US
168498,55293764,4910 Park Heights Avenue,2nd Floor,Baltimore,MD,21215,US
167434,55293771,4940 Eastern Avenue,,Baltimore,MD,21224-2780,US
167434,55293776,4940 Eastern Avenue,,Baltimore,MD,21224,US
167434,55293774,4940 Eastern Avenue,,Baltimore,MD,21224,US
167434,55293785,4940 Eastern Avenue,"Building Aa, Room 1370",Baltimore,MD,21224,US
167434,55293783,4940 Eastern Avenue,A 2 East Room 202,Baltimore,MD,21224-2735,US
167434,55293780,4940 Eastern Avenue,5th Floor,Baltimore,MD,21224-3033,US
167048,55293791,500 East Baltimore Street,,Baltimore,MD,21202,US
167048,55293793,500 East Baltimore Street,,Baltimore,MD,21202,US
167458,55293795,500 East Lexington Street,,Baltimore,MD,21202-3560,US
167494,55293801,500 North Calvert Street,"5th Floor, Shillman Building",Baltimore,MD,21202,US
167496,55293799,500 North Calvert Street,,Baltimore,MD,21201-3651,US
167495,56061106,500 North Hilton Street,,Baltimore,MD,21229,US
168747,55293807,500 West Baltimore Street,Suite 360,Baltimore,MD,21201,US
1739551,55293813,5007 Ritchie Highway ,,Baltimore,MD,21225,US
167045,55293819,501 East Fayette Street,Room 207,Baltimore,MD,21202,US
168299,55293815,501 East Fayette Street,,Baltimore,MD,21202,US
219399,55293825,5010 York Road,,Baltimore,MD,21212,US
167081,55293827,502 South Sharp Street,Suite 1200,Baltimore,MD,21201,US
3629791,55293831,505 East 42nd Street,,Baltimore,MD,21218,US
182563,55293833,5100 Denmore Avenue,,Baltimore,MD,21215,US
167070,55293837,512 Orchard Street,,Baltimore,MD,21201,US
167062,55293839,5124 Greenwich Avenue,,Baltimore,MD,21229,US
24322688,55293843,513 East 36th Street,,Baltimore,MD,21218,US
168439,55293846,515 South Haven Street,,Baltimore,MD,21224-4220,US
167343,55293854,516 Glenwood Avenue,,Baltimore,MD,21212,US
167512,55293861,520 West Fayette Street,,Baltimore,MD,21201,US
169095,55293867,520 West Fayette Street,Suite 410,Baltimore,MD,21201,US
168352,55293869,520 West Lombard Street,"Gray Hall, 1st Floor",Baltimore,MD,21201,US
168722,55293872,5200 Eastern Avenue,"Mason Lord Building, West Tower, 5th Floor",Baltimore,MD,21224,US
167223,55290039,5204 Liberty Heights Avenue,,Baltimore,MD,21207,US
167346,55293878,5207 York Road,,Baltimore,MD,21212,US
167879,55293880,5209 York Road,Suite B-12,Baltimore,MD,21212,US
42254217,55293882,5217 Reisterstown Road ,,Baltimore,MD,21215,US
54843697,55293886,5225 York Road,,Baltimore,MD,21212,US
167802,55293890,524 North Charles Street,,Baltimore,MD,21201,US
167298,55293892,525 North Caroline Street,,Baltimore,MD,21205,US
167048,55293894,5271 Reisterstown Road,,Baltimore,MD,21215,US
54943247,55293902,5315 Harford Road,,Baltimore,MD,21214,US
54943247,55293900,5315 Harford Road,,Baltimore,MD,21214,US
167049,55293904,540 North Caroline Steet,,Baltimore,MD,21205,US
167164,55293906,5400 Loch Raven Boulevard,,Baltimore,MD,21239,US
167577,55293908,5401 Frankford Avenue,,Baltimore,MD,21206-6139,US
167604,55293910,5407 North Charles Street,,Baltimore,MD,21210-2094,US
616571,55293912,541 South Beechfield Avenue,,Baltimore,MD,21229,US
29057295,55293914,5411 Old Frederick Road,Suite 17,Baltimore,MD,21229,US
167616,55290042,5411 Old Frederick Road,Suite 1,Baltimore,MD,21229,US
56406541,56406544,5411 Old Frederick Road #13,,Baltimore,MD,21229,US
56363983,56364013,5438 York Road Suite 202,,Baltimore,MD,21212,US
56662538,56662549,"5450 Reisterstown Road, Suite 304",,Baltimore,MD,21215,US
167434,55293918,5500 East Lombard St.,,Baltimore,MD,21224-2780,US
167346,55293920,5502 York Road,St. Mary's Church,Baltimore,MD,21212,US
168077,55290046,5520 Research Park Drive,Suite 400,Baltimore,MD,21228,US
260007,55293926,559 Roberts Street,,Baltimore,MD,21217,US
168126,55293928,5601 Loch Raven Boulevard,,Baltimore,MD,21239-2995,US
167882,55293932,5610 Harford Road,,Baltimore,MD,21214,US
167346,55293934,5610 York Road,,Baltimore,MD,21212,US
167430,55293940,5700 Park Heights Avenue,,Baltimore,MD,21215,US
167474,55293942,5701 Loch Raven Boulevard,,Baltimore,MD,21239,US
168664,55293944,5701 York Road,,Baltimore,MD,21212,US
167034,55293946,5708 Park Heights Avenue,,Baltimore,MD,21215,US
56460361,56460538,5710 Bellona Ave,Suite 102,Baltimore,MD,21212,US
167048,55293948,5710 Eastern Avenue,,Baltimore,MD,21224,US
56406516,56406527,5718 Harford Road,Suite 103,Baltimore,MD,21214,US
168098,55293950,5750 Park Heights Avenue,,Baltimore,MD,21215,US
168098,55293956,5750 Park Heights Avenue,,Baltimore,MD,21215,US
168098,55293952,5750 Park Heights Avenue,,Baltimore,MD,21215,US
168299,55293960,5800 Wabash Avenue,,Baltimore ,MD,21215,US
167364,55293966,5807 Harford Road,,Baltimore,MD,21214-1895,US
167364,55293968,5807 Harford Road,,Baltimore,MD,21214-1895,US
168360,55293970,5809 Park Heights Avenue,,Baltimore,MD,21215,US
167882,55293972,5818 Reisterstown Road,,Baltimore,MD,21215,US
167495,56061124,5818 Reisterstown Road,,Baltimore,MD,21215,US
54147319,55293974,5820 York Road,Suite T200 (Basement),Baltimore,MD,21212,US
168328,55293976,5820 York Road,Suite T300,Baltimore,MD,21212,US
168418,55293978,5828 York Road,,Baltimore,MD,21212,US
14982140,55293980,5828 York Road,,Baltimore,MD,21212,US
167495,55293982,5900 Bland Avenue,,Baltimore,MD,21215,US
167384,55293984,5900 Metro Drive,,Baltimore,MD,21215,US
167435,55293986,5901 Holabird Avenue,Suite A,Baltimore,MD,21224,US
7154751,55293988,5910 Ayleshire Road,,Baltimore,MD,21239,US
167473,55293996,5911 York Road,Suite 100,Baltimore,MD,21212,US
167473,55294000,5911 York Road,Suite 100,Baltimore,MD,21212,US
168442,55294002,5th Regiment Armory,"29th Division Street, M23",Baltimore,MD,21201-2288,US
56481540,56481585,"6 Nashua Court, Suite B",,Baltimore,MD,21221,US
167500,55294004,6 North Liberty Street,Ground Suite,Baltimore,MD,21201,US
167516,55294008,6 Saint Paul Street,Suite 2102,Baltimore,MD,21202-1608,US
167490,55294014,6 St. Paul Street,Suite 900,Baltimore,MD,21202,US
167514,55294012,6 St. Paul Street,,Baltimore,MD,21202-1614,US
167518,55294010,6 St. Paul Street,,Baltimore,MD,21202,US
167185,55294018,600 Light Street,,Baltimore,MD,21230,US
1740990,55294020,600 North Charles Street,,Baltimore,MD,21201,US
167435,55294022,600 North Wolfe Street,Carnegie 346,Baltimore,MD,21205,US
167435,55294026,600 North Wolfe Street,Osler Room 203,Baltimore,MD,21287,US
167435,55294024,600 North Wolfe Street,"Johns Hopkins Hospital, Meyer Building 144",Baltimore,MD,21287,US
167435,55294028,600 North Wolfe Street,Phipps 249,Baltimore,MD,21287,US
168033,55294030,6000 Metro Drive,Suite 101,Baltimore,MD,21215,US
374398,55294032,6000 Radecke Avenue,,Baltimore,MD,21206,US
167922,55294034,601 East Fayette Street,,Baltimore,MD,21202,US
168722,55294036,601 North Caroline Street,Suite 5064,Baltimore,MD,21287,US
167277,55294038,601 North Schroeder Street,,Baltimore,MD,21217,US
167277,55294040,601 North Schroeder Street,,Baltimore,MD,21217,US
3171543,55294044,6020 Marian Drive,,Baltimore,MD,21215,US
3171543,55294046,6020 Marian Drive,,Baltimore,MD,21215,US
168428,55294048,6025 Moravia Park Drive,,Baltimore,MD,21206,US
167148,55294054,606 Cherry Hill Road,Suite 201,Baltimore,MD,21225-1229,US
54843697,55294050,606 Cherry Hill Road,,Baltimore,MD,21225,US
168493,55294056,606 South Ann Street,,Baltimore,MD,21231,US
168443,55294060,610 North Chester Street,,Baltimore,MD,21205,US
169066,55294064,611 North Eutaw Street,,Baltimore,MD,21201,US
2967177,55294066,611 Park Avenue,Suite A,Baltimore,MD,21201,US
167148,55294078,620 Fallsway,,Baltimore,MD,21202,US
167148,55294076,620 Fallsway,,Baltimore,MD,21202,US
167718,55294072,620 Fallsway,,Baltimore,MD,21202,US
168443,55294080,620 North Caroline Street,,Baltimore,MD,21205,US
168443,55294084,620 North Caroline Street,Room 200,Baltimore,MD,21205,US
168443,55294082,620 North Caroline Street,,Baltimore,MD,21205,US
167049,55294086,6201 Frankford Avenue,,Baltimore,MD,21206,US
167882,55294088,621 North Eden Street,,Baltimore,MD,21205,US
168640,55294090,6211 Harford Road,,Baltimore,MD,21214,US
168571,55294092,6260 Frankford Avenue,,Baltimore,MD,21206,US
203809,55294096,6300 Harford Road,,Baltimore,MD,21214,US
167590,55294098,6301 Harford Road,,Baltimore,MD,21214,US
167717,55294100,631 Cherry Hill Road,,Baltimore,MD,21225,US
168749,55294102,6310 Fair Oaks Avenue,,Baltimore,MD,21214,US
167672,55294104,635 West Lexington Street,,Baltimore,MD,21201-1571,US
166989,55294106,636 West Lexington Street,,Baltimore,MD,21201,US
39970361,55294108,6400 Belair Road,,Baltimore,MD,21206,US
167524,56074987,6401 Pioneer Drive,,Baltimore,MD,21214,US
167706,55294112,6401 Security Boulevard,,Baltimore,MD,21235,US
167055,55294114,6401 York Road,,Baltimore,MD,21212,US
167055,55290049,6401 York Road,,Baltimore,MD,21212,US
167055,55290058,6401 York Road,,Baltimore,MD,21212,US
167055,55290055,6401 York Road,,Baltimore,MD,21212,US
167055,55290068,6401 York Road,,Baltimore,MD,21212,US
167055,55290066,6401 York Road,,Baltimore,MD,21212,US
167055,55290064,6401 York Road,,Baltimore,MD,21212,US
167055,55290060,6401 York Road,,Baltimore,MD,21212,US
167056,55290108,6401 York Road,,Baltimore,MD,21212,US
167056,55290104,6401 York Road,,Baltimore,MD,21212,US
167057,55290097,6401 York Road,,Baltimore,MD,21212,US
167055,55290091,6401 York Road,,Baltimore,MD,21212,US
167055,55290088,6401 York Road,,Baltimore,MD,21212,US
167055,55290084,6401 York Road,,Baltimore,MD,21212,US
167055,55290078,6401 York Road,,Baltimore,MD,21212,US
167055,55290074,6401 York Road,,Baltimore,MD,21212,US
167055,55290163,6401 York Road,Drumcastle Center,Baltimore,MD,21212,US
167056,55290155,6401 York Road,3rd Floor,Baltimore,MD,21212,US
167056,55290152,6401 York Road,3rd Floor,Baltimore,MD,21212,US
167056,55290143,6401 York Road,3rd Floor,Baltimore,MD,21212,US
167056,55290140,6401 York Road,3rd Floor,Baltimore,MD,21212,US
167056,55290136,6401 York Road,3rd Floor,Baltimore,MD,21212,US
167056,55290129,6401 York Road,3rd Floor,Baltimore,MD,21212,US
167056,55290125,6401 York Road,3rd Floor,Baltimore,MD,21212,US
167494,55290121,6401 York Road,3rd Floor,Baltimore,MD,21212,US
167055,55290114,6401 York Road,,Baltimore ,MD,21212,US
167055,55290112,6401 York Road,,Baltimore,MD,21212,US
616544,55294120,643 Tunbridge Road,,Baltimore,MD,21212,US
219426,55294122,644 East 33rd Street,,Baltimore,MD,21218,US
167824,55294124,650 West Baltimore Street,,Baltimore,MD,21201,US
167702,55290166,6501 North Charles Street,,Baltimore,MD,21204,US
168352,55294126,655 West Lombard Street,Room 425,Baltimore,MD,21201,US
167352,55294128,6569 North Charles Street,Suite 504,Baltimore,MD,21204,US
167212,55290169,6600 Wycombe Way,Hillendale Gate,Baltimore,MD,21234,US
169011,55294130,6600 York Road,Suite 204,Baltimore,MD,21212,US
27851383,55294134,6609 Reisterstown Road,Suite 206D,Baltimore,MD,21215,US
167826,55294136,6615 Reisterstown Road,Suite 201,Baltimore,MD,21215,US
260063,55294138,6623 Johnnycake Road,,Baltimore,MD,21244,US
167352,55294140,6701 North Charles Street,,Baltimore,MD,21204,US
167494,55294142,6764-B Reisterstown Road,Reisterstown Road Plaza Mall,Baltimore,MD,21215,US
168754,55294146,6776 Reisterstown Road,Suite 212,Baltimore,MD,21215,US
168754,55294144,6776 Reisterstown Road,Suite 206,Baltimore,MD,21215,US
168754,55294148,6776 Reisterstown Road,Suite 307,Baltimore,MD,21215,US
167181,55294150,6802 McClean Boulevard,,Baltimore,MD,21234,US
167615,55290173,6805 York Road,,Baltimore,MD,21212,US
168707,55294152,6811 Campfield Road,,Baltimore,MD,21207-4698,US
167524,55291440,6900 Park Heights Avenue,,Baltimore,MD,21215,US
167148,55294154,6999 Reisterstown Road,,Baltimore,MD,21215,US
367690,55294156,7 East Baltimore Street,,Baltimore,MD,21202,US
167922,55294158,7 East Redwood Street,,Baltimore,MD,21202,US
167040,55294164,7 East Redwood Street,9th Floor,Baltimore,MD,21202,US
168443,55294160,7 East Redwood Street ,2nd and 3rd Floor,Baltimore,MD,21201,US
167715,55294168,7 West Randall Street,,Baltimore,MD,21230,US
21272107,55294170,700 Light Street,,Baltimore,MD,21230,US
168257,55294172,700 North Calvert Street,,Baltimore,MD,21202,US
167784,55294174,700 Washington Boulevard,,Baltimore,MD,21223,US
167452,55294178,700 West 40th Street,,Baltimore,MD,21211-2199,US
166961,55294176,700 West 40th Street,,Baltimore,MD,21211,US
167482,55294180,7000 Hamlet Avenue,,Baltimore,MD,21234,US
374389,55294182,7000 Harford Road,,Baltimore,MD,21234,US
167287,55290176,7000 Security Boulevard,Suite 302,Baltimore,MD,21244,US
40202590,55294188,7001 Harford Road,,Baltimore,MD,21234,US
40202590,55294186,7001 Harford Road,,Baltimore,MD,21234,US
168071,55294192,7008 Security Boulevard,Suite 300,Baltimore,MD,21244,US
168861,55294194,701 South Charles Street,,Baltimore,MD,21230,US
167494,55294204,701 West Pratt Street,3rd Floor,Baltimore,MD,21201,US
167827,55294202,701 West Pratt Street,1st Floor,Baltimore,MD,21201,US
167827,55294200,701 West Pratt Street,,Baltimore,MD,21201,US
167827,55294196,701 West Pratt Street,,Baltimore,MD,21201,US
167827,55294206,701 West Pratt Street,4th Floor,Baltimore,MD,21201-1601,US
167097,55294208,701 Wyman Park Drive,,Baltimore,MD,21211-2899,US
167442,55294210,707 North Broadway,,Baltimore,MD,21205,US
167039,55294214,710 East Lombard Street,,Baltimore,MD,21202,US
201621,55290180,7106  Ridge Road,Suite 110,Baltimore,MD,21237,US
167054,55290183,7111 Croydon Road,,Baltimore,MD,21207,US
168017,55294218,718 West Lafayette Avenue,,Baltimore,MD,21217,US
3688393,55294220,720 Rutland Avenue,,Baltimore,MD,21205,US
167261,55294222,7201 Rossville Boulevard,,Baltimore,MD,21237,US
167036,55294224,7215 York Road,,Baltimore,MD,21212,US
182028,55294236,725 Fallsway,,Baltimore,MD,21202,US
167148,55294234,725 Fallsway,,Baltimore,MD,21202,US
167148,55294232,725 Fallsway,,Baltimore,MD,21202,US
167148,55294230,725 Fallsway,,Baltimore,MD,21202,US
167148,55294226,725 Fallsway,,Baltimore,MD,21202,US
167645,55294238,730 Ashburton Street,,Baltimore,MD,21216-4703,US
167066,55294240,7311 Harford Road,,Baltimore,MD,21234,US
168352,55294244,737 West Lombard Street,Suite 233,Baltimore,MD,21201,US
167738,55294246,740 North Calvert Street,,Baltimore,MD,21202,US
167146,55294248,745 West Fayette Street,,Baltimore,MD,21201-1111,US
14884621,55294250,750 East Pratt Street,16th Floor,Baltimore,MD,21202,US
169027,55294252,7500 Security Boulevard,,Baltimore,MD,21244-1850,US
12832490,55290189,7517 North Point Road,,Baltimore,MD,21219,US
167934,55294254,7601 York Road,,Baltimore,MD,21212,US
167148,55294256,761 West Hamburg Street,,Baltimore,MD,21230,US
168723,55294258,7648 Belair Road,,Baltimore,MD,21236,US
259785,55290196,7834 Eastern Avenue,,Baltimore,MD,21224,US
259785,55290192,7834 Eastern Avenue,,Baltimore,MD,21224,US
259785,55290201,7834 Eastern Avenue,,Baltimore,MD,21224,US
259785,55290199,7834 Eastern Avenue,,Baltimore,MD,21224,US
168359,55290206,7835 Eastern Avenue,Suite 302,Baltimore,MD,21224,US
167212,55290209,7900 East Baltimore Street,,Baltimore,MD,21224,US
169014,55294262,7930 Eastern Boulevard,,Baltimore,MD,21224,US
167563,55294264,8 West 26th Street,,Baltimore,MD,21218,US
168670,55294266,800 North Fulton Avenue,2nd Floor,Baltimore,MD,21217,US
9693853,55294274,800 South Oldham Street,,Baltimore,MD,21224,US
167308,55294276,801 Argonne Drive,,Baltimore,MD,21218-1998,US
167442,55294278,801 North Broadway,,Baltimore,MD,21205,US
271284,55294280,802 North Fulton Avenue,,Baltimore,MD,21217,US
168280,55294282,802 South Caroline Street,,Baltimore,MD,21231,US
167766,55294284,806 Cherry Hill Road,St. Veronica's Catholic Church,Baltimore,MD,21225-1314,US
168448,55294286,808 Park Avenue,,Baltimore,MD,21201,US
167675,55294292,814 Light Street,,Baltimore,MD,21230,US
168250,55294296,818 North Collington Avenue,,Baltimore,MD,21205,US
168601,55294300,821 North Eutaw Street,Suite 101 and 201,Baltimore,MD,21201-4648,US
167827,55294306,827 Linden Avenue,,Baltimore,MD,21201,US
167494,55294302,827 Linden Avenue,,Baltimore,MD,21201,US
168213,55294308,828 and 838 North Eutaw Street,,Baltimore,MD,21201-4686,US
167345,55294310,829 Montpelier Street,,Baltimore,MD,21218,US
42114823,55294312,833 North Bond Street,,Baltimore,MD,21205,US
168400,55294318,847 North Howard Street,,Baltimore,MD,21201,US
168012,55290211,856 Seneca Park Road,,Baltimore,MD,21220-2312,US
167766,55290214,8801 Harford Road,,Baltimore,MD,21234,US
167766,55290219,8801 Harford Road,,Baltimore,MD,21234,US
167054,55290221,8876 Goldenwood Road,,Baltimore,MD,21237,US
168728,55294322,9 East Franklin Street,,Baltimore,MD,21202,US
167728,55294324,900 Caton Avenue,,Baltimore,MD,21229,US
167900,55294330,900 East 33rd Street,,Baltimore,MD,21218,US
167900,55294328,900 East 33rd Street,,Baltimore,MD,21218,US
168162,55294334,900 Somerset Street,,Baltimore,MD,21202,US
167064,55294336,900 South Caton Avenue,,Baltimore,MD,21229,US
168126,55294340,9000 Franklin Square Drive,,Baltimore,MD,21237,US
168356,55294344,901 North Broadway Street,,Baltimore,MD,21205,US
168571,55294352,901 North Milton Avenue,,Baltimore,MD,21205,US
168484,55294348,901 North Milton Avenue,,Baltimore,MD,21205,US
168210,55294356,901 North Milton Street,Suite 260,Baltimore,MD,21205,US
167732,55294358,901 Poplar Grove Street,,Baltimore,MD,21216-4350,US
167244,55294362,907 Druid Park Lake Drive,,Baltimore,MD,21217,US
168126,55294364,9105 Franklin Square Drive,,Baltimore,MD,21237,US
166983,55294368,9201 Philadelphia Road,,Baltimore,MD,21237,US
167148,55290228,9317 Belair Road,,Baltimore,MD,21036,US
167481,55294374,949 Gorsuch Avenue,,Baltimore,MD,21218-3602,US
167244,55294376,9700 Old Harford Road,Room 103,Baltimore,MD,21234,US
168155,55294378,971 Seagull Avenue,,Baltimore,MD,21225,US
168675,55290230,9833 Harford Road,,Baltimore,MD,21234,US
0,168670,800 North Fulton Avenue,2nd Floor,Baltimore,MD,21217,US
0,56406470,3939 Reisterstown Road,Suite 150,Baltimore,MD,21215,US
0,167860,3426 Bank Street,,Baltimore,MD,21224,US
0,166961,700 West 40th Street,,Baltimore,MD,21211,US
167045,55294388,Administrative Office,1910 North Broadway,Baltimore,MD,21213,US
167045,55294384,Administrative Office,1910 North Broadway,Baltimore,MD,21213,US
167045,55294386,Administrative Office,1910 North Broadway,Baltimore,MD,21202,US
167045,55294382,Administrative Office,1910 North Broadway,Baltimore,MD,21213,US
167045,55294380,Administrative Office,1910 North Broadway,Baltimore,MD,21213,US
167400,55294392,Administrative Office,2201 Argonne Drive,Baltimore,MD,21218-1627,US
167400,55294390,Administrative Office,2201 Argonne Drive,Baltimore,MD,21218-1627,US
0,166968,1 North Charles Street,Suite 2400,Baltimore,MD,21201,US
0,166955,2701 West Patapsco Avenue,Suite 110,Baltimore,MD,21230-2797,US
0,168191,1501 North Dukeland Street,,Baltimore,MD,21216,US
0,167970,10 East Eager Street,,Baltimore,MD,21202,US
0,166957,1800 North Charles Street,Suite 700,Baltimore,MD,21201,US
0,56364044,107 East 25th Street,,baltimore,MD,21218,US
616544,50664348,643 Tunbridge Road,,Baltimore,MD,21212,US
616544,50664361,5503 Alhambra Avenue,,Baltimore,MD,21212,US
0,166982,1404 South Charles Street,,Baltimore,MD,21230,US
0,166983,7701 Wise Avenue,Suite 206,Baltimore,MD,21222-3228,US
0,56662538,"5450 Reisterstown Road, Suite 304",,Baltimore,MD,21215,US
0,166985,2505 North Charles Street,,Baltimore,MD,21218,US
0,168585,22 Light Street,,Baltimore,MD,21202,US
0,166989,8219 Town Center Drive,,Baltimore,MD,21236,US
0,166990,3600 Clipper Mill Road,Suite 350,Baltimore,MD,21211,US
0,166992,"217 East Redwood Street, 11th Floor",,Baltimore,MD,21202,US
0,168078,211 East Lombard Street,Suite 260,Baltimore,MD,21202,US
0,166995,4800 Mount Hope Drive,,Baltimore,MD,21215-3231,US
0,167003,2441 West Baltimore Street,,Baltimore,MD,21223,US
57248990,57249059,,,Baltimore ,MD,21201,US
0,358099,3200 Eastern Avenue,,Baltimore,MD,21224,US
0,3373846,320 Cathedral Street,,Baltimore,MD,21201,US
0,167470,1263 East North Avenue,,Baltimore,MD,21202,US
167148,55294394,Arlington Elementary,3705 West Rogers Avenue,Baltimore,MD,21215,US
0,1786020,3355 Keswick Road,Stable Building Suite 104,Baltimore,MD,21211,US
0,167032,1114 Cathedral Street,,Baltimore,MD,21201-5515,US
0,167034,101 West Mount Royal Avenue,,Baltimore,MD,21201,US
0,168079,1498 Reisterstown Road,Suite 324,Baltimore,MD,21208,US
0,31463212,4500 Frankford Avenue,,Baltimore ,MD,21206,US
0,56363924,4615 Roland Avenue,,Baltimore,MD,21210,US
0,167920,323 East 25th Street,,Baltimore,MD,21218-530M,US
0,168707,6811 Campfield Road,,Baltimore,MD,21207-4698,US
0,358097,113 South Broadway,,Baltimore,MD,21231,US
0,168029,100 Light Street,12th Floor,Baltimore,MD,21202,US
0,168257,700 North Calvert Street,,Baltimore,MD,21202,US
0,168580,2300 North Charles Street,4th Floor,Baltimore,MD,21218,US
358869,51228960,4200 Edmondson Avenue,Suite 200-A,Baltimore,MD,21229,US
57248990,57248999,,,Baltimore ,MD,21201,US
48463262,48482354,"1800 North Charles Street, Suite 804",,Baltimore,MD,21201,US
0,168875,111 North Calvert Street,Suite 627,Baltimore,MD,21202,US
0,169144,111 North Calvert Street,,Baltimore,MD,21202,US
0,167210,10 North Calvert Street,Suite 300,Baltimore,MD,21202,US
0,167039,2901 Liberty Heights Avenue,,Baltimore,MD,21215,US
0,167953,201 East Baltimore Street,11th Floor,Baltimore,MD,21202,US
0,167043,100 North Holliday Street,Room 626,Baltimore,MD,21202,US
0,37337784,200 Holliday Street,Room 8,Baltimore,MD,21202,US
0,167044,3001 East Drive,,Baltimore,MD,21217,US
167922,55294396,"Baltimore City Department of Transportation, Human Resources"," 417 East Fayette Street, Room 545",Baltimore,MD,21202,US
0,168048,100 South Charles Street,5th Floor,Baltimore,MD,21201,US
0,168443,1001 East Fayette Street,,Baltimore,MD,21202,US
0,167922,100 North Holliday Street,,Baltimore,MD,21202,US
0,54843697,7 East Redwood Street,,Baltimore,MD,21202,US
0,167047,1211 Cathedral Street,,Baltimore,MD,21201,US
0,167040,7 East Redwood Street,9th Floor,Baltimore,MD,21202,US
0,167048,601 East Fayette Street,4th Floor Annex,Baltimore,MD,21202,US
0,167049,200 East North Avenue,,Baltimore,MD,21202,US
0,169142,100 North Calvert Street,Room 104,Baltimore,MD,21202,US
0,167050,100 North Calvert Street,208 Mitchell Court House,Baltimore,MD,21202,US
0,166962,21 West 25th Street,,Baltimore,MD,21218,US
0,9061262,1224 Wicomico Street,,Baltimore,MD,21230,US
0,167055,6401 York Road,,Baltimore,MD,21212,US
0,167056,6401 York Road,3rd Floor,Baltimore,MD,21212-2130,US
0,167057,6401 York Road,,Baltimore,MD,21212,US
0,167052,4423 Bucks Schoolhouse Road,,Baltimore,MD,21237,US
0,169063,6401 York Road,,Baltimore,MD,21212,US
0,167062,5124 Greenwich Avenue,,Baltimore,MD,21229,US
0,167063,PO Box 1475,,Baltimore,MD,21203,US
0,167042,417 East Fayette Street,Suite 1346,Baltimore,MD,21202,US
0,168387,4502 Schenley Road,,Baltimore,MD,21210,US
0,167064,3501 Sinclair Lane,,Baltimore,MD,21213,US
0,168444,2530 North Charles Street,Suite 200,Baltimore,MD,21218,US
0,168861,701 South Charles Street,,Baltimore,MD,21230,US
0,167066,7311 Harford Road,,Baltimore,MD,21234,US
0,38339526,20 South Charles Street,Suite 800,Baltimore,MD,21201,US
0,167069,4 North Central Avenue,,Baltimore,MD,21203,US
0,167718,140 West West Street,,Baltimore,MD,21230,US
0,27851383,6609 Reisterstown Road,Suite 206D,Baltimore,MD,21215,US
0,203599,2601 North Howard Street,Suite 150,Baltimore,MD,21218,US
51054427,55195462,1645 Ridgely Street,Suite 100,Baltimore,MD,21230,US
56683352,56683382,Baltimore/Washington International Thurgood Marshall Airport,,Baltimore,MD,21240,US
0,168235,2439 Maryland Avenue,1st Floor,Baltimore,MD,21218,US
0,167072,2911 Pulaski Highway,,Baltimore,MD,21224,US
0,167038,111 North Calvert Street,Suite 627,Baltimore,MD,21202,US
0,167075,425 North Chester Street,,Baltimore,MD,21231-1635,US
0,616571,541 South Beechfield Avenue,,Baltimore,MD,21229,US
0,168324,3412 Belair Road,,Baltimore,MD,21213,US
0,167349,6601 Frederick Road,,Baltimore,MD,21228-0711,US
167813,55294400,Ben Franklin High School,1201 Cambria Street,Baltimore,MD,21225,US
0,167079,Bethel Outreach Center,1300 Druid Hill Avenue,Baltimore,MD,21217,US
0,401426,3910 West Rogers Avenue,,Baltimore ,MD,21215,US
0,167081,502 South Sharp Street,Suite 1200,Baltimore,MD,21230,US
0,167084,3600 Clipper Mill Road,Suite 250,Baltimore,MD,21211,US
0,167091,16 West 25th Street,Suite 103,Baltimore,MD,21218,US
0,167092,3345 Washington Boulevard,,Baltimore,MD,21227,US
0,44865489,11 East Mount Royal Avenue,Lower level,Baltimore,MD,21202,US
0,167071,3300 Gaither Road,,Baltimore,MD,21244,US
0,167094,2000 West Baltimore Street,,Baltimore,MD,21223,US
0,169047,3001 Vineyard Lane,,Baltimore,MD,21218,US
0,168600,1301 Mcculloh Street,,Baltimore,MD,21217,US
169149,55294402,Booker T. Washington Middle School for the Arts,1301 McCulloh Street,Baltimore,MD,21217,US
0,358869,4200 Edmondson Avenue,Suite 200-A,Baltimore,MD,21229,US
0,167097,701 Wyman Park Drive,,Baltimore,MD,21211-2899,US
0,168516,2200 Kernan Avenue,,Baltimore,MD,21093,US
0,1739551,110 Townsend Avenue,,Baltimore,MD,21225,US
0,56587933,2109 Druid Park Drive ,Suite A207,Baltimore,MD,21215,US
0,56406474,2901 Druid Park Drive,Suite A207,Baltimore,MD,21215,US
0,168259,175 West Ostend Street,Suite 100,Baltimore,MD,21230,US
0,271139,3911 Garrison Boulevard,,Baltimore,MD,21215,US
0,167123,3302 Toone Street,,Baltimore,MD,21224,US
0,10562264,3319 Summit Avenue,,Baltimore,MD,21234,US
0,168162,900 Somerset Street,,Baltimore,MD,21202,US
0,167146,745 West Fayette Street,,Baltimore,MD,21201-1111,US
0,167148,320 Cathedral Street,,Baltimore,MD,21201,US
0,169023,"1829 Reisterstown Road, Suite 350",,Baltimore,MD,21208,US
0,168649,2201 North Monroe Street,,Baltimore,MD,21217,US
167276,55294404,Central Library,400 Cathedral Street,Baltimore,MD,21201,US
0,167164,5400 Loch Raven Boulevard,,Baltimore,MD,21239,US
0,167950,149 North Luzerne Avenue,,Baltimore,MD,21224,US
1608504,52142742,2401 Liberty Heights Avenue,Suite 4670,Baltimore,MD,21215,US
0,3009943,2222 Jefferson Street,,Baltimore,MD,21205,US
0,167383,1111 North Charles Street,,Baltimore,MD,21201,US
0,168943,2700 Spellman Road,,Baltimore,MD,21225,US
0,167179,301 East Patapsco Avenue,,Baltimore,MD,21225,US
0,167969,PO Box 20127,,Baltimore,MD,21284-0127,US
0,168431,3904 Hickory Avenue,Suite 200,Baltimore,MD,21211,US
0,167181,6802 Mcclean Boulevard,,Baltimore,MD,21234,US
0,167183,4814 Seton Drive,,Baltimore,MD,21215,US
0,167185,600 Light Street,,Baltimore,MD,21230,US
0,167187,2005 East Chase Street,,Baltimore,MD,21213-3325,US
0,259792,2001 West North Avenue,,Baltimore,MD,21217,US
0,168675,9833 Harford Road,,Baltimore,MD,21234,US
0,167193,2629 Huntingdon Avenue,,Baltimore,MD,21211,US
0,167194,4321 Old York Road,,Baltimore,MD,21212-4727,US
168989,55294406,Church Of The Redeemer,5603 North Charles Street,Baltimore,MD,21210,US
0,168575,1001 Saint Paul Street,,Baltimore,MD,21202,US
0,167197,3355 Keswick Road,Suite 200,Baltimore,MD,21211,US
0,167198,317 Dolphin Street,,Baltimore,MD,21217,US
0,168571,2701 St Lo Drive,,Baltimore,MD,21213,US
0,169095,520 West Fayette Street,Suite 410,Baltimore,MD,21201,US
0,31463215,1635 West Pratt Street,,Baltimore,MD,21223,US
0,168335,2714 Hudson Street,,Baltimore,MD,21224,US
0,1830710,300 Water Street,Suite 300,Baltimore,MD,21202,US
0,167212,7900 East Baltimore,,Baltimore,MD,21224,US
0,167261,7201 Rossville Boulevard,,Baltimore,MD,21237,US
0,168656,1500 Union Avenue,Suite 2700,Baltimore,MD,21211,US
0,167217,3355 Keswick Road,Suite 200,Baltimore,MD,21211,US
0,167921,3333 Greenmount Avenue,,Baltimore,MD,21218,US
0,168360,5809 Park Heights Avenue,,Baltimore,MD,21215,US
0,55823100,112 East Patapsco Avenue,,Baltimore,MD,21225,US
0,167223,5204 Liberty Heights Avenue,,Baltimore,MD,21207,US
167038,55294408,Confidential,,Baltimore,MD,21202,US
0,169112,2779 West North Avenue,,Baltimore,MD,21216,US
0,168186,2500 West North Avenue,,Baltimore,MD,21216-3698,US
0,167227,110 West Lafayette Avenue,,Baltimore,MD,21217,US
0,167693,10 South Howard Street,6th Floor,Baltimore,MD,21201,US
0,204007,3134 Eastern Avenue,,Baltimore,MD,21224,US
0,168366,2100 North Charles Street,,Baltimore,MD,21218,US
0,219213,3600 O'Donnell Street,Suite 2,Baltimore,MD,21224,US
0,167243,4203 Ritchie Highway,,Baltimore,MD,21225,US
0,616574,PO Box 13222,,Baltimore,MD,21203,US
0,168862,1125 North Patterson Park Avenue,,Baltimore,MD,21213,US
0,29057295,5411 Old Frederick Road,Suite 17,Baltimore,MD,21229,US
0,168749,6310 Fair Oaks Avenue,,Baltimore,MD,21214,US
0,168361,3521 West Belvedere Avenue,,Baltimore,MD,21215,US
0,169021,201 West Preston Street,4th Floor,Baltimore,MD,21201,US
0,167497,1500 Union Avenue,Suite 2000,Baltimore,MD,21211,US
0,167247,31 Hopkins Plaza,Suite 1229,Baltimore,MD,21201-2825,US
0,168299,501 East Fayette Street,,Baltimore,MD,21202,US
0,42254217,5217 Reisterstown Road ,,Baltimore,MD,21215,US
0,168412,2405 Loch Raven Road,,Baltimore,MD,21218,US
0,167249,219 North Chester Street,,Baltimore,MD,21231,US
0,168671,20 South Charles Street,6th Floor,Baltimore,MD,21202,US
0,27851469,4710 Pennington Avenue,1st Floor,Baltimore ,MD,21226,US
0,168598,2100 Eutaw Place,,Baltimore,MD,21217,US
0,169080,2140 Mcculloh Street,,Baltimore,MD,21217,US
0,167260,2660 Yorkway,,Baltimore,MD,21222-4432,US
0,167262,2 North Dundalk Avenue,2nd Floor,Baltimore,MD,21222,US
0,167487,The Rotunda,"711 West 40th Street, Suite 310",Baltimore,MD,21211,US
0,9693853,800 South Oldham Street,,Baltimore,MD,21224,US
0,167265,301 North Gay Street,,Baltimore,MD,21202,US
167212,55290233,Eastern Family Resource Center,9150 Franklin Square Drive,Baltimore,MD,21237,US
0,167269,155 Orville Road,,Baltimore,MD,21221,US
0,168359,7835 Eastern Avenue,Suite 302,Baltimore,MD,21224,US
0,168752,20 West Montgomery Street,,Baltimore,MD,21230,US
0,167271,1705 West Fayette Street,,Baltimore,MD,21223-1708,US
0,167272,7414 Ellen Avenue,,Baltimore,MD,21219-2120,US
0,168493,606 South Ann Street,,Baltimore,MD,21231,US
0,167276,400 Cathedral Street,,Baltimore,MD,21201-4484,US
0,167277,601 North Schroeder Street,,Baltimore,MD,21217,US
0,169035,3900 Roland Avenue,,Baltimore,MD,21211,US
0,9789514,3317 St. Luke's Lane,,Baltimore,MD,21207,US
0,168046,10 South Howard Street,3rd Floor,Baltimore,MD,21201,US
0,168400,847 North Howard Street,,Baltimore,MD,21201,US
0,41274411,3340 Old Fredrick Road,,Baltimore,MD,21229,US
0,42114823,833 N. Bond St.,,Baltimore,MD,21205,US
0,54943247,5315 Harford Road,,Baltimore,MD,21214,US
0,35553872,2422 West Patapsco Avenue,,Baltimore,MD,21230,US
0,167287,4623 Falls Road,,Baltimore,MD,21209,US
0,167289,PO Box 3909,,Baltimore,MD,21222,US
0,167717,631 Cherry Hill Road,,Baltimore,MD,21225,US
167055,55290236,Family Investment Division,"6401 York Road, 1st Floor ",Baltimore,MD,21212,US
0,168641,2305 North Charles Street,Suite 200,Baltimore,MD,21218,US
0,17174779,239 North Gay Street,,Baltimore,MD,21202,US
0,167599,2108 North Charles Street,,Baltimore,MD,21218,US
0,168521,100 South Charles Street,9th Floor,Baltimore,MD,21201,US
0,167297,27 South Caroline Street,,Baltimore,MD,21231,US
0,401849,100 Saint Helena Avenue,,Baltimore,MD,21222,US
0,167298,525 North Caroline Street,,Baltimore,MD,21205,US
0,168223,2209 Park Avenue,,Baltimore,MD,21217-4847,US
0,166954,1142 North Fulton Avenue,,Baltimore,MD,21217,US
0,203809,6300 Harford Road,,Baltimore,MD,21214,US
0,167304,4711 Edmondson Avenue,,Baltimore,MD,21229,US
0,167307,3700 Greenspring Avenue,,Baltimore,MD,21211,US
0,167308,Claire Court,3725 Ellerslie Avenue,Baltimore,MD,21218,US
0,367693,2716 Baker Street,,Baltimore,MD,21216,US
0,10117122,2526 St. Paul Street,,Baltimore,MD,21218,US
0,167323,505 Baltimore Avenue,,Baltimore,MD,21204,US
0,167327,1800 Washington Boulevard,Suite 410-A,Baltimore,MD,21230,US
0,168728,1601 Guilford Avenue,2 South,Baltimore,MD,21202,US
0,169036,2300 Garrison Boulevard,Suite 211,Baltimore,MD,21216,US
0,35281678,2800 Sisson Street,,Baltimore,MD,21211,US
0,168674,4615 Park Heights Avenue,,Baltimore,MD,21215-6331,US
168443,55294412,Gaudenzia,4450 Park Heights Avenue ,Baltimore,MD,21215,US
0,167338,100 Cathedral Street,3rd Floor,Baltimore,MD,21201,US
0,168250,818 North Collington Avenue,,Baltimore,MD,21205,US
0,167341,4806 Seton Drive,,Baltimore,MD,21215,US
0,167343,516 Glenwood Avenue,,Baltimore,MD,21212,US
0,167344,3459 Park Heights Avenue,,Baltimore,MD,21215,US
0,167345,222 East Redwood Street,,Baltimore,MD,21202,US
0,167346,5513 York Road,,Baltimore,MD,21212,US
0,14982140,5828 York Road,,Baltimore ,MD,21212,US
0,167347,4 South Gay Street,,Baltimore,MD,21202,US
0,167351,2418 St. Paul Street,,Baltimore,MD,21218-5518,US
0,168474,111 South Calvert Street,Suite 1700,Baltimore,MD,21202,US
0,167352,6701 North Charles Street,,Baltimore,MD,21204,US
0,167070,512 Orchard Street,,Baltimore,MD,21201,US
0,168428,6025 Moravia Park Drive,,Baltimore,MD,21206,US
0,168192,3723 Old Court Road,Suite 205,Baltimore,MD,21208,US
0,167360,1104-1106 West 36th Street,,Baltimore,MD,21211,US
0,9219438,3612 Falls Road,,Baltimore,MD,21211,US
0,167364,5807 Harford Road,,Baltimore,MD,21214-1895,US
0,167365,4308 Harford Road,,Baltimore,MD,21214,US
0,167382,421 Fallsway ,,Baltimore,MD,21202,US
167382,20152150,,,Baltimore,MD,,US
0,55059188,2901 Druid Park Drive,Suite 105,Baltimore,MD,21215,US
168443,55294414,Healthcare Access Maryland,"201 East Baltimore Street, Suite 1000",Baltimore,MD,21202,US
0,167384,5900 Metro Drive,,Baltimore,MD,212185,US
0,2967177,611 Park Avenue,Suite A,Baltimore,MD,21201,US
0,169071,2828 Loch Raven Road,,Baltimore,MD,21218,US
0,167390,1029 East Baltimore Street,,Baltimore,MD,21202,US
30817598,55294416,Highlandtown Elementary/Middle School #237,231 South Eaton Street,Baltimore,MD,21224,US
0,168402,1212 North Wolfe Street,,Baltimore,MD,21213,US
0,167391,408 South Chester Street,,Baltimore,MD,21231,US
0,167392,201 North Charles Street,Suite 1104,Baltimore,MD,21201-4403,US
0,167394,1500 Gorsuch Avenue,,Baltimore,MD,21218,US
0,9761522,1 North Charles Street,Suite 1102 B,Baltimore ,MD,21201,US
0,168877,17 West Mulberry Street,Suite 771,Baltimore,MD,21201,US
0,167400,2201 Argonne Drive,,Baltimore,MD,21218-1627,US
0,167361,3449 Falls Road,,Baltimore,MD,21211,US
0,168485,4432 Park Heights Avenue,,Baltimore,MD,21215,US
0,56363983,5438 York Road Suite 202,,Baltimore,MD,21212,US
0,167604,5407 North Charles Street,,Baltimore,MD,21210-2094,US
0,56406537,5601 Loch Raven Boulevard ,Suite 105,Baltimore,MD,21239,US
0,616558,2104 Maryland Avenue,,Baltimore,MD,21218,US
0,56335644,"1900 N. Howard Street, Suite 200 ",,Baltimore,MD,21218,US
0,260063,6631 Johnnycake Road,,Baltimore,MD,21244,US
0,219399,5010 York Road,,Baltimore,MD,21212,US
0,203586,2520 Maryland Avenue,,Baltimore,MD,21218,US
0,167430,5700 Park Heights Avenue,,Baltimore,MD,21215,US
0,168098,5750 Park Heights Avenue,,Baltimore,MD,21215,US
0,182028,217 East Redwood Street,Suite 1500,Baltimore,MD,21202,US
0,168253,3914 Vero Road,,Baltimore,MD,21227,US
0,167433,3202 West North Avenue,,Baltimore,MD,21216,US
168176,55294422,"Johns Hopkins at Eastern Campus, 1101 East 33rd Street",Suite C307,Baltimore,MD,21218,US
0,167434,4940 Eastern Avenue,,Baltimore,MD,21224,US
0,169010,1800 Orleans Street,,Baltimore,MD,21287,US
0,168523,3100 Wyman Park Drive,,Baltimore,MD,21211,US
168722,55294424,"Johns Hopkins Department of Neurology, Green Spring Falls Concourse","10751 Falls Road, Suite 250",Baltimore,MD,21093,US
0,167435,600 North Wolfe Street,,Baltimore,MD,21287,US
167435,55294426,Johns Hopkins Hospital,,Baltimore,MD,,US
0,168722,720 Rutland Avenue,,Baltimore,MD,21205,US
0,168356,525 North Wolfe Street,,Baltimore,MD,21205-2110,US
0,167459,3400 North Charles Street,,Baltimore,MD,21218,US
0,219272,2713 Latona Road,,Baltimore,MD,21214,US
0,167438,1351 South Clinton Street,,Baltimore,MD,21224,US
0,168396,100 South Washington Street,,Baltimore,MD,21231,US
0,167442,801 North Broadway,,Baltimore,MD,21205,US
0,168077,5520 Research Park Drive,Suite 400,Baltimore,MD,21228,US
0,167452,700 West 40th Street,,Baltimore,MD,21211-2199,US
167813,55294428,Leadenhall Baptist Church,1021 Leadenhall Street,Baltimore,MD,21230,US
0,167460,2434 West Belvedere Avenue,,Baltimore,MD,21215,US
0,167461,218 North Paca Street,,Baltimore,MD,21201,US
2001145,55294430,Liberty Recreation,3901 Maine Avenue,Baltimore,MD,21207,US
2001145,55294440,Liberty Recreation,3901 Maine Avenue,Baltimore,MD,21207,US
2001145,55294438,Liberty Recreation,3901 Maine Avenue,Baltimore,MD,21207,US
2001145,55294436,Liberty Recreation,3901 Maine Avenue,Baltimore,MD,21207,US
2001145,55294434,Liberty Recreation,3901 Maine Avenue,Baltimore,MD,21207,US
2001145,55294432,Liberty Recreation,3901 Maine Avenue,Baltimore,MD,21207,US
0,168063,2822 Hollins Ferry Road,,Baltimore,MD,21230,US
0,168508,600 West North Avenue,,Baltimore,MD,21217,US
0,374366,1736 North Payson Street,,Baltimore,MD,21217,US
0,168280,802 South Caroline Street,,Baltimore,MD,21231,US
0,167471,2 North Kresson Street,,Baltimore,MD,21224,US
0,1740613,3313 Oakfield Avenue,,Baltimore,MD,21207,US
0,167473,4501 North Charles Street,,Baltimore,MD,21210,US
0,174272,4501 North Charles Street,,Baltimore,MD,21210,US
0,21272107,700 Light Street,,Baltimore ,MD,21230,US
0,167474,601 Hammonds Lane,,Baltimore,MD,21225,US
0,168017,718 West Lafayette Avenue,,Baltimore,MD,21217,US
0,616562,2117 Maryland Avenue,,Baltimore,MD,21218,US
0,36814220,3043 West Belvedere Avenue,,Baltimore,MD,21215,US
0,167478,435 East 25th Street,,Baltimore,MD,21218,US
0,167480,300 West Pratt Street,,Baltimore,MD,21201,US
0,167481,949 Gorsuch Avenue,,Baltimore,MD,21218-3602,US
0,167482,7000 Hamlet Avenue,,Baltimore,MD,21234,US
168649,55294442,"Martin Luther King, Jr. Elementary",3750 Greenspring,Baltimore,MD,21211,US
0,167483,3701 Eastern Avenue,,Baltimore,MD,21224,US
0,260072,4140 Patterson Avenue,,Baltimore,MD,21215,US
0,168498,4910 Park Heights Avenue,2nd Floor,Baltimore,MD,21215,US
0,168379,301 North High Street,,Baltimore,MD,21202,US
0,182563,5100 Denmore Avenue,,Baltimore,MD,21215,US
0,167490,6 St. Paul Street,Suite 900,Baltimore,MD,21202,US
0,168463,301 West Preston Street,Suite 1007,Baltimore,MD,21201-2374,US
0,167915,301 West Preston Street,,Baltimore,MD,21201-2395,US
0,167492,401 East Pratt Street,9th Floor,Baltimore,MD,21202,US
0,358732,1800 Washington Boulevard,,Baltimore,MD,21230,US
0,167494,201 West Preston Street,,Baltimore,MD,21201-2399,US
0,167495,311 West Saratoga Street,,Baltimore,MD,21201,US
0,167244,120 West Fayette Street,3rd Floor,Baltimore,MD,21201,US
0,167496,500 North Calvert Street,,Baltimore,MD,21201,US
0,167520,31 Hopkins Plaza,Room 3020,Baltimore,MD,21201,US
0,168436,2305 North Charles Street,Suite 101,Baltimore,MD,21218,US
0,358719,1800 Washington Boulevard,Suite 755,Baltimore,MD,21230,US
0,167281,4 East University Parkway,,Baltimore,MD,21218,US
0,201133,1001 Eastern Avenue,2nd Floor,Baltimore,MD,21202,US
0,167498,2200 Halethorpe Farms Road,,Baltimore,MD,21227,US
0,167500,6 North Liberty Street,Ground Suite,Baltimore,MD,21201,US
0,168313,108 West Centre Street,,Baltimore,MD,21201-,US
0,168140,200 St. Paul Place,Suite 2700,Baltimore,MD,21202,US
0,167458,500 East Lexington Street,,Baltimore,MD,21202-3560,US
0,168442,29th Division Street,5th Regiment Armory,Baltimore,MD,21201-2288,US
0,167506,611 Park Avenue,,Baltimore,MD,21201,US
0,167485,1500 Union Avenue,Suite 2500,Baltimore,MD,21211,US
0,167516,6 Saint Paul Street,Suite 2102,Baltimore,MD,21202-1608,US
0,167585,200 St. Paul Place,16th Floor,Baltimore,MD,21202-2021,US
0,167643,6 St. Paul Street,Suite 1400,Baltimore,MD,21202-1608,US
0,168212,1101 St. Paul Street,Suite 305,Baltimore,MD,21202,US
0,167509,3501 Taylor Avenue,,Baltimore,MD,21236,US
0,167511,1313 West Old Cold Spring Lane,,Baltimore,MD,21209,US
0,167508,3300 Falls Road,,Baltimore,MD,21211,US
0,167513,200 West Baltimore Street,,Baltimore,MD,21201,US
0,167518,6 St. Paul Street,16th Floor,Baltimore,MD,21202,US
0,167519,2301 Argonne Drive,Suite T-17,Baltimore,MD,21218,US
0,167521,201 North Charles Street,Suite 1400,Baltimore,MD,21201-3701,US
167434,55294444,"Mason F Lord Building, East Tower, Ground Floor",4940 Eastern Avenue,Baltimore,MD,21224,US
0,24418029,1211 North Chester Street,,Baltimore,MD,21213,US
0,167524,417 East Fayette Street,Suite 468,Baltimore,MD,21202,US
0,168439,515 South Haven Street,,Baltimore,MD,21224,US
0,167941,1211 Cathedral Street,,Baltimore,MD,21201-5585,US
0,168601,821 Eutaw Street,Suite 101 and 201,Baltimore,MD,21201,US
0,168583,2222 East Jefferson Street,,Baltimore,MD,21205,US
0,167532,345 St. Paul Place,,Baltimore,MD,21202-2140,US
0,367995,PO Box 213713,,Baltimore,MD,21203,US
0,18737560,411 Millington Avenue ,,Baltimore,MD,21223,US
0,167537,31 Hopkins Plaza,Room 1237,Baltimore,MD,21201-2829,US
0,169001,1700 East Coldspring Lane,,Baltimore,MD,21251,US
0,374398,6000 Radecke Avenue,,Baltimore,MD,21206,US
0,39378823,2000 East Belvedere Avenue,,Baltimore,MD,21239,US
0,167552,3800 Frederick Avenue,,Baltimore,MD,21229,US
0,168484,901 North Milton Avenue,,Baltimore,MD,21223,US
0,24322688,513 East 36th Street,,Baltimore,MD,21218,US
0,56406588,2812-14 Reisterstown Road,,Baltimore ,MD,21215,US
0,358851,2201 Garrison Boulevard,,Baltimore,MD,21216,US
0,56526160,"3708 Liberty Heights Ave, 3rd Fl",,Baltimore,MD,21215,US
0,167561,4207 Frederick  Avenue,,Baltimore,MD,21229,US
0,12689149,1400 East Federal Street,"Oliver Community Association Building, 2nd Floor",Baltimore,MD,21213,US
0,167563,4805 Mount Hope Drive,,Baltimore,MD,21215,US
0,167068,217 North Warwick Avenue,,Baltimore,MD,21223,US
0,168679,28 East Ostend Street,Suite 303,Baltimore,MD,21230,US
0,167566,200 East Wells Street,,Baltimore,MD,21230,US
0,56406541,5411 Old Frederick Rd#13,,Baltimore,MD,21229,US
0,168626,106 West Clay Street,,Baltimore,MD,21201,US
0,167574,120 West North Avenue,Suite 306,Baltimore,MD,21201,US
0,167163,25 East 20th Street,Suite 170,Baltimore,MD,21218,US
0,166972,4408 Liberty Heights Avenue,,Baltimore,MD,21207-7593,US
0,168736,2401 St. Paul Street,,Baltimore,MD,21202,US
0,167577,5401 Frankford Avenue,,Baltimore,MD,21206-6139,US
168241,51349267,2417 East North Avenue,,Baltimore,MD,21213,US
0,168241,2417 East North Avenue,,Baltimore,MD,21213,US
0,260007,559 Roberts Street,,Baltimore,MD,21217,US
0,167102,New Metropolitan Church,1501 Mcculloh Street,Baltimore,MD,21217,US
0,3171543,6020 Marian Drive,,Baltimore,MD,21215,US
0,167578,2100 North  Monroe Street,,Baltimore,MD,21217,US
0,168355,1530 Presstman Street,,Baltimore,MD,21217,US
0,368000,3931 Ridgway Avenue,,Baltimore,MD,21215,US
0,219426,644 East 33rd Street,,Baltimore,MD,21218,US
0,168676,1928 Pennsylvania Avenue,,Baltimore,MD,21217,US
0,169051,"1700 East Coldspring Lane, Truth Hall 111",Morgan State University,Baltimore,MD,21251,US
0,26878053,1100 East Northern Parkway,,Baltimore,MD,21239,US
0,167882,201 West Preston Street,Room 103,Baltimore,MD,21201,US
12689149,55294452,Oliver Community Association Building,"1400 East Federal Street, 2nd Floor",Baltimore ,MD,21213,US
0,168362,1400 East Federal Street,,Baltimore,MD,21213,US
0,38359492,3500 Edmondson Avenue,,Baltimore,MD,21229,US
0,169074,2300 Garrison Boulevard,Suite 104,Baltimore,MD,21216,US
0,203844,Lockerman-Bundy Elementary School,301 North Pulaski Street,Baltimore,MD,21223,US
0,203791,3907 Hamilton Avenue,,Baltimore,MD,21206,US
0,17175009,3939 Reisterstown Road,,Baltimore,MD,21215,US
0,167601,3319 West Belvedere Avenue,,Baltimore,MD,21215,US
0,1741086,2100 Liberty Heights Avenue,,Baltimore,MD,21217,US
0,169052,3804 9th Street,,Baltimore,MD,21225,US
0,168448,808 Park Avenue,,Baltimore,MD,21201,US
0,167923,1118 Ward Street,,Baltimore,MD,21230,US
0,167605,1714 Madison Avenue,,Baltimore,MD,21217,US
0,3629791,505 East 42nd Street,,Baltimore,MD,21218,US
0,168751,2002 Clipper Park Road,Suite 105,Baltimore,MD,21211,US
0,167608,1800 Penrose Avenue,,Baltimore,MD,21223,US
0,167610,2500 Edmondson Avenue,,Baltimore,MD,21223,US
0,168682,9515 Belair Road,,Baltimore,MD,21236,US
0,168538,1000 East Joppa Road,Apartment 203,Baltimore,MD,21286,US
0,168085,330 North Howard Street,,Baltimore,MD,21201,US
168051,55290240,PO Box 10822,,Baltimore,MD,21234,US
203459,55294456,PO Box 13004,,Baltimore,MD,21203,US
616574,55294458,PO Box 13222,,Baltimore,MD,21203,US
167063,55294462,PO Box 1475,,Baltimore,MD,21203,US
167513,55294464,PO Box 17015,,Baltimore,MD,21297,US
167595,55294466,PO Box 20013,,Baltimore,MD,21284,US
167969,55294468,PO Box 20127,,Baltimore,MD,21284-0127,US
367995,55294470,PO Box 23713,,Baltimore,MD,21203,US
167948,55294472,PO Box 28259,,Baltimore,MD,21234-8259,US
167289,55294476,PO Box 3909,,Baltimore,MD,21222,US
167055,55290244,PO Box 3909,,Baltimore ,MD,21222,US
0,374389,3410 White Avenue,,Baltimore,MD,21214,US
0,56460361,5710 Bellona Ave,Suite 102,Baltimore,MD,21212,US
0,168394,14 South Broadway,,Baltimore,MD,21231,US
0,167615,6805 York Road,,Baltimore,MD,21212,US
0,167616,5411 Old Frederick Road,Suite 1,Baltimore,MD,21229,US
0,168455,5400 Loch Raven Boulevard,,Baltimore,MD,21239,US
0,12277601,25 North Caroline Street,,Baltimore,MD,21231,US
0,168628,110 West Road,Suite 202,Baltimore,MD,21204,US
0,167512,520 West Fayette Street,,Baltimore,MD,21201,US
0,1830797,PO Box 39744,,Baltimore,MD,21212,US
0,167639,1814 Maryland Avenue,,Baltimore,MD,21201,US
0,2001145,Liberty Recreation,3901 Maine Avenue,Baltimore,MD,21207,US
0,168435,1427 Pennsylvania Avenue,,Baltimore,MD,21217,US
0,167641,1401 Pennsylvania Avenue,,Baltimore,MD,21217,US
0,167644,1 North Charles Street,Suite 200,Baltimore,MD,21201,US
0,167657,3501 Taylor Avenue,,Baltimore,MD,21236,US
0,168382,1821 North Smallwood Street,,Baltimore,MD,21216-7512,US
0,167659,3000 Parkside Drive,,Baltimore,MD,21214,US
0,168328,5820 York Road,Suite T300,Baltimore,MD,21212,US
0,204262,1900 East Northern Parkway,Suite 201,Baltimore,MD,21239,US
0,168653,201 North Charles Street,Suite 200,Baltimore,MD,21201,US
0,1110733,1900 North Broadway ,Suite 101,Baltimore,MD,21213,US
0,167672,635 West Lexington Street,,Baltimore,MD,21201-1571,US
0,28766236,1501 West Lexington Street,,Baltimore,MD,21223,US
167148,55290247,Saint Clements Church,2700 Washington Avenue,Baltimore,MD,21227,US
0,168883,7509 Windsor Mill Road,,Baltimore,MD,21244,US
0,167675,814 Light Street,,Baltimore,MD,21230,US
0,167531,1407 Bolton Street,,Baltimore,MD,21217,US
0,12830652,1900 North Broadway,Suite 100,Baltimore,MD,21213,US
0,167690,1355 Homestead Street,,Baltimore,MD,21218,US
0,168418,5828 York Road,,Baltimore,MD,21212,US
0,169066,611 North Eutaw Street,"Mondawmin Mall, 3rd Floor",Baltimore,MD,21201,US
0,168616,218 North Charles Street,Suite 220,Baltimore,MD,21201,US
0,167699,2800 Kirk Avenue,,Baltimore,MD,21218,US
0,167702,6501 North Charles Street,,Baltimore,MD,21285-6815,US
0,167705,2401 West Belvedere Avenue,,Baltimore,MD,21215,US
0,168210,1505 Eutaw Place,,Baltimore,MD,21217,US
0,168176,1101 East 33rd Street,,Baltimore,MD,21218,US
0,20161155,7201 Sollers Point Road,,Baltimore,MD,21222,US
0,167715,1435 South Hanover Street,,Baltimore,MD,21230,US
0,167975,28 East Ostend Street,,Baltimore,MD,21230,US
0,169084,3323 Eastern Avenue,Suite 200,Baltimore,MD,21224,US
0,30817598,Highlandtown Elementary/Middle School #237, 231 South Eaton Street,Baltimore ,MD,21224,US
167054,55939595,Southeast Regional Recreation Center,4021 North Point Boulevard,Baltimore,MD,21222,US
0,167723,1201 Maple Avenue,,Baltimore,MD,21227-2639,US
0,168062,3701 Commerce Drive,Suite 103,Baltimore ,MD,21227,US
0,167724,2416 Lampost Lane,,Baltimore,MD,21234,US
0,167728,900 Caton Avenue,,Baltimore,MD,21229,US
0,167729,321 East 25th Street,,Baltimore,MD,21218,US
0,53488803,4414 Frankford Avenue,,Baltimore,MD,21206,US
0,167731,3301 Windsor Avenue,,Baltimore,MD,21216,US
0,11920917,1212 Chesaco Avenue,,Baltimore,MD,21237,US
0,167732,901 Poplar Grove Street,,Baltimore,MD,21216-4398,US
0,167733,2638 East Baltimore Street,,Baltimore,MD,21224,US
0,167735,2405 Linden Avenue,,Baltimore,MD,21217-3944,US
0,167736,1501 East Oliver Street,,Baltimore,MD,21213-2999,US
0,167737,1542 North Gilmor Street,,Baltimore,MD,21217,US
0,167738,740 North Calvert Street,,Baltimore,MD,21202-3684,US
0,26115871,1901 West Lexington Street,,Baltimore,MD,21223,US
0,167739,226 Washburn Avenue,,Baltimore,MD,21225-2099,US
0,40202590,7001 Harford Road,,Baltimore,MD,21234,US
0,6941139,3900 Roland Avenue,,Baltimore ,MD,21211,US
0,39970361,6400 Belair Road,,Baltimore,MD,21206,US
0,167758,3915 Pennington Avenue,,Baltimore,MD,21226-1211,US
0,259785,7834 Eastern Avenue,,Baltimore,MD,21224,US
0,167762,13 South Poppleton Street,,Baltimore,MD,21201,US
0,167763,7910 Belair Road,,Baltimore,MD,21236,US
0,167766,2305 North Charles Street,Suite 300,Baltimore,MD,21218,US
0,167663,2100 East Madison Street,,Baltimore,MD,21205,US
0,56406466,5616 Park Heights Avenue,,Baltimore,MD,21215,US
0,167353,3501 North Charles Street,,Baltimore,MD,21218,US
0,169061,217 East Redwood Street,Suite 1500,Baltimore,MD,21202,US
0,168886,1600 Rutland Avenue,,Baltimore,MD,21213,US
0,168989,Church Of The Redeemer,5603 North Charles Street,Baltimore,MD,21210,US
0,168715,6206 Pilgrim Road,,Baltimore,MD,21214,US
0,271284,802 North Fulton Avenue,,Baltimore,MD,21217,US
0,56363993,1111 Anywhere Avenue,,Baltimore,MD,21061,US
0,168881,1750 East Fairmount Avenue,2nd Floor,Baltimore,MD,21213-3939,US
169010,55294484,"The Harriet Lane Health Clinic, David M. Rubenstein Child Health Building",200 North Wolfe Street,Baltimore,MD,21287,US
3009943,55294486,The Men and Families Center,2222 Jefferson Street,Baltimore,MD,21205,US
167276,55294488,The Pennsylvania Avenue Branch,1531 West North Avenue,Baltimore,MD,21217,US
167487,55294490,The Rotunda,"711 West 40th Street, Suite 310",Baltimore,MD,21211,US
168155,55294492,The Shriver Center - PUP,1000 Hilltop Circle,Baltimore,MD,21250,US
0,56481593,3425 Sinclair Lane,,Baltimore,MD,21213,US
0,56406505,2901 Druid Park Drive,Suite A210,Baltimore,MD,21215,US
0,167784,1501 Division Street,,Baltimore,MD,21217,US
0,515126,100 South Charles Street,5th Floor,Baltimore,MD,21203,US
0,38359495,841 East Fort Avenue,#318 ,Baltimore,MD,21230,US
0,167774,2517 North Charles Street,,Baltimore,MD,21218,US
0,167791,1601 Druid Hill Avenue,,Baltimore,MD,21217,US
0,168425,3604 North Rogers Avenue,,Baltimore,MD,21207,US
0,167792,2214 Evergreen Street,,Baltimore,MD,21216,US
0,167645,730 Ashburton Street,,Baltimore,MD,21216,US
0,167934,PO Box 26145,,Baltimore,MD,21210,US
0,167809,10 South Howard Street,Suite 6220,Baltimore,MD,21201,US
0,167706,6401 Security Boulevard,,Baltimore,MD,21235-0001,US
0,8892260,1215 East Fort Avenue,Suite 104,Baltimore,MD,21230,US
0,1830800,1217 West North Avenue,,Baltimore,MD,21217,US
182028,55290250,UMBC Apartment Community Center,1000 Hilltop Circle,Baltimore,MD,21250,US
0,168401,1400 East Lombard Street,,Baltimore,MD,21231,US
0,167813,1800 Washington Boulevard,Suite 340,Baltimore,MD,21230,US
0,167823,1401 Severn Street,Suite 201,Baltimore,MD,21230,US
0,182559,1420 North Charles Street,,Baltimore,MD,21201,US
0,167825,1415 Maryland Avenue,,Baltimore,MD,21201,US
0,168155,1000 Hilltop Circle,,Baltimore,MD,21250,US
0,167824,650 West Baltimore Street,,Baltimore,MD,21201,US
0,167827,250 West Pratt Street,,Baltimore,MD,21201,US
0,168747,500 West Baltimore Street,,Baltimore,MD,21201,US
168747,55294494,"University of Maryland School of Law, Clinical Law Office","500 West Baltimore Street, Room 360",Baltimore,MD,21201,US
0,168352,655 West Baltimore Street,,Baltimore,MD,21201,US
0,167828,20 North Pine Street,Office Level # 3,Baltimore,MD,21201,US
0,169149,525 West Redwood Street,,Baltimore,MD,21201,US
0,2698485,"1500 Union Avenue, 2100",,Baltimore ,MD,21211,US
0,168337,28 South Broadway,,Baltimore,MD,21231,US
0,168683,4111 Washington Boulevard,,Baltimore,MD,21227,US
0,167833,31 Hopkins Plaza,Room 1226,Baltimore,MD,21201,US
0,168640,6211 Harford Road,,Baltimore,MD,21214,US
0,203444,2521 St. Paul Street,,Baltimore,MD,21218,US
0,167150,26 South Mount Street,,Baltimore,MD,21223,US
0,167839,2301 Argonne Drive,,Baltimore,MD,21218,US
0,168071,7008 Security Boulevard,Suite 300,Baltimore,MD,21244,US
167804,23968893,,,Baltimore,MD,,US
167804,24269369,,,Baltimore,MD,,US
167697,55290254,Walter L. Carter Building,"6908 Eastern Avenue, Suite 1B",Baltimore,MD,21224,US
0,1740990,600 North Charles Street,,Baltimore,MD,21201,US
0,167856,417 North Aisquith Street,,Baltimore,MD,21202,US
0,167859,3200 Garrison Boulevard,,Baltimore,MD,21216,US
0,167802,524 North Charles Street,,Baltimore,MD,21201,US
0,167865,3001-3005 Baker Street,,Baltimore,MD,21216,US
0,168723,7648 Belair Road,,Baltimore,MD,21236,US
0,29426582,2502 W. Northern Parkway,,Baltimore,MD,21215,US
0,168581,2300 Garrison Boulevard,Suite 150,Baltimore,MD,21216,US
0,167879,5209 York Road,Suite B-12,Baltimore,MD,21212,US
0,167880,119 East 25th Street,,Baltimore,MD,21218,US
0,167883,1301 Woodbourne Avenue,,Baltimore,MD,21239-3399,US
0,168011,10 East Baltimore Street,,Baltimore,MD,21202,US
0,367690,7 East Baltimore Street,,Baltimore,MD,21202,US
0,167503,401 East Pratt Street,Suite 232,Baltimore,MD,21202,US
0,167900,303 West Chesapeake Avenue,,Baltimore,MD,21204,US
0,212342,3533 Dolfield Ave.,,Baltimore,MD,21215,US
0,168399,10 West Eager Street,3rd Floor,Baltimore,MD,21201,US
0,9693892,2315 North Charles Street,1st Floor,Baltimore,MD,21218,US
0,204343,2601 North Howard Street,Suite 160,Baltimore,MD,21218,US
0,167902,1800 North Charles Street,Suite 904,Baltimore,MD,21201,US
0,167904,1700 North Caroline Street,,Baltimore,MD,21213,US